,identifiant,adresse,precision_adresse,raison_sociale,nom,code_postal,code_insee,nom_commune,longitude,latitude
28,IDF9500483,?,nulle,CAMUS,?,95360,95427,Montmagny,,
4180,IDF7800693,rue ?,nulle,SOC ?,,78125,78269,Gazeran,,
11156,IDF9502535,"Epiais, rue d'",rue,SAMIR,?,95380,95154,Chennevières-lès-Louvres,,
15672,IDF7800567,rue ?,nulle,SOC ?,,78121,78189,Crespières,,
24319,IDF9401642,"Frileuse, 5 rue Frileuse",adresse,Gandon,Dépôt de déchets métalliques,94250,94037,Gentilly,,
26848,IDF7706112,"Paris, rue de",rue,FAVIN (Garage),Garage,77720,77317,Mormant,,
26849,IDF7700295,RN 36,rue,AGE,,77390,77222,Guignes,,
26854,IDF7701507,"Orgemont, rue d'",rue,Station-service,Station-service,77124,77335,Chauconin-Neufmontiers,,
26855,IDF7802157,?,rue,BOURGINIAT FRERES,,78190,78621,Trappes,,
26858,IDF7800101,Vaucresson (route de),rue,BAILLY (COMMUNE DE),,78870,78043,Bailly,,
26861,IDF9101372,CR N° 4,nulle,ROUBIEN,,91430,91312,Igny,,
26864,IDF7702347,"Moret, route de",rue,RAMU Renée,Dépôt de pneumatiques,77140,77156,Darvault,,
26865,IDF9302910,RUFFINS (chemin des),rue,X,,93100,93048,Montreuil,,
26866,IDF9200133,"Aigle, 9 rue de l'",adresse,Garage,Garage,92100,92012,Boulogne-Billancourt,,
26869,IDF9201058,"Lorraine, 126 boulevard de",adresse,Laguionie et Cie (Sté),Magasin de printemps,92110,92024,Clichy,,
26873,IDF9301162,MONTMORENCY (route de),rue,FAUCON (M.),,93430,93079,Villetaneuse,,
26875,IDF9400517,"Hay, 54 rue de l'Hay",adresse,Dépôt d'huiles minérales,Dépôt d'huiles minérales,94250,94037,Gentilly,,
26878,IDF7705020,CD,nulle,Chalopin (Ets),Blanchisserie,77720,77044,Bombon,,
26879,IDF7703641,CD n°40,nulle,HECQUET,,,,,,
26884,IDF7703877,"Foch, 4 avenue maréchal",adresse,GEORGES (Jean),,77860,77382,Quincy-Voisins,,
26891,IDF9501977,"Gonesse, 1 route de",adresse,"Belle Alexis, Entreprise",,95200,95585,Sarcelles,,
26918,IDF9401603,"Frileuse, 71 rue Frileuse",adresse,Pelladeau,Blanchisserie,94250,94037,Gentilly,,
26921,IDF9400506,"Roncy, 110 route de Roncy",adresse,Verrerie,Verrerie,94120,94033,Fontenay-sous-Bois,,
26922,IDF9401918,"Bleuts, 2 avenue des Bleuts",adresse,"Bailly, Ets",Serrurerie,94480,94001,Ablon-sur-Seine,,
26923,IDF9100944,"Champrosay, Résidence de",lieu-dit,MONTENAY,,91210,91201,Draveil,,
26924,IDF9100969,"Liberté, 22 rue de la",adresse,RAMS Gisèle,,91210,91201,Draveil,,
26929,IDF7700693,"Portes de la Forêt, parc d'activités",lieu-dit,TECA,,77090,77121,Collégien,,
26976,IDF7706847,"Porte du bois, parc d'activité",lieu-dit,FERRY (Peter) - Usine Hervé,Imprimerie - Stokage de papiers et de cartons,77090,77121,Collégien,,
26996,IDF9300697,POISSONNIERS (7 route des),adresse,FACHATTE (M.),,93200,93066,Saint-Denis,,
27004,IDF9300698,CORNILLON (ZAC SUD),lieu-dit,SCI EIDER,,93200,93066,Saint-Denis,,
27008,IDF9300699,CROIX PENCHEE (la),lieu-dit,LEMARECHAL,,93200,93066,Saint-Denis,,
27137,IDF9301818,BOIS MESURIER (le),lieu-dit,SIMSON (M.),,93120,93027,La Courneuve,,
27170,IDF9302908,BELFORT (32 boulevard de),adresse,POUPEES RAYNAL,,93100,93048,Montreuil,,
27175,IDF9403082,"Aqueducs, 56 rue des Aqueducs",adresse,"Morin, Ets",Fabrique d'acétylène,94250,94037,Gentilly,,
27205,IDF9501352,"Leclerc, 151 av du Général",adresse,"Française de distribution TOTAL, Sté Cie",Station service,95870,95063,Bezons,,
27207,IDF9302912,"MOINES (22, ruelle aux)",adresse,MUBY ou NUBY,,93100,93048,Montreuil,,
27209,IDF9400507,"Noyers, 9 rue des Noyers",adresse,"Lefort ; Cie parisienne de voiture ""L'Urbaine""",Atelier de matières plastiques,94250,94037,Gentilly,,
27210,IDF9400509,"Frileuse, 57 rue Frileuse",adresse,Foucault,Atelier de cuirs,94250,94037,Gentilly,,
27212,IDF9400515,"Montrouge, 39 rue de Montrouge",adresse,Dépôt de liquides inflammables,Dépôt de liquides inflammables,94250,94037,Gentilly,,
27213,IDF9400516,"Noyers, 3 rue des Noyers",adresse,Dépôt d'huiles minérales,Dépôt d'huiles minérales,94250,94037,Gentilly,,
27214,IDF9400518,"Montrouge, 111 rue de Montrouge",adresse,LUX,Atelier de matières plastiques,94250,94037,Gentilly,,
27216,IDF9400519,"Robine, 10 rue Robine",adresse,Forge,Forge,94250,94037,Gentilly,,
27217,IDF9400521,"Pont Neuf, 11 rue du Pont Neuf",adresse,Mégisserie,Mégisserie,94250,94037,Gentilly,,
27218,IDF9400796,"Durand, 64 Avenue du Docteur Durand",adresse,Walter,Atelier de production de transformateurs,94250,94037,Gentilly,,
27219,IDF9400798,"Poterne, avenue de la Poterne",rue,Blanchisserie,Blanchisserie,94250,94037,Gentilly,,
27220,IDF9400799,"Fontainebleau, Route de Fontainebleau",rue,Mégisserie,Mégisserie,94250,94037,Gentilly,,
27221,IDF9400801,"Bobillot, rue Bobillot",rue,Atelier de caoutchouc,Atelier de caoutchouc,94250,94037,Gentilly,,
27222,IDF9400803,"Mairie, 45 rue de la Mairie (1903), ex rue de la Comète",adresse,Atelier de cuirs,Atelier de cuirs,94250,94037,Gentilly,,
27225,IDF9400806,"noyers, 8 rue des",adresse,Flottar et Sauger,Mégisserie,94250,94037,Gentilly,,
27226,IDF9401319,"Paris, 33 rue de Paris",adresse,Juif,Dépôt de liquides inflammables,94250,94037,Gentilly,,
27227,IDF9400807,Glacière,lieu-dit,Lecoursonnay,Papeterie,94250,94037,Gentilly,,
27228,IDF9400808,"Prêtres, chemin des Prêtres",rue,PETIT,Atelier de fabrication capsules de poudre de fulminate,94250,94037,Gentilly,,
27229,IDF9400745,"Glacière, 21 Rue de la Glacière",adresse,Bissière,Atelier de mécanique,94250,94037,Gentilly,,
27230,IDF9400746,"Frileuse, 83 Rue Frileuse",adresse,"Tannerie & Teinture, Ets",Tannerie,94250,94037,Gentilly,,
27231,IDF9400994,"Hay, 162 rue de l'Hay",adresse,Nanty M.,Atelier de traitement des métaux,94250,94037,Gentilly,,
27232,IDF9401300,"Cote d'argent, 21 rue de la Cote d'argent",adresse,Lissajaux,Dépôt de liquides inflammables,94250,94037,Gentilly,,
27233,IDF9401302,"Acqueducs et Comète, angle de la rue des Acqueducs et de la rue de la Comète",rue,"Docks remois, Sté anonyme des",Dépôt de liquides inflammables,94250,94037,Gentilly,,
27234,IDF9401303,"Acqueducs, 16 rue des Acqueducs",adresse,Geslot,Dépôt de liquides inflammables,94250,94037,Gentilly,,
27235,IDF9401304,"Acqueducs,23 rue des Acqueducs",adresse,Fueiller,Dépôt de liquides inflammables,94250,94037,Gentilly,,
27236,IDF9401308,"Frileuse, 77 rue Frileuse",adresse,Montagne,Dépôt de liquides inflammables,94250,94037,Gentilly,,
27237,IDF9401309,"Glacière, 9 bis rue de la Glacière",adresse,Antigny,Dépôt de liquides inflammables,94250,94037,Gentilly,,
27238,IDF9401315,"Mairie, 13 place de la Mairie",adresse,Dubois,Dépôt de liquides inflammables,94250,94037,Gentilly,,
27239,IDF9401316,"Montrouge, 127 route de Montrouge",adresse,Emistre,Dépôt de liquides inflammables,94250,94037,Gentilly,,
27240,IDF9401317,"Paris, 13 rue de Paris",adresse,FACOM Sté,Dépôt de liquides inflammables,94250,94037,Gentilly,,
27241,IDF9401318,"Paris, 21 rue de Paris",adresse,Parrossian,Dépôt de liquides inflammables,94250,94037,Gentilly,,
27242,IDF9401327,"Rousseau, 29 bis et 29 ter rue Jean-Jacques Rousseau",adresse,Stockwick Sté,Dépôt de liquides inflammables,94250,94037,Gentilly,,
27243,IDF9401411,"Frileuse, 55 rue Frileuse",adresse,Digot E,"Tannerie, mégisserie",94250,94037,Gentilly,,
27244,IDF9401414,"Dufaut, 13 rue Dufaut",adresse,Penon-Lestrange,Tannerie,94250,94037,Gentilly,,
27272,IDF9401496,"Frileuse, 47 rue Frileuse",adresse,Arnal D ex GUINARD,Dépôt de liquides inflammables,94250,94037,Gentilly,,
27273,IDF9401497,"Montrouge, 34 rue de Montrouge",adresse,PERRIARD,Dépôt de liquides inflammables,94250,94037,Gentilly,,
27274,IDF9401499,"Montrouge, 35 rue de Montrouge",adresse,CAMIT,Dépôt de liquides inflammables,94250,94037,Gentilly,,
27275,IDF9401606,"Moyers, 7 rue Moyers",adresse,Halle,Blanchisserie,94250,94037,Gentilly,,
27276,IDF9401607,"Aqueducs, 16 rue des Aqueducs",adresse,Gestelot,Blanchisserie,94250,94037,Gentilly,,
27277,IDF9403227,"Frileuse, 60 rue Frileuse",adresse,Garage d'automobiles et D.L.I,Garage,94250,94037,Gentilly,,
27278,IDF9401609,"Montrouge, 89-93  et 110 rue de Montrouge",adresse,"Gogit, ex Byla",Atelier de travail des métaux,94250,94037,Gentilly,,
27279,IDF9401610,"Glacière, 14 bis rue de la Glacière",adresse,Leclere,Garage,94250,94037,Gentilly,,
27281,IDF9401614,"Hay, 162 rue de l'Hay",adresse,Union des coopérateurs,Dépôt de liquides inflammables,94250,94037,Gentilly,,
27282,IDF9401615,"Tolbiac, 236 rue de Tolbiac",adresse,Picquerboa,Garage,94250,94037,Gentilly,,
27287,IDF9401630,"Frileuse, 59 rue Frileuse",adresse,Deshoques ex Rosenberg L,Atelier de travail des métaux,94250,94037,Gentilly,,
27288,IDF9401633,"Paris, 14 rue de Paris",adresse,GARAGE DE PARIS,Garage,94250,94037,Gentilly,,
27290,IDF9403592,"Fontainebleau, route de Fontainebleau",rue,Bouton et Mangeot,Fabrique de toiles,94250,94037,Gentilly,,
27291,IDF9403593,"Pot au Lait, rue du Pot au Lait",rue,Firmint didot,Fabrique d'encre,94250,94037,Gentilly,,
27292,IDF9403594,"Paris actuellement, la barrière croulebarbe",lieu-dit,Blanchisserie Barault,Blanchisserie,94250,94037,Gentilly,,
27293,IDF9403595,"Glacière, 23 rue de la Glacière",adresse,Gerbal/Lefèbre/Cognac,Fabrique de produits chimiques,94250,94037,Gentilly,,
27294,IDF9403591,"Pot au Lait, rue du pot au Lait",rue,Capdeville,Fabrique d'engrais,94250,94037,Gentilly,,
27295,IDF9403596,"Fontainebleau, 55 route de Fontainebleau",adresse,Dasque artificier,Fabrique de poudre,94250,94037,Gentilly,,
27296,IDF9403599,PARIS GLACIERE,lieu-dit,"Boudin, Ets",Mégisserie,94250,94037,Gentilly,,
27297,IDF9403600,PARIS GLACIERE,lieu-dit,Guérin,Fabrique de produits chimiques,94250,94037,Gentilly,,
27298,IDF9403602,PARIS GLACIERE,lieu-dit,Gaillard,Imprimerie,94250,94037,Gentilly,,
27299,IDF9403603,"Fontainebleau, route de Fontainebleau",rue,Bernard,Fabrique d'allumettes,94250,94037,Gentilly,,
27300,IDF9403083,"Frileuse, 49 rue Frileuse",adresse,"Arnal, Ets",Tannerie,94250,94037,Gentilly,,
27301,IDF9403118,"Hay, 68 rue de l'Hay",adresse,"Fufer, Ets",Tannerie,94250,94037,Gentilly,,
27302,IDF9403587,"Paris actuellement, Hameau de la maison Blanche",lieu-dit,"Lorilleux, Ets",Verrerie,94250,94037,Gentilly,,
27303,IDF9403589,"Grande rue, 23 Grande rue",adresse,"Ampenot, Ets",Mégisserie,94250,94037,Gentilly,,
27304,IDF9403590,"Fontainebleau, 12 barrière de Fontainebleau",lieu-dit,Orvin,Fabrique d'eau de javel,94250,94037,Gentilly,,
27305,IDF9403191,"Orléans, 77 route d'Orléans",adresse,"Bennes Basculantes Bernard, SA",Atelier d'essai de moteur,94250,94037,Gentilly,,
27314,IDF9301880,CRETTE DE PALLUEL (rue),rue,HENOCQ (M.),,93440,93030,Dugny,,
27318,IDF9301881,CRETTE DE PALLUEL (rue),rue,VIAL (M.),,93440,93030,Dugny,,
27343,IDF9302608,AVENIR (25 rue de l'),adresse,CHAPEAU (M.),,93260,93045,Les Lilas,,
27346,IDF9302546,GRANDE RUE (3),adresse,LEMERCIER-GALLAND,,93310,93061,Le Pré-Saint-Gervais,,
27347,IDF9302547,PANTIN (1 rue de),adresse,ROBERT-FOUCHE-MANSART,,93310,93061,Le Pré-Saint-Gervais,,
27348,IDF9302548,PANTIN (188 route de),adresse,VILTARD (M.),,93310,93061,Le Pré-Saint-Gervais,,
27350,IDF9302549,PLATRIERE (18 rue),adresse,HENRY et BOURSIER,,93310,93061,Le Pré-Saint-Gervais,,
27354,IDF9302889,ROSNY A NOISY (route stratégique de),nulle,CHAUMONT (M.),,93100,93048,Montreuil,,
27355,IDF9302550,GRANDE RUE (19),adresse,X,,93310,93061,Le Pré-Saint-Gervais,,
27356,IDF9302551,PANTIN (59 et 91 rue de),adresse,X,,93310,93061,Le Pré-Saint-Gervais,,
27357,IDF9302893,FONTENAY (31 à 41 route de),adresse,X,,93100,93048,Montreuil,,
27361,IDF9200011,"Dames, 19 rue des",adresse,Capelle (Entreprise),Garage,92600,92004,Asnières-sur-Seine,,
27362,IDF9200047,"Allégot, 19 rue M.",adresse,Part (Teinturerie),Dégraissage de vêtements,92120,92049,Montrouge,,
27369,IDF9200139,"Brosselette, 79/81 rue Pierre",adresse,Pagenot (Ets),Garage,92110,92024,Clichy,,
27371,IDF9302894,VERRERIE (89 rue de la),adresse,X,,93100,93048,Montreuil,,
27373,IDF9200155,"Ledru-Rollin, 31/35 rue",adresse,Renondin Losson (Sté),Atelier de traitement des métaux,92140,92023,Clamart,,
27376,IDF9200179,"Gauron, 2/6 impasse",adresse,Seguy (SA),,92240,92046,Malakoff,,
27377,IDF9200184,"Moils, 11 rue des",adresse,Ciba Geigy (Sté),,92230,92036,Gennevilliers,,
27378,IDF9200194,"Versailles, 13 boulevard du",adresse,COTY France (SA),Fabrication de parfums,92150,92073,Suresnes,,
27379,IDF9200203,"Victoire, 28 rue de la",adresse,Blanc de Zinc et des Couleurs à base de Zinc (Sté du),Fabrication de peinture,92110,92024,Clichy,,
27380,IDF9200119,"Voltaire, 149 boulevard",adresse,SMC,,92110,92024,Clichy,,
27381,IDF9200126,"Bourguignons, 44 rue des",adresse,ABC PRESSING,Laverie,92120,92049,Montrouge,,
27382,IDF7800094,rue ?,nulle,SOC ?,,78770,78034,Auteuil,,
27385,IDF9302591,BIENFAITEURS (10 rue des),adresse,GILLON (M.),,93260,93045,Les Lilas,,
27386,IDF9302592,NOUVELLES ECOLES (rue des),rue,FEJARD (M.),,93260,93045,Les Lilas,,
27388,IDF9302541,MOINES (16 rue des),adresse,LESIEUR (M.),,93310,93061,Le Pré-Saint-Gervais,,
27389,IDF9302542,STRATEGIQUE (21 bis route),adresse,GUERIN-DELAROCHE (M.),,93310,93061,Le Pré-Saint-Gervais,,
27390,IDF9302543,VILLETTE (50 rue de la),adresse,LANCELOT (M.),,93310,93061,Le Pré-Saint-Gervais,,
27393,IDF9302599,NOUVELLE COMMUNE (8 rue de la),adresse,MERCIERE (M.),,93260,93045,Les Lilas,,
27405,IDF9302545,GRANDE RUE (22),adresse,BOUCHARD et BRIARD,,93310,93061,Le Pré-Saint-Gervais,,
27406,IDF9302600,AVENIR (25 rue de l'),adresse,FRANÇOIS,,93260,93045,Les Lilas,,
27408,IDF9302601,AVENIR (26 rue de l'),adresse,X,,93260,93045,Les Lilas,,
27474,IDF9302602,AVENIR (37 rue de l'),adresse,X,,93260,93045,Les Lilas,,
27594,IDF9500669,"Impériale de Paris à Rouen, Route",lieu-dit,Vast Constant,Fabrique d'eau de javel,95310,95572,Saint-Ouen-l'Aumône,,
27598,IDF9500673,?,nulle,Bertrand et Justice MM.,Serrurerie,95310,95572,Saint-Ouen-l'Aumône,,
27608,IDF9500686,"Grande communication N°67, chemin",lieu-dit,Vanbecelaen Mr.,"Station-service, restaurant",95310,95572,Saint-Ouen-l'Aumône,,
27609,IDF9500771,?,nulle,Millet M.,Tannerie,95310,95572,Saint-Ouen-l'Aumône,,
27610,IDF9500772,?,nulle,Cartonnerie,Cartonnerie,95310,95572,Saint-Ouen-l'Aumône,,
27611,IDF9500773,?,nulle,Fabrique de lanternes,Fabrique de lanternes,95310,95572,Saint-Ouen-l'Aumône,,
27627,IDF9500869,"Epluches, Parc d'activités d'",lieu-dit,REH industries,,95310,95572,Saint-Ouen-l'Aumône,,
27640,IDF9300704,CHEVET DE L'EGLISE (7 bis rue du),rue,LEONARD,,93200,93066,Saint-Denis,,
27644,IDF9300709,PONTOISE (route de),rue,LANDAIS (M.),,93200,93066,Saint-Denis,,
27651,IDF9500895,?,nulle,"Verger, Electricien de France",Electricien,95310,95572,Saint-Ouen-l'Aumône,,
27652,IDF9500896,?,nulle,"Générale de construction ""EL"", Entreprise","Construction, terrassement",95310,95572,Saint-Ouen-l'Aumône,,
27653,IDF9500904,?,nulle,Syndicat de l'Agglomération Nouvelle Ex SCA,Traitement des déchets urbains,95310,95572,Saint-Ouen-l'Aumône,,
27681,IDF9503168,"Grande Pinte, lieu dit la",lieu-dit,Distribution de chaleur de Cergy-Pontoise,Distribution de chaleur,95310,95572,Saint-Ouen-l'Aumône,,
27686,IDF9503216,"Palmer, 5 rue",adresse,"Mecaform, société",Atelier mécanique,95310,95572,Saint-Ouen-l'Aumône,,
27692,IDF9503232,"Palmer, 1 rue",adresse,Pomona Société,Plate forme frigorifique,95310,95572,Saint-Ouen-l'Aumône,,
27694,IDF9503234,"Grand Centre, centre commercial du",places,Press Impec,Blanchisserie,95310,95572,Saint-Ouen-l'Aumône,,
27697,IDF9504229,?,nulle,VERNHET,"Mécanique, atelier de",95310,95572,Saint-Ouen-l'Aumône,,
27701,IDF9304963,BOULANGERIE (35 rue de la),adresse,DEKONINCK,HUILES ET GRAISSES DE PETROLE,93200,93066,Saint-Denis,,
27703,IDF9300685,FOURCHES (les),lieu-dit,"MENDES, CONSTANT et Cie ; BRUNSCHVIG (M.)",,93200,93066,Saint-Denis,,
27707,IDF9300684,FOSSES SABLEUSES (les),lieu-dit,CAPDEVILLE (M.) ; BEDU (M.) ; TERNOIS (M.),,93200,93066,Saint-Denis,,
27710,IDF9300666,DEUX PORTS (rue des),rue,DAUVILLIERS,,93200,93066,Saint-Denis,,
27727,IDF7801761,RN 10,rue,SOC ?,,78660,78506,Prunay-en-Yvelines,,
27738,IDF9305230,BRICHE (39 rue de la),adresse,MARIN frères,FABRICATION DE CIRES ET CIERGES,93200,93066,Saint-Denis,,
27744,IDF9305404,MONTJOIE (16 impasse de la),adresse,BALLIAN,VERRERIE,93200,93066,Saint-Denis,,
27745,IDF9305406,CORNILLON (3 chemin du),adresse,STANDARD FRANÇAISE des PETROLES,DEPOT DE LIQUIDES INFLAMMABLES,93200,93066,Saint-Denis,,
27746,IDF9305092,AUBERVILLIERS (18 rue d'),adresse,DE BOERS,HUILES ET GRAISSES DE PETROLES,93200,93066,Saint-Denis,,
27747,IDF9305105,ORNANO (boulevard),rue,ALLADIN (Sté),FABRICATION DE LAMPES,93200,93066,Saint-Denis,,
28296,IDF9200283,"Foucault, 4 rue Constant",adresse,Choquet (S.A.),Blanchisserie,92310,92072,Sèvres,,
28298,IDF9201386,"Alouettes, 79 route des",adresse,"Alouettes (Garage Les), anc. Sté Taxi Auto",Garage - Atelier d'entretien de véhicules,92000,92050,Nanterre,,
28299,IDF9201402,"Beauséjour, 17 bis avenue",adresse,Wabrand (SA),,92340,92014,Bourg-la-Reine,,
28301,IDF9201418,"Caves, 6 rue des",adresse,Brasseries de la Meuse (Sté des),Embouteillage de boisson,92230,92036,Gennevilliers,,
28305,IDF9200300,"Fort-Grand, 7 place du",adresse,Blanchisserie Trajster S.A.,Blanchisserie,92220,92007,Bagneux,,
28307,IDF9201016,"Lorraine, 7 boulevard de",adresse,Chenuil (Ets),Garage,92110,92024,Clichy,,
28308,IDF9201030,"Lille, 4 rue de",adresse,Jaky (Ets),Garage,92300,92044,Levallois-Perret,,
28309,IDF9201037,"Fraternité,  6 avenue de la",adresse,Bohin (Etablissement),Dépôts de chiffons et papiers usés,92600,92004,Asnières-sur-Seine,,
28310,IDF9201057,"Lorraine, 76/79 boulevard de",adresse,Laguionie et Cie (Ets),Atelier de fabrication de cartouches,92110,92024,Clichy,,
28311,IDF9201060,"Lorraine, 69 boulevard de",adresse,Saget (Ets),Caisse d'emballage,92110,92024,Clichy,,
28312,IDF9201757,"Billancourt, 89 rue de",adresse,RLB Roulier (Société) (SA),Traitement de surface,92150,92073,Suresnes,,
28313,IDF9200316,"Guynemer, 156 avenue",adresse,Gourgeois (S.A.R.L.),Garage,92420,92076,Vaucresson,,
28315,IDF9200323,"Descoing, 5 impasse",adresse,Dhoedt (SA),,92110,92024,Clichy,,
28329,IDF9200352,"Pernoud, 1 bis rue",adresse,Lal Mohamed (S.A.),Garage automobile,92600,92004,Asnières-sur-Seine,,
28331,IDF9201838,"Pont Saint-Denis ,16 avenue du",adresse,Comenor,,92230,92036,Gennevilliers,,
28336,IDF9200434,"Roosevelt, 87 quai du Président",adresse,"Renault (Régie Nationale des Usines) (RNUR), anc. Lefranc (SA)",Usine,92100,92012,Boulogne-Billancourt,,
28338,IDF9201136,"Martin, 7 rue Henri",adresse,FLORIAC (Ets DANIEL),"Découpage, remorquage",92120,92049,Montrouge,,
28358,IDF9201512,"Corneille, 48 rue",adresse,Mabo (Ets),,92300,92044,Levallois-Perret,,
28367,IDF9201543,"Verrières, 16 rue de",adresse,ROUCHE (Ets),Dépôt de ferrailles,92120,92049,Montrouge,,
28368,IDF9201999,"Boutroux, 16 avenue",adresse,Sapeurs Pompiers de Paris,,92230,92036,Gennevilliers,,
28373,IDF9201270,"Gaillons, 2 rue des",adresse,Daoudal & Boué (Société),,92310,92072,Sèvres,,
28374,IDF9201290,"Bel-Ebat, chemin de",lieu-dit,DAUNAY (Etablissements),Dépôt de ferrailles,92000,92050,Nanterre,,
28377,IDF9201309,"Seine-rive-gauche, quai de",lieu-dit,Esso,,92230,92036,Gennevilliers,,
28378,IDF9200634,"Dumont, 14 avenue Augustin",adresse,BOUCHARD (Sté),Garage,92120,92049,Montrouge,,
28381,IDF7801284,?,nulle,MOISSON (COMMUNE DE),,78840,78410,Moisson,,
28400,IDF9202178,"Gunsbourg, 32 rue Maurice",adresse,SKF - Compagnie d'Application Mécanique,,92130,92040,Issy-les-Moulineaux,,
28401,IDF7801485,RN 13,rue,M.H.M. ELECTRONIC (S.A.),,78630,78466,Orgeval,,
28405,IDF9202226,Route du bassin n°2,adresse,Rol-Lister (SA),Fusion des bitumes,92230,92036,Gennevilliers,,
28407,IDF9202242,"Route du bassin, 14/16",adresse,Sidet (SA),,92230,92036,Gennevilliers,,
28408,IDF9202419,"Fouquet, 47 rue",adresse,"Lux Auto (Sté) (Heraud, Baillard & Raboin)",Garage automobile,92300,92044,Levallois-Perret,,
28415,IDF9202047,"Chapon, 99 rue Charles",adresse,Boyer (Garage),Garage-Réparation,92270,92009,Bois-Colombes,,
28417,IDF9202454,"Vaugirard, 5-7-6 bis rue de",adresse,"Salomon (SA), anc. Ets Tore, anc. Lecetre (SA), anc. Richard (SA)",Garage,92300,92044,Levallois-Perret,,
28419,IDF9202513,Bureau de gestion 110,places,COGETOM,,92110,92024,Clichy,,
28425,IDF9202085,"Antin, 58 rue de la Chaussée d'",adresse,Schmid Bruneton & Morin (Ets),,92230,92036,Gennevilliers,,
28426,IDF9202091,"Clichy, 78 quai de",adresse,Schwinn (Ets),,92800,92062,Puteaux,,
28431,IDF9202139,"Suzanne, 8 rue",adresse,Jaeger (Ets),,92300,92044,Levallois-Perret,,
28441,IDF9204062,Chemin latéral,lieu-dit,TRAPIL (Société),Société de transport des pétroles,92000,92050,Nanterre,,
28460,IDF9200149,"Plaisance, 24 rue de",adresse,Pillet (Ets),Couverture installation sanitaire chauffage ventillation conditionnement,92700,92025,Colombes,,
28464,IDF9204185,"Bagneux, 29 rue de",adresse,"Eudes, ex Lefort stevenin et Eudes",Garage,92120,92049,Montrouge,,
28465,IDF9204187,"Gresson, 58 avenue Victor",adresse,Deshaies,Dépôt de poudre explosive,92230,92036,Gennevilliers,,
28596,IDF9304637,JEAN JACQUES ROUSSEAU (43 - 49 rue),adresse,SOMAGRA (Sté),IMPRIMERIE,93100,93048,Montreuil,,
28607,IDF9303053,VILLEMOMBLE (57 boulevard de),adresse,PUTEL et BERTE (MM.),,93250,93077,Villemomble,,
28615,IDF9303074,VICINAL (4 chemin),lieu-dit,MAIGNANT,,93390,93014,Clichy-sous-Bois,,
28618,IDF9303126,ZI,lieu-dit,KOWACS (M.),,93330,93050,Neuilly-sur-Marne,,
28657,IDF9304697,AQUEDUC (107 rue de l'),adresse,HAREL,MECANIQUE GENERALE,93100,93048,Montreuil,,
28692,IDF9303290,GONESSE (route de),rue,PARIS NORD AUTOMOBILES,,93600,93005,Aulnay-sous-Bois,,
28794,IDF9301815,BONDY (route de),rue,JOUANNEAU (M.),,93120,93027,La Courneuve,,
28879,IDF9304154,MARE (rue de la),rue,POUPLAIN,FONDERIE DE METAUX,93100,93048,Montreuil,,
28914,IDF9301861,DRANCY (23 avenue de),adresse,X,,93350,93013,Le Bourget,,
28915,IDF9301865,MALADRERIE (la),lieu-dit,X,,93350,93013,Le Bourget,,
28918,IDF9301889,GALANDE (20 rue) ex FORTUNE LE CALANDRE (rue),adresse,LEVY FINGER (MM. les fils) ; ROUGUIER (M.) ; MILINS OU MILIUS (M.),,93440,93030,Dugny,,
28957,IDF9302504,LOYE (la),lieu-dit,BEAUCHAIRE (M.),,93500,93055,Pantin,,
28958,IDF9302514,STRASBOURG (17 rue de),adresse,ROBIN et Cie,,93500,93055,Pantin,,
28970,IDF9302590,GRIZELIN (passage),lieu-dit,MINGUET (M.),,93260,93045,Les Lilas,,
28981,IDF9301941,FLANDRE (route de),rue,LE GRAISSAGE MODERNE (Sté),,93150,93007,Le Blanc-Mesnil,,
28982,IDF9301942,FLANDRE (route de),rue,RENOIR (M.),,93150,93007,Le Blanc-Mesnil,,
28997,IDF9302007,GONESSE (32 route de),adresse,MOBIL OIL FRANCE,,93600,93005,Aulnay-sous-Bois,,
29008,IDF9304138,BAGNOLET (51 rue de),adresse,DUMONT,CHROMAGE DES METAUX,93100,93048,Montreuil,,
29009,IDF9304140,CARNOT (86 rue),adresse,CA AUTO,CARROSSERIE AUTOMOBILE,93240,93072,Stains,,
29010,IDF9304144,ARMAND ESDERS (6 rue),adresse,HEPPNER TRANSPORTS ; COUGARD (SARL),ENTREPOTS,93150,93007,Le Blanc-Mesnil,,
29011,IDF9304145,JEAN JAURES (12 avenue),adresse,SELLIER et SOULAGE,FONDERIE DE CUIVRE,93120,93027,La Courneuve,,
29026,IDF9304155,MALASSIS (4 rue des),adresse,BATTISTOLO,FONDERIE DE METAUX,93100,93048,Montreuil,,
29048,IDF9302115,MOLLIEN (71 bis allée),adresse,LA PERLE IDEALE,,93320,93057,Les Pavillons-sous-Bois,,
29049,IDF9304147,ANATOLE FRANCE (8 rue),adresse,DROUOT,FONDERIE DE METAUX NON FERREUX,93120,93027,La Courneuve,,
29050,IDF9304148,GRANDE CEINTURE (35 rue de la),adresse,RAFFINERIE de STAINS,DISTRIBUTION DE CARBURANT ET LUBRIFIANT,93240,93072,Stains,,
29051,IDF9304149,ECOLES (28 rue des),adresse,PIATTINO Pierre,FONDERIE DE METAUX NON FERREUX,93260,93045,Les Lilas,,
29052,IDF9304151,EDOUARD VAILLANT (108 rue),adresse,FONDERIES MODERNES de l'AUTOMOBILE,FONDERIE DE METAUX NON FERREUX,93140,93010,Bondy,,
29096,IDF9300990,GAGIN (10 cité),lieu-dit,EGGIMANN,,93400,93070,Saint-Ouen,,
29097,IDF9300993,PORT (rue du) ; BOEUFS (chemin des),nulle,NABOULET (M.),,93400,93070,Saint-Ouen,,
29098,IDF9300994,REVOLTE (82 rue de la),adresse,BESSON (M.),,93400,93070,Saint-Ouen,,
29105,IDF9301013,COUDRIER (le),lieu-dit,SIMONIN (M.),,93450,93039,L'Île-Saint-Denis,,
29108,IDF9304156,BELVEDERE (rue du),rue,CASSI Joseph,FONDERIE DE METAUX NON FERREUX,93310,93061,Le Pré-Saint-Gervais,,
29110,IDF9302209,CIMETIERE-AUX-CHEVAUX,lieu-dit,SALLON et Cie (MM.,,93700,93029,Drancy,,
29111,IDF9302211,SABLIERE AU BLOND (la),lieu-dit,DESMAREST,,93700,93029,Drancy,,
29151,IDF9304153,MONTHYON (allée de),rue,CARROSSERIE GILLES GREUET,"CARROSSERIE, PEINTURE AUTOMOBILE",93320,93057,Les Pavillons-sous-Bois,,
29154,IDF9304163,DOCTEUR COLMER (19 rue du),adresse,POUPLIN André,FONDERIE DE METAUX NON FERREUX,93100,93048,Montreuil,,
29165,IDF9301138,TEMPS PERDU (le),lieu-dit,RUIGAUD et MEYER (MM.),,93800,93031,Épinay-sur-Seine,,
29166,IDF9301159,VERT GALANT (Le),lieu-dit,FABRE (M.),,93430,93079,Villetaneuse,,
29167,IDF9301160,MONTMORENCY (route de),adresse,SOULAGE (M.),,93430,93079,Villetaneuse,,
29181,IDF9301192,SAINT-DENIS (56 route de),adresse,COUTENT (M.),,93380,93059,Pierrefitte-sur-Seine,,
29188,IDF9301189,SAINT-DENIS (99 avenue de),adresse,X,,93380,93059,Pierrefitte-sur-Seine,,
29189,IDF9301222,GRANDE CEINTURE (rue de la),rue,HARTMANN (M.),,93240,93072,Stains,,
29190,IDF9301223,COURNEUVE (chemin de la),rue,LAVOCAT (M.),,93240,93072,Stains,,
29216,IDF9302678,GRANDE COMMUNICATION N°17 (chemin de),lieu-dit,LECLAIRE,,93170,93006,Bagnolet,,
29217,IDF9302679,SAINTE BARBE (7 rue),adresse,DESSON,,93170,93006,Bagnolet,,
29218,IDF9302683,ALEXANDRE DUMAS père (rue),rue,X,,93170,93006,Bagnolet,,
29219,IDF9302685,CLOS BOUTON (2 à 4 rue du),adresse,ALLEMAND (M.),,93170,93006,Bagnolet,,
29220,IDF9302687,GERMINAL (9 rue),adresse,LEDUC (M.),,93170,93006,Bagnolet,,
29246,IDF9304159,PARIS (119 rue de),adresse,ANDRE (M.),FABRICATION DE CAOUTCHOUC DILATE,93230,93063,Romainville,,
29264,IDF9305113,VERDUN (rue de),rue,Sté ALSACIENNE de CONSTRUCTIONS MECANIQUES,MECANIQUE,93350,93013,Le Bourget,,
29265,IDF9305114,BATIGNOLLES (164 et 170 avenue des),adresse,LABINAL (SA des Ets),MECANIQUE,93400,93070,Saint-Ouen,,
29266,IDF9305116,FLANDRE (179 route de),adresse,MEUNIER H.,FABRICATION DE FILS ELECTRIQUES,93120,93027,La Courneuve,,
29267,IDF9305120,FLANDRE (33 rue de) actuelle avenue de la DIVISION LECLERC,nulle,"MEUNIER, VERGNAUD & Cie",FABRICATION DE CABLES ELECTRIQUES,93350,93013,Le Bourget,,
29278,IDF9305126,VERDUN (rue de),rue,BOULONNERIES et FERRONNERIES de THIANT,BOULONNERIE,93350,93013,Le Bourget,,
29279,IDF9305127,EDOUARD VAILLANT (rue),rue,BOULONNERIES PARIS-BOURGET,BOULONNERIE,93350,93013,Le Bourget,,
29282,IDF9305130,BOURGET (avenue du),rue,BOULONNERIES du BOURGET-DRANCY,BOULONNERIE,93700,93029,Drancy,,
29283,IDF9305131,NOISY-LE-SEC (180 rue de),adresse,VEROU,FABRICATION DE BOITES METALLIQUES,93260,93045,Les Lilas,,
29287,IDF9305218,NOUVELLE FRANCE (25 rue de la),adresse,AFFAMI (Ets),TRAVAIL DU BOIS,93100,93048,Montreuil,,
29288,IDF9305219,NOUVELLE FRANCE (24 - 26 rue de la),adresse,DUCHANGE (Ets),"DECOLLETAGE DES METAUX, TOURNAGE",93100,93048,Montreuil,,
29291,IDF9305234,DOCKS de SAINT-OUEN,lieu-dit,POULENC frères (Ets),PRODUITS CHIMIQUES,93400,93070,Saint-Ouen,,
29296,IDF9302964,PANORAMA (avenue du),adresse,X,,93230,93063,Romainville,,
29319,IDF9305258,DOCKS de SAINT-OUEN,lieu-dit,FADIE & HURE,SCIERIE,93400,93070,Saint-Ouen,,
29322,IDF9305262,NATIONALE (38 route),adresse,FAUL V.,FABRICATION DE MACHINES AGRICOLES,93320,93057,Les Pavillons-sous-Bois,,
29326,IDF9302967,MEAUX (26 rue de),adresse,HECKLI (M.) ; GRISARD (M.) ; GUERINEAU (M.),,93230,93063,Romainville,,
29336,IDF9305011,VERDUN (rue de),rue,SAINT Frères,FABRICATION DE CABLES ET CORDES METALLIQUES,93350,93013,Le Bourget,,
29337,IDF9305018,VERDUN (rue de),rue,Sté des FORGES et LAMINOIRS du BOURGET,LAMINAGE ; FORGE,93350,93013,Le Bourget,,
29338,IDF9305023,GRANDE CEINTURE (rue de la),rue,FONDERIES THOME Fils & CROMBACK (SA des),FONDERIE (METAUX),93240,93072,Stains,,
29339,IDF9305024,EDOUARD VAILLANT (rue),rue,HESSE & fils (Ets),FONDERIE ET AFFINAGE DE METAUX,93140,93010,Bondy,,
29340,IDF9305028,DANTON (rue),rue,FRANCE ALUMINIUM (Ets),FONDERIE D'ALUMINIUM,93310,93061,Le Pré-Saint-Gervais,,
29341,IDF9305037,EDOUARD VAILLANT (rue),rue,EGROT & GRANGER (Ets),CHAUDRONNERIE,93140,93010,Bondy,,
29342,IDF9304946,FRANÇOIS DEBERGUE (rue),rue,Le SAVOIE (SARL),GARAGE AUTOMOBILE ; DLI,93100,93048,Montreuil,,
29351,IDF9305041,TIR (42 rue du),adresse,FEVENAS,TOLERIE ; FABRICATION D' ACETYLENE,93100,93048,Montreuil,,
29354,IDF9305044,SERGENT GODEFROY (rue du),rue,FESSON ; GAUBERT,DECOUPAGE ET EMBOUTISSAGE DES METAUX,93100,93048,Montreuil,,
29355,IDF9305045,SERGENT BOBILLOT (rue du),rue,LUZZY C (M.),GARAGE AUTOMOBILE,93100,93048,Montreuil,,
29358,IDF9305048,ROULETTES (rue des),rue,NORBERT (M.),"DECAPAGE,  POLISSAGE DES METAUX ET ALLIAGES",93100,93048,Montreuil,,
29364,IDF9305053,ROSIERS (6 impasse des),adresse,FAURE (Ets),CINTRAGE DES METAUX,93100,93048,Montreuil,,
29369,IDF9305069,GONESSE (route de) actuelle avenue de STALINGRAD,rue,GAZOGENE ETIA,CHAUDRONNERIE ; FABRICATION DE GAZOGENES,93240,93072,Stains,,
29375,IDF9304942,BOISSIERE (297 boulevard de la),adresse,MELIN,DEPOT DE PEAUX SECHEES,93100,93048,Montreuil,,
29376,IDF9304943,DELAUNAY (12 cité),lieu-dit,CHAUDEMANCHE (Sté),TEINTURERIE DE FLEURS ARTIFICIELLES,93100,93048,Montreuil,,
29377,IDF9304944,FONTAINE-des-SOUCIS (ruelle de la),rue,X (chaudronnerie),CHAUDRONNERIE,93100,93048,Montreuil,,
29378,IDF9304945,FRANCISCO FERRER (rue),rue,VOLTARC,VERNISSAGE,93100,93048,Montreuil,,
29379,IDF9304947,FRISEES (19 rue des),adresse,Sté INDUSTRIELLE de BOUTONS,FABRICATION DE BOUTONS EN MATIERE PLASTIQUE,93100,93048,Montreuil,,
29380,IDF9304948,GASTON LAURIAU (rue),rue,DAGUIN (M.),TRAVAIL DU BOIS,93100,93048,Montreuil,,
29381,IDF9304949,HOCHE (rue),rue,SOFRAMBAL,APPLICATION DE PEINTURE ET VERNIS,93100,93048,Montreuil,,
29382,IDF9304951,JEAN LOLIVE (rue),rue,BOUE,TRAVAIL DU BOIS,93100,93048,Montreuil,,
29383,IDF9304953,LECLAIRE (16 rue),adresse,LONGATTE,CHAUDRONNERIE,93100,93048,Montreuil,,
29408,IDF9304959,FLANDRE (125 route de) actuelle avenue de la DIVISION LECLERC,adresse,ELECTROLYSE FRANÇAISE,FABRICATION DE GAZ INDUSTRIELS,93350,93013,Le Bourget,,
29417,IDF9302963,ROUTE NATIONALE 3,rue,LINET (M.),,93230,93063,Romainville,,
29418,IDF9305075,BONDY (202 rue de),adresse,BRICHET & Cie,CONSTRUCTIONS MECANIQUES,93120,93027,La Courneuve,,
29419,IDF9305076,JEAN JAURES (boulevard),rue,MANUTENTION (LA) SA,CONSTRUCTION METALLIQUE ; APPAREILS DE LEVAGE,93400,93070,Saint-Ouen,,
29422,IDF9305078,CLICHY (14 rue de),adresse,"PETIT, WICART, COUSIN",CHAUDRONNERIE,93400,93070,Saint-Ouen,,
29423,IDF9305084,VERDUN (rue de),rue,CHAUDRONNERIES du NORD (Sté des),CHAUDRONNERIE,93350,93013,Le Bourget,,
29446,IDF9503686,?,nulle,SALAISONS D'US,,95450,95625,Us,,
29447,IDF9503687,?,nulle,US AFFINAGE (ex SNMC),,95450,95625,Us,,
29451,IDF9500038,"Gué, 1 rue du",adresse,LEUMAIRE Raymond,,95850,95316,Jagny-sous-Bois,,
29452,IDF9500521,?,nulle,Doriquet Mr.,Fonderie,95340,95487,Persan,,
29453,IDF9500522,?,nulle,Henry Mr.,Fonderie de Bronze,95340,95487,Persan,,
29456,IDF9500011,VC n°4,nulle,Distillerie,Distillerie,95450,95253,Frémainville,,
29457,IDF9500012,"Gisors, 17 rue de Gisors",adresse,"Tomczyr, ex Pawlak",Garage,95750,95142,Chars,,
29458,IDF9500021,?,nulle,"RAFFINAGE, Société Française de",Raffinage (usine de),95350,95489,Piscop,,
29468,IDF9500107,?,nulle,GRENIER,Bougies (fabrication de),95370,95424,Montigny-lès-Cormeilles,,
29469,IDF9500108,?,nulle,MACAIRE,Four à plâtre,95370,95424,Montigny-lès-Cormeilles,,
29470,IDF9500109,?,nulle,PAULAY,Vidanges (entreprise de),95370,95424,Montigny-lès-Cormeilles,,
29471,IDF9500115,"Les Franches, H.L.M. de la Z.A.C.",lieu-dit,"CITE JARDINS DE LA REGION PARISIENNE, Société des",Parc de stationnement,95370,95424,Montigny-lès-Cormeilles,,
29472,IDF9500118,?,nulle,"FRAGNE, Société",Meubles de bureau (fabrique de),95210,95555,Saint-Gratien,,
29473,IDF9500124,"Nationale 1, Route",rue,GADOLINI Serge,Garage automobile,95360,95427,Montmagny,,
29474,IDF9500134,RN 14,rue,ESCALLE M.,Station service,95480,95488,Pierrelaye,,
29475,IDF9500523,?,nulle,Lebrun Mr.,Serrurerie,95340,95487,Persan,,
29476,IDF9500146,?,nulle,BAESKENS,Savonnerie,95110,95582,Sannois,,
29477,IDF9500148,"Belle Vue, rue de",rue,"BIRKEL, ex BIKEREL",Four à chaux,95110,95582,Sannois,,
29478,IDF9500156,?,nulle,CORNU Mme. Veuve,Pressing,95230,95598,Soisy-sous-Montmorency,,
29479,IDF9500157,?,nulle,DUTRIAUX,Pressing,95150,95607,Taverny,,
29480,IDF9500160,?,nulle,LEDREUX,Pressing,95150,95607,Taverny,,
29481,IDF9500161,?,nulle,MELLIN Pierre,Briqueterie,95150,95607,Taverny,,
29484,IDF9500628,"Isle-Adam, route de l'",rue,Saum Mr.,"Station-service, garage",95260,95436,Mours,,
29487,IDF9500627,"Grande communication, chemin de la: N°12",lieu-dit,Meslans Maurice,Fabrique de sels amoniacaux,95540,95394,Méry-sur-Oise,,
29488,IDF9500593,"Pontoise, 3 rue de",adresse,Grimault Mr.,"Station-service, garage",95260,95052,Beaumont-sur-Oise,,
29489,IDF9500596,"Jussienne, 13 rue de la",adresse,Barbier Victor,Teinturerie,95260,95052,Beaumont-sur-Oise,,
29501,IDF9500629,"Beaumont à l'Isle-Adam, route de",nulle,Culambourg et Vernay,Blanchisserie,95260,95436,Mours,,
29502,IDF9500630,"Mandelles, chemin de",rue,Chatelain Mr.,Dépôt d'immondices,95270,95456,Noisy-sur-Oise,,
29514,IDF9500186,?,nulle,"R.B., Etablissements",Caoutchouc (industrie du),95250,95051,Beauchamp,,
29516,IDF9500210,"Grouettes, Les",lieu-dit,OBLETTE Gérard,Mécanique de précision (atelier de),95480,95488,Pierrelaye,,
29524,IDF9500212,?,nulle,"PHOTO-CINE-SELECTION, Société",Photographique (industrie),95350,95489,Piscop,,
29527,IDF9500215,?,nulle,"LANGUEDOCIENS DE LUBRIFIANTS, Etablissements",Lubrifiants (fabrique de),95580,95369,Margency,,
29550,IDF9500241,?,nulle,"JOUETS EDUCATIFS UNIVERSELS, Société",Jouets (fabrique de),95880,95210,Enghien-les-Bains,,
29579,IDF9500234,RN 909,rue,"GENERALE DES ENCRES, S.A.",Encres d'imprimerie (fabrique d'),95330,95199,Domont,,
29581,IDF9500246,?,nulle,LAPEYRERE René,Liquides inflammables (dépôt de),95360,95427,Montmagny,,
29582,IDF9500254,"Paris, 61 avenue de",adresse,LAVORAMA-PRESSING-MIRABEAU,Pressing,95160,95428,Montmorency,,
29658,IDF9500308,?,nulle,CHARPENTES ET TOLERIE INDUSTRIELLE,Tôlerie et charpentes industrielles (atelier de),95330,95199,Domont,,
29659,IDF9500309,?,nulle,TIBE,Bâtiment (industrie du),95330,95199,Domont,,
29660,IDF9500310,?,nulle,BARQUET ET PISCOP,Récupération de métaux (usine de),95330,95199,Domont,,
29713,IDF9500457,?,nulle,Décharge,Décharge,95160,95428,Montmorency,,
29719,IDF9500417,?,nulle,LEPARGNEUR M.,Pressing,95130,95252,Franconville,,
29725,IDF9500449,"Préparation militaire, Terrain de",places,Décharge,Décharge,95580,95014,Andilly,,
29726,IDF9500466,?,nulle,GOSSELIN DURIEZ ET CIE,?,95330,95199,Domont,,
29727,IDF9500467,?,nulle,ROUSSEAU Michel (Société),,95330,95199,Domont,,
29728,IDF9500474,?,nulle,UNION DE GESTION ; ex HLM MONT,Chaufferie,95120,95219,Ermont,,
29729,IDF9500479,?,nulle,DALKIA - LOGIS VERTS ; ex CGC,Chaufferie,95130,95252,Franconville,,
29730,IDF9500487,?,nulle,RAYMOND,?,95160,95428,Montmorency,,
29731,IDF9500490,RD 14,rue,PANISSIER,?,95480,95488,Pierrelaye,,
29734,IDF9500551,?,nulle,Lamarre M.,Atelier de mécanique,95290,95313,L'Isle-Adam,,
29738,IDF9500493,?,nulle,SIMEON,?,95480,95488,Pierrelaye,,
29739,IDF9500495,?,nulle,GUECHI,?,95230,95598,Soisy-sous-Montmorency,,
29740,IDF9500497,?,nulle,UNION DE GESTION ; ex CGI HLM,Chaufferie,95210,95555,Saint-Gratien,,
29744,IDF9500505,"Port, Chemin du  (RN1)",nulle,"La Soie ex Mandard, chardin et Cie ex Chardin Ernest",Vente de soieries et teintes,95340,95487,Persan,,
29745,IDF9500506,"Pontoise, 129 rue de",adresse,Bastard Mr.,Fabrication d'engrais,95340,95058,Bernes-sur-Oise,,
29746,IDF9500520,?,nulle,Deselle Charles,Verrerie,95340,95487,Persan,,
29747,IDF9500527,"Double, 46 rue",adresse,Moulin Joseph,Fonderie de cuivre et de bronze,95340,95487,Persan,,
29748,IDF9500528,?,nulle,Lefevre Vve,Usine de gaz acétylène,95340,95487,Persan,,
29749,IDF9500529,?,nulle,Mestre et Blatge,Metallurgie de Persan-beaumont,95340,95487,Persan,,
29750,IDF9500531,Thibault 8 rue,adresse,"L'imperméable, Société",Fabrique de vêtements,95340,95487,Persan,,
29754,IDF9500541,?,nulle,"Petin, Gaudet et Cie","Hauts Fourneaux, forges et acieries",95340,95487,Persan,,
29765,IDF9500580,?,nulle,Maillet M.,Serrurerie,95490,95637,Vauréal,,
29766,IDF9500581,"Viarmes, route de",rue,Marinière De La et Michelet,Fabrique d'impression d'étoffes,95270,95026,Asnières-sur-Oise,,
29767,IDF9500584,"Gouvichy-Baillon, chemin de",rue,Jolly Joseph,Teinturerie,95270,95026,Asnières-sur-Oise,,
29805,IDF9305248,VICTOR HUGO (20 avenue),adresse,BAUCHET,SCIERIE,93300,93001,Aubervilliers,,
29807,IDF9301656,ABATTOIR (chemin de l'),rue,"BRILLANTAIS, DURAND fils aîné et Cie",,93300,93001,Aubervilliers,,
29808,IDF9301666,LATERAL (chemin),rue,X (FABRICATION D'ENGRAIS),,93300,93001,Aubervilliers,,
29809,IDF9301667,LATERAL (17 chemin),adresse,X (FABRICATION D'ENGRAIS),,93300,93001,Aubervilliers,,
29810,IDF9301672,ROSES (22 villa des),lieu-dit,X (RECUPERATION des METAUX),,93300,93001,Aubervilliers,,
29811,IDF9301673,PANTIN (75 route de) act. avenue de la REPUBLIQUE ; FLANDRE (175 route de) act. avenue JEAN JAURES,nulle,LISSAUTE - COSSON et MELLERIO,,93300,93001,Aubervilliers,,
29825,IDF9305081,VICTOR HUGO (6 boulevard),adresse,SALVANHAC,CHARPENTES EN FER,93300,93001,Aubervilliers,,
29829,IDF9503620,"HUTTE, 1 RUE DE LA",adresse,"LUCHAIRE, Sté",,95450,95658,Vigny,,
29830,IDF9504222,?,nulle,S.C.I.,Imprimerie,95300,95500,Pontoise,,
29903,IDF7800534,Gaillon (quartier de),lieu-dit,SOC ?,,78700,78172,Conflans-Sainte-Honorine,,
29966,IDF7800095,rue ?,nulle,SOC ?,,78770,78034,Auteuil,,
29969,IDF7800442,?,nulle,NOMADES,,78340,78165,Les Clayes-sous-Bois,,
29986,IDF7800107,?,nulle,BAZOCHES-SUR-GUYONNE ET MESNULS (COMMUNES DE),,78490,78050,Bazoches-sur-Guyonne,,
29987,IDF7800109,?,nulle,SOC ?,,78650,78062,Beynes,,
29988,IDF7800477,?,nulle,LA SEIGNERIE (SOCIETE),,78310,78168,Coignières,,
29989,IDF7800482,RN 10,rue,AUCHAN (station service),,78310,78168,Coignières,,
29994,IDF7800492,"Rambouillet (80, route de) (RN 10)",adresse,"TOTAL RAFFINAGE DISTRIBUTION (S.A.), anc.DESMARAIS FRERES (SOCIETE)",Hautes Bruyères (Relais des),78310,78168,Coignières,,
30015,IDF7800163,Pieu (chemin du ),lieu-dit,"PYROSPACE (SOCIETE), anc. CROISET (SOCIETE), anc. ROUSSELIN (SOCIETE DES ETABLISSEMENTS)",,78410,78090,Bouafle,,
30022,IDF7800166,Pleïades (rue des),rue,SOTHERM (SOCIETE THERMIQUE DES MUREAUX),,78410,78090,Bouafle,,
30130,IDF7800175,chaussée de Mesmes,lieu-dit,DESMARAIS FRERES (SOCIETE ),,78380,78092,Bougival,,
30131,IDF7800177,"Alliés (4, place des)",adresse,GOULARD (société des ETABLISSEMENTS),,78930,78104,Breuil-Bois-Robert,,
30132,IDF7800182,CVO reliant Saint-Illiers-la-Ville au CD 14,lieu-dit,SOC ?,,78980,78107,Bréval,,
30137,IDF7800008,"Trouvé (107, rue Pierre)",adresse,"REY-DUVAL (SOCIETE), anc. SEVESTRE ET FILS (SOCIETE A.)",,78660,78003,Ablis,,
30138,IDF7800009,RN 191,rue,PRODUITS CHIMIQUES PURS (SOCIETE LES),,78660,78003,Ablis,,
30147,IDF7800213,Closeaux (chemin des),lieu-dit,"CLARIANT (société)+ ACM (société), anc.SEGB (SOCIETE D'ENTREPRISE GENERALE DU BÂTIMENT)",,78200,78118,Buchelay,,
30157,IDF7800296,avenue de Versailles,rue,ESSO SERVICE BEAUREGARD,,78170,78126,La Celle-Saint-Cloud,,
30159,IDF7800299,route de Versailles (RN 311 A),rue,Station service SHELL,,78170,78126,La Celle-Saint-Cloud,,
30160,IDF7800300,"131, route de Versailles (RN 311 A)",adresse,Station service SHELL,,78170,78126,La Celle-Saint-Cloud,,
30164,IDF7800310,?,nulle,SOC ?,Autoroute A14,78240,78133,Chambourcy,,
30169,IDF7800025,?,nulle,IMMALDI,,78660,78003,Ablis,,
30185,IDF7800331,?,nulle,SOC ?,,78570,78138,Chanteloup-les-Vignes,,
30186,IDF7800332,?,nulle,"GOURDON MECAVI (SOCIETE), anc.MECAVI (SOCIETE)",,78570,78138,Chanteloup-les-Vignes,,
30189,IDF7800601,rue ?,nulle,LA REVANCHE,,78990,78208,Élancourt,,
30190,IDF7800589,rue ?,nulle,SOC ?,Auberge Saint Pierre,78720,78193,Dampierre-en-Yvelines,,
30192,IDF7800591,"Chamaserie (1, 2, 3, rue de la)",adresse,"C.G.E.A, anc. CFTA",,78920,78206,Ecquevilly,,
30193,IDF7800592,rue ?,nulle,POINT PSCE MATERIAUX,,78920,78206,Ecquevilly,,
30194,IDF7800593,Fontenelles (rue des),rue,EQUIPCO (S.A.),,78920,78206,Ecquevilly,,
30197,IDF7800596,Romainville (chemin de),rue,SOC ?,,78920,78206,Ecquevilly,,
30198,IDF7800607,?,nulle,MENTRE (SOCIETE DES TRANSPORTS),,78990,78208,Élancourt,,
30199,IDF7800611,?,nulle,"FRANCE (SOCIETE BETON DE), anc. FLINS (S.A. LES NOUVELLES SABLIERES DE)",,78990,78208,Élancourt,,
30206,IDF7800042,rue ?,nulle,SOCIETE TEXAL,,78580,78010,Les Alluets-le-Roi,,
30207,IDF7800043,rue ?,nulle,S.A. COMPAGNIE FRANCAISE DES CONDUITES D'EAU,,78580,78010,Les Alluets-le-Roi,,
30210,IDF7800333,?,nulle,CARROSSERIE POURTOUT (SOCIETE),,78570,78138,Chanteloup-les-Vignes,,
30218,IDF7800656,?,nulle,"BLANC SERVICE (SOCIETE), anc. BLANC CLUB (SOCIETE)",,78330,78242,Fontenay-le-Fleury,,
30219,IDF7800616,halage (chemin de),rue,ODA (SOCIETE OUEST DEPANNAGE AUTOMOBILE),,78680,78217,Épône,,
30220,IDF7800617,Rambouillet (route de) (RN 191),rue,SPUTTERING FRANCE (S.A.),,78680,78217,Épône,,
30221,IDF7800621,RN 191,rue,LARDY ET CIE (SOCIETE),,78680,78217,Épône,,
30222,IDF7800623,CR14,nulle,SOC ?,,78680,78217,Épône,,
30223,IDF7800624,CR 39,nulle,SOC ?,,78680,78217,Épône,,
30228,IDF7800630,rue ?,nulle,SOCIETE PETROLIERE DE TECHNIQUE ET D'INVESTISSEMENT,,78690,78220,Les Essarts-le-Roi,,
30229,IDF7800631,rue ?,nulle,SOC ?,,78690,78220,Les Essarts-le-Roi,,
30230,IDF7800639,CR 2 dit de Pontoise et CR 8 dit de Villette,lieu-dit,SOC ?,,78740,78227,Évecquemont,,
30233,IDF7800655,?,nulle,SOC ?,,78330,78242,Fontenay-le-Fleury,,
30236,IDF7800053,?,nulle,CFPI,,78570,78015,Andrésy,,
30240,IDF7800666,CR 22,lieu-dit,WESTERN PRODUCT (SOCIETE),,78112,78251,Fourqueux,,
30244,IDF7800244,"2, route de Triel",adresse,SOC ?,,78955,78123,Carrières-sous-Poissy,,
30245,IDF7800252,"Argenteuil (13, rue d')",adresse,SOC ?,,78420,78124,Carrières-sur-Seine,,
30254,IDF7700411,Zone industrielle,lieu-dit,SERAC,,77390,77493,Verneuil-l'Étang,,
30255,IDF7702474,"Grande, rue",rue,ROCHERIEUX (Jacques),,77130,77516,Ville-Saint-Jacques,,
30258,IDF7700003,Carrière de pierre à  plâtre d'Annet (carrière de gypse),places,Le Paire Frères,Dépôt de produits chimiques,77410,77005,Annet-sur-Marne,,
30259,IDF7700006,"Grande, 25 rue",adresse,Sauhnier (Ets),Desserte de carburants,77410,77005,Annet-sur-Marne,,
30264,IDF7700017,un des champs du propiétaire.,nulle,Salomon (Ets),Agriculteur,77169,77042,Boissy-le-Châtel,,
30271,IDF7700022,"Paris, 18 rue de",adresse,Dematons (Ets),Desserte de carburants,77177,77055,Brou-sur-Chantereine,,
30273,IDF7700025,RN 33,rue,Spisser Marie,Station-service,77750,77057,Bussières,,
30275,IDF7700028,Dans la cour de son établissement.,nulle,Boulanger (Ets),Desserte de carburants,77120,77070,Chailly-en-Brie,,
30281,IDF7700039,Magasin d'épicerie,nulle,Union des Coopérateurs du sud de l'Aisne,Epicerie,77660,77084,Changis-sur-Marne,,
30282,IDF7700040,dans un cavage appartenant aux établissement Poliet et Chausson,nulle,Decoudu (Ernest),Dépôt de produits chimiques,77500,77108,Chelles,,
30283,IDF7700041,A proximité des baraquements installés près du pont à reconstruire.,lieu-dit,Le Bomin (L.),Entreprise générale de travaux publics et de bâtiments,77660,77084,Changis-sur-Marne,,
30284,IDF7700042,"Ussy, rue d'",rue,Duval (Auguste),Dépôt d'explosifs,77660,77084,Changis-sur-Marne,,
30285,IDF7700043,"Changis, route de",rue,Duchange (M.),Station-service,77660,77084,Changis-sur-Marne,,
30287,IDF7700046,"Moulin de Chauffry, lieu-dit le",lieu-dit,Messieurs Neumann et Marx,,77169,77106,Chauffry,,
30289,IDF7700053,territoire de la commune du Pin; à gauche de la route de Chelles au Pin,lieu-dit,Champion (Ets),Dépôt d'immondices,77500,77108,Chelles,,
30290,IDF7700055,RD 34,rue,vidanges à vapeur,,77500,77108,Chelles,,
30293,IDF7700060,"Claye, 14 rue de",adresse,Rauscent (Ets),Dépôt de produits chimiques,77410,77005,Annet-sur-Marne,,
30298,IDF7700065,"Mousseaux, lieu-dit les",lieu-dit,"Vanlandeghem Frères (EARL), ex Vanlandeghem (Ets)",Dépôt de produits chimiques,77750,77024,Bassevelle,,
30299,IDF7700068,"Incurables, ferme des",lieu-dit,EARL du Temple,Dépôt de produits chimiques,77410,77094,Charmentray,,
30312,IDF7700076,"Curie, 1 rue",adresse,Dos Reis Joaquim,,77177,77055,Brou-sur-Chantereine,,
30315,IDF7700085,Derrière la passage à niveau 24.,lieu-dit,Bonnard (Ets),Ferrailleur,77170,77053,Brie-Comte-Robert,,
30316,IDF7700089,"Bois de la justice, lieu-dit les",lieu-dit,POULALION Gérard,,77780,77048,Bourron-Marlotte,,
30326,IDF7702434,"Paris, 18 rue de",adresse,FEVRIER (Elie),Station-service,77174,77508,Villeneuve-le-Comte,,
30327,IDF7702416,"Villiers, route de",rue,SPBM (Sté pour la protection du bois et de tous matériaux),Fabrication et conditionnement de produits chimiques,77580,77142,Crécy-la-Chapelle,,
30346,IDF7700131,"Chanoy, Hameau le",lieu-dit,Récupération de matières métalliques recyclables,Récupération de matières métalliques,77320,77066,Cerneux,,
30347,IDF7700132,"Pascal, 4/6 avenue",adresse,Macrez (Ets),Garage,77144,77307,Montévrain,,
30348,IDF7700144,"Leclerc, 38 avenue Général",adresse,"TOTAL,  M. Raynal Roland",Dépôt d'hydrocarbures,77320,77182,La Ferté-Gaucher,,
30349,IDF7700145,"Obélisque, route de l'",rue,Guillot (Ets),Ferrailleur,77515,77176,Faremoutiers,,
30350,IDF7700151,"Chelles, chemin de",rue,SUPMI,,77181,77139,Courtry,,
30352,IDF7700156,"Petit pont, lieu-dit le",lieu-dit,NOVEL PLASTIQUES,Usine traitant les matières plastiques,77860,77128,Couilly-Pont-aux-Dames,,
30366,IDF7701001,raffinerie,nulle,Raffinerie,Raffinerie,77170,77053,Brie-Comte-Robert,,
30371,IDF7701010,"Paris, 12 rue de",adresse,transports Zélus,Transports,77170,77053,Brie-Comte-Robert,,
30373,IDF7701016,"Paris, 41 rue de",adresse,Rigaud (Ets),Garage - Desserte de carburants,77170,77053,Brie-Comte-Robert,,
30376,IDF7701023,"Paris, 41-43 rue de",adresse,BACQUEVILLE (Ets),Desserte de carburants,77170,77053,Brie-Comte-Robert,,
30377,IDF7701025,RN2 et RN4,rue,SEVRIN (Ets),Garage - Desserte de carburants,77170,77053,Brie-Comte-Robert,,
30378,IDF7701027,RN,nulle,Café,Café,77170,77053,Brie-Comte-Robert,,
30380,IDF7701034,"Aubepierre, ferme à",lieu-dit,Desserte de carburants,Desserte de carburants,77720,77010,Aubepierre-Ozouer-le-Repos,,
30387,IDF7701044,"RN15, propriété de M. Baudry",lieu-dit,Station service,Station-service,77560,77012,Augers-en-Brie,,
30389,IDF7701047,BORNET Ets,lieu-dit,BORNET,,77720,77010,Aubepierre-Ozouer-le-Repos,,
30391,IDF7701049,"Paris, faubourg de",lieu-dit,Garage,Garage - Dépôt d'hydrocarbures,77540,77031,Bernay-Vilbert,,
30392,IDF7701050,"Paris, rue de",rue,"Fourtier (Ets), Ex. Raveau (Ets)",Cidrerie,77540,77031,Bernay-Vilbert,,
30393,IDF7701051,"Pays de Vaux, lieu-dit",lieu-dit,Riester frères,Fabrication de produits explosifs et inflammables,77540,77031,Bernay-Vilbert,,
30398,IDF7701057,"Ponceaux, lieudit Les",lieu-dit,Desserte de carburants,Desserte de carburants,77320,77032,Beton-Bazoches,,
30410,IDF7700183,"Paris, 18 rue de",adresse,"Fevrier (Ets), Ex. Barry (Ets)",Garage,77174,77508,Villeneuve-le-Comte,,
30411,IDF7700197,"Corbin, lieu-dit",lieu-dit,"Ugitech, Ex. Sprint métal, Ex. Imply (SA), Ex. METALIMPHY, Ex. Ferro-Nickel",Fonderie de nickel et alliages,77440,77257,Lizy-sur-Ourcq,,
30412,IDF7700203,"Grande, 28 Rue",adresse,SIREB,,77166,77175,Évry-Grégy-sur-Yerre,,
30414,IDF7700214,Gare de triage,lieu-dit,SOBEFER,,77500,77108,Chelles,,
30415,IDF7700220,Aire de service normale du Parc,lieu-dit,ESSO-SAF,Station service,77760,77001,Achères-la-Forêt,,
30416,IDF7700160,"Grande, 10 rue",adresse,Serrurerie,Serrurerie,77124,77358,Penchard,,
30417,IDF7700772,RN3,rue,Ployard (Ets),Garage - Station-service,77260,77440,Sammeron,,
30418,IDF7700778,"gare de Dammartin-Juilly-Saint-Mard, En face de la",lieu-dit,Chevaugeon (Ets),Dépôt d'hydrocarbures,77230,77420,Saint-Mard,,
30428,IDF7701265,"gare de Lechelle, ancienne",lieu-dit,Coopérative Agricole d'Approvisonnement de la Région de Provins,Coopérative Agricole,77171,77246,Léchelle,,
30438,IDF7701280,"Fontainebleau, 128 avenue de",adresse,Garage de la Gorte Madon,Station-service - Garage,,,,,
30439,IDF7701283,"Lagny, 51 rue de",adresse,JAMET (Ets),Garage,77410,77517,Villevaudé,,
30440,IDF7701288,"Briand, 14 rue Aristide",adresse,FRAPIN (Ets),Tôlerie,77124,77513,Villenoy,,
30441,IDF7701289,"sur les terres de cultures appartenant à M. LUGAN,",lieu-dit,LUGAN,Extraction et de fonte des graisses,77190,77518,Villiers-en-Bière,,
30450,IDF7701067,propriété de Mme Saint-Anceau en 1929,lieu-dit,Stockage de produits chimiques,Stockage de produits chimiques,77350,77039,Boissise-la-Bertrand,,
30451,IDF7701068,"Uselles, lieu-dit les",lieu-dit,Décharge d'ordures ménagères,Décharge d'ordures ménagères,77350,77039,Boissise-la-Bertrand,,
30462,IDF7700227,"Grande Paroisse, route de la",rue,Vivien et Cie (Société),Récupération de matières métalliques - Fonderie,77130,77210,La Grande-Paroisse,,
30463,IDF7700230,CD 97,rue,Sadones (Ets),Garage,77910,77203,Germigny-l'Évêque,,
30464,IDF7700235,"Sarcy, rue de",rue,Genin (Ets),Atelier de réparation frigorifique,77580,77047,Bouleurs,,
30465,IDF7700248,CR 6,lieu-dit,Ste Infrastructures Routières et Industrielles,,77115,77453,Sivry-Courtry,,
30475,IDF7700267,"Incurables, ferme des",lieu-dit,Lenfant (Ets),Dépôt de produits chimiques,77410,77094,Charmentray,,
30483,IDF7700274,"Saint Sauveur, route de",rue,Ville de Paris,Dépôt d'hydrocarbures,77134,77347,Les Ormes-sur-Voulzie,,
30484,IDF7700276,"Oratoire, Ferme de l'",lieu-dit,Garnier (Ets),Dépôt de produits chimiques,77230,77241,Juilly,,
30487,IDF7700281,"Chef de ville, 21 rue",adresse,Besnard (Ets),Agriculteur,77139,77173,Étrépilly,,
30489,IDF7701318,"Sens, 31 avenue de",adresse,LENOIR (Etablissement Roger),Atelier de carrosserie automobile,,,,,
30490,IDF7701333,"Vignely, 23 route de",adresse,ERPIC,Garage,77450,77232,Isles-lès-Villenoy,,
30491,IDF7701334,"Troyes, 78 rue de",adresse,Paris (Garage P.),Garage,77390,77222,Guignes,,
30512,IDF7700298,RN 4,rue,MOBIL-OIL Française,,77610,77192,Fontenay-Trésigny,,
30517,IDF7700310,"Hubert, rue Edmond",rue,"Hurel Arc, Ex. FROT (Christian)",Dépôt de produits chimiques,77620,77168,Égreville,,
30520,IDF7700317,"Carnetin, 1 rue",adresse,GUERIN (Ets),,77400,77155,Dampmart,,
30527,IDF7700351,"Melun, 23 route de",adresse,Doucin (Ets),Garage,77580,77141,Coutevroult,,
30531,IDF7700361,"Garnier, 20 rue Gabriel",adresse,OTICO (SA),Stockage et réparation de pneumatique,77650,77076,Chalmaison,,
30547,IDF7702488,"Roosevelt, 42 avenue Franklin",adresse,PEZETTA (Ets),Station-service,77260,77448,Sept-Sorts,,
30548,IDF7702491,"Verdun, 66-68 avenue de",adresse,FESCIA (Garage),Garage,77470,77475,Trilport,,
30549,IDF7702492,"Gare, 74 avenue de la",adresse,CHEVAUGEON (Lucien),,77230,77420,Saint-Mard,,
30550,IDF7702504,"Vauroux, 32 rue des",adresse,Agogué (Roger),Dépôt de ferrailles,77130,77210,La Grande-Paroisse,,
30562,IDF7702531,"Etang, Ferme de l'",lieu-dit,VILMORIN GRANDE CULTURE (Groupe),,77390,77107,Chaumes-en-Brie,,
30564,IDF7701491,"Bertaux, 153 rue",adresse,Serrurerie (Ets de),Atelier de serrurerie et ferronnerie d'art,77330,77350,Ozoir-la-Ferrière,,
30567,IDF7701367,"Allendé, avenue Salvador",rue,ACTIF-AVTO,Importateur de machines agricoles,77190,77152,Dammarie-les-Lys,,
30578,IDF7700805,"Breget, rue de",rue,Viet (Ets),Station-service,77178,77344,Oissery,,
30587,IDF7702461,"Grande, 38 rue",adresse,"FINA France, Ex. TYTECA",Station-service FINA,77130,77482,Varennes-sur-Seine,,
30590,IDF7702472,"Atlantique, avenue de l'",rue,Infrastructures Routières et Industrielles,,77610,77229,La Houssaye-en-Brie,,
30608,IDF7700451,"Bray, route de",rue,Provins-Réfractaires,,77134,77347,Les Ormes-sur-Voulzie,,
30612,IDF7700827,"Genouilly, Ferme de",lieu-dit,Croux (Ets),Agriculteur,77390,77222,Guignes,,
30614,IDF7701118,"Gouffre, lieu-dit le",lieu-dit,Verrerie Industrielle et scientifique (Société) (SOVIS),Verrerie industrielle de Biercy,77640,77238,Jouarre,,
30618,IDF7700456,Zone industrielle,lieu-dit,Pyral (Société),Fabrication de bandes magnétiques,77370,77327,Nangis,,
30622,IDF7700466,"Liéton, 528 rue du",adresse,Ateliers du Grand Morin,,77120,77320,Mouroux,,
30623,IDF7700469,"Genevraye, route de la",rue,BP (Société française des Pétroles),Garage Kruger,77690,77312,Montigny-sur-Loing,,
30624,IDF7700470,RN 4,rue,MAGNE (Dominique),Station-service,77151,77301,Montceaux-lès-Provins,,
30653,IDF7701173,"Moret, 54 route de - ancien numérotage : n°2; Moncourt-Fromonville, route départementale n°40",adresse,Bonnichon (Ets Robert),Garage,77140,77302,Montcourt-Fromonville,,
30655,IDF7701498,"Noues, Lieu-dit Les",lieu-dit,NOURY et Fils,,77250,77501,Villecerf,,
30658,IDF7701510,"Grande, rue",rue,BARRE (Ets),Desserte de carburants,77120,77131,Coulommiers,,
30672,IDF7701556,"Puiseaux, route de",rue,HUREAU (Ets),Garage,77570,77110,Chenou,,
30674,IDF7701560,RN 4,rue,MOBIL-OIL Française,,77610,77192,Fontenay-Trésigny,,
30675,IDF7701567,"Nemours, ruelle de",rue,DISCO-GROS,Station-service,77570,77099,Château-Landon,,
30676,IDF7700479,"Gibraltar, lieu-dit",lieu-dit,SODAP,Enlèvement et traitement des ordures ménagères,77122,77309,Monthyon,,
30683,IDF7700492,"Bray, route de",rue,Seine-et-Marne Enrobés,,77130,77279,Marolles-sur-Seine,,
30689,IDF7700511,"Héricy, 3 route d'",rue,Britax (Geco),Atelier de travail des métaux,77870,77533,Vulaines-sur-Seine,,
30694,IDF7700517,"Fuan, 18 rue Paul",adresse,"Gilbert (Ets), Ex. Pierrot (Ets)",Garage,77230,77241,Juilly,,
30700,IDF7700882,"Grand Morin, au bord de la rivière",lieu-dit,Cégédur (Compagnie générale du Duralumin et du Cuivre),Fonderie de métaux non ferreux,77515,77176,Faremoutiers,,
30701,IDF7700887,"Remises, lieu-dit les",lieu-dit,Magnien (Ets),Station-service,,,,,
30702,IDF7700888,Près du carrefour de la route de Gretz-sur-Loing à Montigny,lieu-dit,Dépôt d'ordures,Dépôt d'ordures,77780,77048,Bourron-Marlotte,,
30703,IDF7700889,RN 7,rue,ESSO-STANDARD,,77630,77022,Barbizon,,
30708,IDF7700898,"Eglise, rue de l'",rue,LENOBLE Père et fils,Desserte de carburants - Mécanique générale,77890,77027,Beaumont-du-Gâtinais,,
30714,IDF7700907,RN3,rue,PURFINA-Française,Dépôt d'hydrocarbures,77500,77108,Chelles,,
30718,IDF7700914,"Paris, 34 rue de",adresse,ANTAR (Pétroles de l'Atlantique),,77860,77413,Saint-Germain-sur-Morin,,
30721,IDF7700923,"Petit fossard, lieu-dit",lieu-dit,"Vrain (Ets), Ex. Dubois (Ets)",Garage - Station-service,77130,77305,Montereau-Fault-Yonne,,
30735,IDF7700564,Thiersanville n° 30,lieu-dit,Poulalion (Ets),Garage de poids lourds,77460,77458,Souppes-sur-Loing,,
30740,IDF7700585,"Petit Fossard, lieu dit Le",lieu-dit,FINA France,,77940,77172,Esmans,,
30742,IDF7700589,RN 5 bis,rue,COLAS (Société Routière),Dépôt d'hydrocarbures,77820,77100,Le Châtelet-en-Brie,,
30747,IDF7701198,"Pré Vonat,  Lieu-dit",lieu-dit,Garage,Garage,77165,77437,Saint-Soupplets,,
30749,IDF7701203,"Fay-le-Hainaut, lieu-dit",lieu-dit,Equipement Industriel Européen (EIE),Fabrication d'outillage,77260,77448,Sept-Sorts,,
30756,IDF7701215,"Pet au Diable, Lieu-dit Le",lieu-dit,THION et Cie,Dépôt de bois et de charbon,77000,77389,La Rochette,,
30758,IDF7701219,RN 78 terrain de M. DUBUISSON,rue,MARTEAU (Ets),Maçonnerie,77260,77388,Reuil-en-Brie,,
30766,IDF7701414,RN 308,rue,Serrurerie - Ferronnerie d'art,Serrurerie - Ferronnerie d'art,77120,77131,Coulommiers,,
30774,IDF7700598,"Mary, route de",rue,Garage de la Gare,Garage - Station-service,77440,77257,Lizy-sur-Ourcq,,
30778,IDF7700606,"Stade, 1 rue du",adresse,REMY Jean-Pierre,Atelier de travail des métaux,77390,77222,Guignes,,
30787,IDF7700948,"Erables, 5 rue des",adresse,Société Française pour la Transformation des Végétaux (SFTV),,77540,77393,Rozay-en-Brie,,
30788,IDF7700949,A 280 m de l'usine rue des Forges,lieu-dit,Cabrit (E. et Fils),,77164,77181,Ferrières-en-Brie,,
30792,IDF7700960,"Gare, 6 avenue de la",adresse,"Rousselet (Ets), Ex. Marche (Ets)",Station-service,77750,77405,Saint-Cyr-sur-Morin,,
30804,IDF7700981,"Pepinière, lieu-dit la",lieu-dit,EMMAÜS,,77340,77373,Pontault-Combault,,
30811,IDF7701436,poste de répartition,lieu-dit,Electricité de France (Région Equipement de Paris) (EDF),Centrale électrique,77220,77470,Tournan-en-Brie,,
30812,IDF7701444,"Meaux, route de",rue,Et Cetera (Sté) (ETC),Atelier de peinture,77580,77270,Maisoncelles-en-Brie,,
30814,IDF7701461,"Villepatour, hameau de",lieu-dit,RODRIGUEZ (Ets),Travail des métaux,77220,77377,Presles-en-Brie,,
30815,IDF7701466,"RODIER, 20 rue L",adresse,PERTHAL (Sté),Atelier de travail des métaux,77930,77359,Perthes,,
30817,IDF7701478,"Villpatour, Hameau de",lieu-dit,RODRIGUEZ (Ets),Travail des métaux,77220,77377,Presles-en-Brie,,
30819,IDF7700611,"Vingt-sept août 1944, 147 avenue du",adresse,Montry-Auto,,77450,77315,Montry,,
30834,IDF7700658,"Bois Bailly, lieu-dit le",lieu-dit,Dideron,Fabrication de produits azotés et d'engrais,77420,77083,Champs-sur-Marne,,
30836,IDF7700663,"Pelle à Four, lieu-dit la",lieu-dit,Ste des Produits Routiers de la Brie et du Gatînais ( PRBG),,77720,77211,Grandpuits-Bailly-Carrois,,
30837,IDF7700667,"Grande, 6 rue",adresse,Caoutex,,77580,77142,Crécy-la-Chapelle,,
30838,IDF7700675,"Gare, 7 rue de la",adresse,Rato-schrome,Traitement des métaux,77130,77482,Varennes-sur-Seine,,
30839,IDF7700686,"Baulnes, lieu-dit les",lieu-dit,"Station-service ""Les Baulnes""",,77580,77142,Crécy-la-Chapelle,,
30844,IDF7701487,"Pont d'Argent,  Lieu-dit",lieu-dit,Letang,,77160,77403,Saint-Brice,,
30845,IDF7700690,"Thiersanville, lieu-dit Hameau de",lieu-dit,Simonin (Ets),Casse automobile,77570,77045,Bougligny,,
30848,IDF7700697,ZAC,lieu-dit,Carolaux,,77580,77142,Crécy-la-Chapelle,,
30849,IDF7700699,"Gare, 3 rue de la",adresse,Garage du Gâtinais,Garage du Gâtinais,77570,77099,Château-Landon,,
30850,IDF7700701,"Barauderie, 24 rue de la",adresse,Antoine,Atelier de métaux,77140,77156,Darvault,,
30852,IDF7700712,"Bougligny, route de",rue,"Fauverteix et Fils (Entreprise), Ex. Thilloux (Ets)",Ferrailleur,77570,77099,Château-Landon,,
30854,IDF7700714,"Bertaux, rue",rue,Fontenal,,77930,77069,Chailly-en-Bière,,
30861,IDF7700723,"Gasset, parc d'activités du",lieu-dit,Viriot (Ets),Atelier de mécanique de précision,77600,77085,Chanteloup-en-Brie,,
30863,IDF7700735,"Coupvray, route de",rue,Servouze (Ets),Desserte de carburants,77450,77171,Esbly,,
30869,IDF7701400,BP 13 - 77120,nulle,BEGHIN-SAY,Sucrerie,77120,77131,Coulommiers,,
30871,IDF7701402,"Villiers, route de",rue,BONIFACE Frères,,77780,77048,Bourron-Marlotte,,
30876,IDF7701833,"Champ Benoist, 13 route de",adresse,RAYER (Ets),Dépôt d'hydrocarbures,77160,77379,Provins,,
30894,IDF7701866,"Leclerc, rue du Général",rue,TOTAL,Station-service,77400,77372,Pomponne,,
30896,IDF7701874,"Marché aux chevaux,  place du",lieu-dit,THEUNISSEN (Ets),Dépôt d'hydrocarbures,77120,77131,Coulommiers,,
30899,IDF7701883,RN 5 bis,rue,GARD (Ets),Dépôt d'hydrocarbures,77130,77305,Montereau-Fault-Yonne,,
30904,IDF7700737,Chemin communal,nulle,Lacroix (Ets),Desserte de carburants,77840,77129,Coulombs-en-Valois,,
30907,IDF7700741,Route Departemental,nulle,Station service,Station-service,77440,77157,Dhuisy,,
30914,IDF7700766,"Prêtres, Chemin aux",rue,Vandelet Frères,Station-service,77100,77284,Meaux,,
30919,IDF7702407,"Saveteux, 1 route de",adresse,BARDET (Patrick),Carrosserie,77115,77453,Sivry-Courtry,,
30941,IDF7702333,RN36,rue,FINA,Station-service,77390,77107,Chaumes-en-Brie,,
30948,IDF7702050,"Moret, route de",rue,"DODU (André), Ex. RAMU (Renée)",Dépôt de pneumatiques,77140,77156,Darvault,,
30958,IDF7701594,"Etats-Unis, 43 avenue des",adresse,Levêque (Camille),Station-service,77320,77182,La Ferté-Gaucher,,
30962,IDF7701601,"Pascale, 36 rue",adresse,"SCI, Ex. Cartonnages de Fontenay",Fabrication de cartons,77610,77192,Fontenay-Trésigny,,
30980,IDF7702354,"Renoir, 7 rue",adresse,Aumaître et Mathe (Etablissements),Fabrique d'échelles,77610,77192,Fontenay-Trésigny,,
30990,IDF7701908,"RN 4,  fosse aux sabot, lieu-dit",lieu-dit,TRAPIED Pierre,Station-service,77610,77192,Fontenay-Trésigny,,
31006,IDF7701921,RN 5,rue,MENIN (Ets),Station-service,,,,,
31007,IDF7701922,RN 5,rue,FUARE (Ets),Dépôt d'hydrocarbures,,,,,
31016,IDF7701642,"Trou de Chaillouet, lieu-dit",lieu-dit,SAMC : Sté anonyme de matériel de construction,Décharge d'ordures ménagères,77580,77142,Crécy-la-Chapelle,,
31034,IDF7702068,"Bois Robert, lieu-dit le",lieu-dit,DROGUET,,77320,77240,Jouy-sur-Morin,,
31038,IDF7701659,"Vue grande, Lieu-dit La",lieu-dit,SIRAMA ET Fonderie Affinage traitement des Métaux (FATM),Fonderie,77139,77274,Marcilly,,
31048,IDF7701961,RN 33,rue,FAUVET (Ets),Garage,77750,77057,Bussières,,
31054,IDF7702360,"Talon et la reinet, lieu-dit",lieu-dit,POLIET et CHAUSSON (Ets),Fabrication de produits explosifs,77130,77210,La Grande-Paroisse,,
31063,IDF7701946,"RN 4, gauche",rue,Desmarais Frères (Société),,77610,77192,Fontenay-Trésigny,,
31064,IDF7701947,RN 4 Droite,rue,Desmarais Frères (Société),,77610,77192,Fontenay-Trésigny,,
31065,IDF7701948,RN 33,rue,GOYARD (Ets),Garage,77260,77448,Sept-Sorts,,
31067,IDF7701952,"RN 375, Dontilly",lieu-dit,Régnier (Garage),"Garage, Ex. Station-service",77520,77159,Donnemarie-Dontilly,,
31070,IDF7701960,RN 5,rue,Desmarais Frères (Société),Station-service,77940,77054,La Brosse-Montceaux,,
31074,IDF7701965,RN7,rue,Stelline-Lille-Bonières et Colombes,,77630,77022,Barbizon,,
31076,IDF7701968,"Etats-Unis, avenue des",rue,GEORGET (Ets),Station-service,77260,77183,La Ferté-sous-Jouarre,,
31078,IDF7702079,"Grande, 8 rue",adresse,"Joanidès M., Ex. M. Borderie Ex. M. Cacavo, Ex. M. Boularand",Garage du Lac,77450,77234,Jablines,,
31079,IDF7702081,"Tertre de Berceau, lieu-dit",lieu-dit,REVETO,,77115,77453,Sivry-Courtry,,
31105,IDF7701980,zone industrielle,lieu-dit,Travail des métaux,Travail des métaux,77500,77108,Chelles,,
31106,IDF7701988,"Grande, 18 rue",adresse,Atelier de travail des métaux,Atelier de travail des métaux,77410,77005,Annet-sur-Marne,,
31116,IDF7701724,"Butteau, hameau  de",lieu-dit,SOGAPLAST,,77570,77110,Chenou,,
31118,IDF7701706,RN 7,rue,Station service,Station-service,77930,77069,Chailly-en-Bière,,
31121,IDF7701719,RN 4,rue,ELF,,77860,77413,Saint-Germain-sur-Morin,,
31128,IDF7702111,"Herry, 7-9 rue Michel",adresse,DAMONGEOT (Guy),Garage,77580,77142,Crécy-la-Chapelle,,
31130,IDF7702116,Gare SNCF,lieu-dit,Matériaux de Chelles,Garage,77500,77108,Chelles,,
31135,IDF7701726,RN 3,rue,SHELL,,77124,77335,Chauconin-Neufmontiers,,
31147,IDF7701764,"Promenades, 24 rue des",adresse,Peugeot garage (ex EtablissmentTHOMAS Serge),Garage - Carrosserie,77320,77182,La Ferté-Gaucher,,
31154,IDF7702006,"Ferté-sous-Jouarre, 15 rue de la",adresse,BATAILLER,Dépôt de cartouches et de carburant,77120,77131,Coulommiers,,
31155,IDF7702013,"Coudreaux, lieu-dit les",lieu-dit,RAFFIN Corneille,Casse automobile,77181,77139,Courtry,,
31156,IDF7702091,"gare, quartier de la",lieu-dit,Fasibe (SA),,77760,77088,La Chapelle-la-Reine,,
31158,IDF7702101,ZAC,lieu-dit,Etablissement public d'aménagement de la Ville Nouvelle de Marne-La-Vallée,Garage,77186,77337,Noisiel,,
31169,IDF7702047,"Berceau, lieu-dit le",lieu-dit,REVETO S.A.,Centrale d'enrobage,77115,77453,Sivry-Courtry,,
31191,IDF7701785,"Moisiel, 61 rue de",adresse,Françers (Ets),Fonderie de métaux légers,77400,77243,Lagny-sur-Marne,,
31203,IDF7701806,"cité, 1 rue de    Belle-Croix, hameau de la",lieu-dit,"Autorité militaire (gestion à la fin des hostilités, possibilité de cession à une entreprise civile)",,77120,77320,Mouroux,,
31206,IDF7701809,Presles-en-Brie,nulle,Agriculteur,Agriculteur,77220,77377,Presles-en-Brie,,
31213,IDF7702318,"Stade, 9 rue du",adresse,CHAUVET,Serrurerie,77720,77082,Champeaux,,
31216,IDF7702395,zone industrielle,lieu-dit,MILLOT (Claude),Fabrication de pièces techniques en matières plastiques,77510,77385,Rebais,,
31231,IDF7703833,"Orgemont, rue d'",rue,BOURGEOIS (Francis),,77124,77335,Chauconin-Neufmontiers,,
31235,IDF7703855,"Thiers, quai",rue,ESSO-STANDARD,Dépôt d'hydrocarbures,77100,77284,Meaux,,
31239,IDF7703881,"Gare, 74 avenue de la",adresse,CHEVAUGEON (Lucien),,77230,77420,Saint-Mard,,
31240,IDF7703884,"Bois-le-Roi, avenue",rue,Société d'Exploitation des Pompes,Usinage et montage de pompes à eau,77920,77441,Samois-sur-Seine,,
31248,IDF7702187,"Gonas, 12 rue",adresse,REMY (Garage),Garage du Grand Morin,77860,77128,Couilly-Pont-aux-Dames,,
31252,IDF7702198,"Vignes, lieu-dit les",lieu-dit,STEPHAN Pierre,Dépôt de ferrailles,77150,77180,Férolles-Attilly,,
31261,IDF7702215,"Vingt-sept août, avenue du",rue,LETELLIER (Marc),Garage - Station-service,77163,77318,Mortcerf,,
31266,IDF7702231,"Roosevelt,  39 avenue Franklin",adresse,VANCE (Ets),Garage,77000,77288,Melun,,
31269,IDF7702731,"Nemours, rue de",rue,"Carautoroutes, ex. ANTAR - ELF France",Station service,77140,77333,Nemours,,
31292,IDF7702831,"Moutiers, 63 rue du",adresse,GOURDE (Garage Raymond),Garage,77230,77420,Saint-Mard,,
31302,IDF7702757,"Mont Nesles-la-Gilberde, 23 rue du",adresse,GALLAND (François),Ferronnerie,77540,77393,Rozay-en-Brie,,
31320,IDF7702801,RN19 4bis,rue,Affutage Scie Industrie,,77166,77217,Grisy-Suisnes,,
31321,IDF7702803,"Huit mai 1945, avenue du",rue,COULET (Société),Garage Coulet,77130,77482,Varennes-sur-Seine,,
31324,IDF7703038,"Stade, 41 rue du",adresse,"SFEER, ex BSB, Ex. Decoprat",Traitement des métaux,77720,77082,Champeaux,,
31331,IDF7703564,"Barauderie, 24 rue de la",adresse,Antoine,,77140,77156,Darvault,,
31334,IDF7703569,"Bouligny, 3route de",adresse,FAUVERTEIX et Fils,,77570,77099,Château-Landon,,
31335,IDF7703571,"PATHE, rue Charles",rue,Levêque (Jean-Claude),Mécanique générale,77173,77114,Chevry-Cossigny,,
31348,IDF7703916,RN19,rue,Coopérative de déshydratation de fourrages de la région de Mormant,Coopérative agricole,77390,77352,Ozouer-le-Voulgis,,
31355,IDF7703933,"Ségogne, rue",rue,BONNET,,77430,77079,Champagne-sur-Seine,,
31357,IDF7703943,"PATHE, 1 rue Charles",adresse,"GRANGE (J.), Ex. BOUTBOUL",Fonderie - Traitement de métaux,77173,77114,Chevry-Cossigny,,
31360,IDF7707241,RN 34,rue,ANTAR (Pétroles de l'Atlantique),Station-service,77860,77413,Saint-Germain-sur-Morin,,
31369,IDF7702286,"Savary, chemin du Paul",rue,SEREM,Travail des métaux,77165,77437,Saint-Soupplets,,
31371,IDF7702289,"Moutiers, rue du",rue,GOURDE (Garage),Garage,77230,77420,Saint-Mard,,
31377,IDF7702310,"Villiers, route de",rue,BONIFACE Frères (SA),,77780,77048,Bourron-Marlotte,,
31386,IDF7703579,"Gasset, parc d'activités du",lieu-dit,VIRIOT,,77600,77085,Chanteloup-en-Brie,,
31390,IDF7703605,"Fosse à sabot, lieu-dit la",lieu-dit,MATHIAS,,77610,77192,Fontenay-Trésigny,,
31392,IDF7703612,"Mazures, chemin des",rue,Plastiques RS,"Fabrication, transformation et/ou dépôt des matières plastiques",77880,77216,Grez-sur-Loing,,
31399,IDF7703638,RN5,rue,SHELL-Berre,Relais des Quatre-Vents,,,,,
31400,IDF7703639,Faubourg d'Ecuelles,lieu-dit,LOUIS Père & fils (Ets),Fonderie d'aluminium,,,,,
31405,IDF7703651,"Bois de la Justice, lieu-dit les",lieu-dit,BOULLAND,,77780,77048,Bourron-Marlotte,,
31406,IDF7703656,"Grande, rue",rue,MONNET Gabriel,Dépôt d'hydrocarbures,77760,77046,Boulancourt,,
31408,IDF7707253,"CV ordinaire n°1, RN 7 , proche",nulle,BOULAY-MERVILLE,Cadmiage,77780,77048,Bourron-Marlotte,,
31413,IDF7707259,RD 142 entre Vosves et Melun,lieu-dit,"QUINTENE P. ""Particulier""",Dépôt de résidus de vidange,77310,77040,Boissise-le-Roi,,
31415,IDF7707262,"Chantereine, 3 rue de",adresse,STOREQUIP,Vente et réparation de matériel automobile industriel,77177,77055,Brou-sur-Chantereine,,
31416,IDF7707266,"Sadi Carnot, 21 rue",adresse,"TROUBLE (Gérard), Ex. COHEN (J.J.)",Garage,77124,77513,Villenoy,,
31422,IDF7702540,"PATHE, 6 rue Charles",adresse,"KOTOWSKI (Garage J-C), Ex. WICKER (Jean)",Garage de la Poste,77173,77114,Chevry-Cossigny,,
31435,IDF7702832,"Montmogis, hameau de",lieu-dit,GEIMUPLAST France,Atelier de transformation de matières plastiques,77320,77432,Saint-Rémy-la-Vanne,,
31436,IDF7702836,"Maison-Rouge, Relais de",lieu-dit,TOTAL,Relais de Maison-Rouge,77310,77407,Saint-Fargeau-Ponthierry,,
31446,IDF7703662,"Valaterie, lieu-dit la",lieu-dit,SEMAC,,77760,77477,Ury,,
31448,IDF7703670,"Jonquière, lieu-dit la",lieu-dit,"Métal Blanc, Ex. ORGAFRANCE (Société), Ex. IENORGA","Fonderie, Ex. Industrie chimique de base",77560,77519,Villiers-Saint-Georges,,
31449,IDF7703673,Arquebuse; 5 rue de l',adresse,"Mécanique Générale de Poincy (Société), Ex. CLEMENT",Atelier de métaux,77124,77513,Villenoy,,
31451,IDF7703682,"Barcy, route de",rue,Produits Chimiques de Meaux,Industrie chimique,77124,77143,Crégy-lès-Meaux,,
31454,IDF7703695,"Belle croix, lieu-dit la",lieu-dit,ROGER,,77120,77131,Coulommiers,,
31456,IDF7703699,"Pointe, lieu-dit la",lieu-dit,Compagnie Française de Raffinage,Dépôt d'hydrocarbures,77140,77431,Saint-Pierre-lès-Nemours,,
31468,IDF7702551,Terrain SNCF gare de triage,lieu-dit,"SORAP, ex SOBEFER",Atelier de métaux,77500,77108,Chelles,,
31473,IDF7702572,"gare de Lechelle, ancienne",lieu-dit,Coopérative agricole d'approvisionnement de l'arrondissement de Provins (SCAA),Coopérative agricole,77171,77246,Léchelle,,
31474,IDF7702581,"Trou aux loups,  lieu-dit le",lieu-dit,ESSO-REP,Station-service,77650,77418,Saint-Loup-de-Naud,,
31475,IDF7702582,"Moutiers, 63 rue du",adresse,GOURDE (Raymond),,77230,77420,Saint-Mard,,
31482,IDF7702603,"Orme Brisé, lieu-dit l'",lieu-dit,"IMPRILITH, Ex. Imprimerie De Ponthierry, Ex. ATF",Imprimerie,77310,77378,Pringy,,
31486,IDF7702611,"Bellevues, lieu-dit les",lieu-dit,CALKA (Alain),Récupération de matières métalliques recyclables,77950,77295,Moisenay,,
31487,IDF7706378,"Saint denis, rue",rue,FUENTES,Serrurerie - Forgeron,77410,77427,Saint-Mesmes,,
31495,IDF7706420,"République,  40 avenue de la",rue,RONDEAU Jean,Chaudronnerie - Serrurerie,77173,77114,Chevry-Cossigny,,
31512,IDF7702883,"Closeaux, hameau de",lieu-dit,MULTILAME S.A.,,77710,77353,Paley,,
31514,IDF7702886,"Grande, 10 rue",rue,BRAQUEMART (J.),Serrureries - ermetures-Stores,77124,77358,Penchard,,
31522,IDF7702902,"Verdun, 67 avenue de",adresse,KLEBER (Klébert Renolit Plastiques et Klébert-Colombes),Usine de plastique,77470,77475,Trilport,,
31525,IDF7702914,"Lagny, 51 rue de",adresse,Jamet (Garage),Garage,77410,77517,Villevaudé,,
31539,IDF7706516,"gare, 30 rue de la",adresse,LEBRUN Maurice,Mécanique - Dépôt d'hydrocarbures,77730,77397,Saâcy-sur-Marne,,
31540,IDF7706517,"RN 4, en bordure de la",rue,SHELL & BERRE Sté des pétroles,Station-service,77730,77397,Saâcy-sur-Marne,,
31543,IDF7706524,"FROT, 76 rue Leon",adresse,THOMAS,Atelier de métaux,77130,77467,La Tombe,,
31564,IDF7702924,"By, 43 rue de",adresse,ELER (Ets),Tôlerie - Chaudronnerie,77810,77463,Thomery,,
31581,IDF7702962,Pont de Rozay,lieu-dit,Peugeot (ex MIRAT Michel),Carrosserie - Station-service,77540,77031,Bernay-Vilbert,,
31582,IDF7702965,"Compas, chemin de",rue,BLOM (Pierre),Station-service,77410,77118,Claye-Souilly,,
31594,IDF7706596,"Olivier, rue",rue,NORMINTER,Station-service,77310,77040,Boissise-le-Roi,,
31596,IDF7703719,"Moulin de Liarry, lieu-dit",lieu-dit,Drouillat (Ets),Atelier de caoutchouc industriel,77450,77315,Montry,,
31616,IDF7703969,"Pont d'argent, lieu-dit",lieu-dit,LETANG,,77160,77403,Saint-Brice,,
31630,IDF7703763,"Grande, rue",rue,FAIDEAU,,77630,77022,Barbizon,,
31632,IDF7703768,"Paris, 17 rue de",adresse,DRURE,Dépôt d'hydrocarbures,77177,77055,Brou-sur-Chantereine,,
31640,IDF7703787,"Quincy, route de",rue,BAUDOIN (Mécanique Générale),Mécanique générale,77100,77276,Mareuil-lès-Meaux,,
31641,IDF7703789,"Nationale, route de",rue,GARD,,77130,77305,Montereau-Fault-Yonne,,
31648,IDF7703814,RN371,rue,PANCHROMA,Imprimerie,77400,77243,Lagny-sur-Marne,,
31662,IDF7707302,RN 34,rue,HERMAND (R.),Garage,77930,77069,Chailly-en-Bière,,
31664,IDF7702990,"Provins, route de",rue,Coopérative agricole de distillerie et de déshydratation de la Brie,,77160,77109,Chenoise,,
31665,IDF7702620,"CD 7 dit ""de la Grenouillère""",lieu-dit,Récupération Automobiles Marco (Sté) (SRAM),,77370,77272,Maison-Rouge,,
31667,IDF7702648,Chennevières les Louvres Val d'Oise,nulle,SMCA (Sté de manutention de carburants aviation),Dépôt d'hydrocarbures,95380,95154,Chennevières-lès-Louvres,,
31675,IDF7702662,"Pré de Couveclé, lieu-dit",lieu-dit,AMR,,77166,77217,Grisy-Suisnes,,
31684,IDF7702131,"Stade, 9 rue du",adresse,SOBRIPLAST,"Fabrication, transformation et/ou dépôt des matières plastiques",77720,77082,Champeaux,,
31685,IDF7702137,"Fond des bois, lieu-dit le",lieu-dit,LEROUX (Didier),,77650,77076,Chalmaison,,
31686,IDF7702141,"Launoy, lieu-dit",lieu-dit,VENTROUX Claude,Garage,77940,77035,Blennes,,
31688,IDF7702144,"Villiers, route de",rue,BOULAY-MELVILLE,Fabrication de ressorts,77780,77048,Bourron-Marlotte,,
31691,IDF7702149,"Coudray, lieu-dit le",lieu-dit,Pach'meubles,Fabrication de meubles et de sièges,77890,77027,Beaumont-du-Gâtinais,,
31701,IDF7702163,"Grande, rue",rue,PROCHIMA,,77166,77175,Évry-Grégy-sur-Yerre,,
31702,IDF7702168,Base logistique GARMATEX,lieu-dit,Razel Frères,Préfabrication de pièces en béton,77184,77169,Émerainville,,
31705,IDF7702674,"Vignely, 20 route de",adresse,MISSON,Atelier de forgeage et estampage de pièces métalliques,77450,77232,Isles-lès-Villenoy,,
31708,IDF7702695,"Bougligny, 5 route de",adresse,POULALION Gérard,Dépôt de ferrailles,77570,77099,Château-Landon,,
31710,IDF7702701,"Quai Bonne, lieu-dit la",lieu-dit,ROL-LISTER,,77260,77478,Ussy-sur-Marne,,
31719,IDF7702720,"Paris, 18 rue de",adresse,GREGOIRE (Martin),Garage,77174,77508,Villeneuve-le-Comte,,
31742,IDF7706768,BP 100; Marne la vallée Cedex 04,nulle,DISNEYLAND Paris,Parc d'attraction,77186,77337,Noisiel,,
31745,IDF7706771,"Puiseaux, route de",rue,HUREAU (Roger),Réparation automobile - Tôlerie - Peintures,77570,77110,Chenou,,
31754,IDF7706027,"ROOSVELT, 32 avenue du président",adresse,Lapointe & Fils,,77440,77231,Isles-les-Meldeuses,,
31757,IDF7706032,"Saint Antoine, rue",rue,JACIR (J.),Chaudronnerie,77340,77373,Pontault-Combault,,
31758,IDF7706035,"ROCHEFORT, 2 rue Henri , paris",adresse,SOFOM,,77169,77042,Boissy-le-Châtel,,
31761,IDF7706039,"RN 4, en bordure de la",rue,RAVEAUX Armand,Station-service,77540,77031,Bernay-Vilbert,,
31765,IDF7706054,"Poincarré, 42 avenue",adresse,"Pétrofrance (Sté), Ex. Sté Pétrolys",,77100,77284,Meaux,,
31770,IDF7706218,RN 7,rue,Station service  TOTAL,Station-service,77630,77022,Barbizon,,
31773,IDF7706223,"Fontaine, rue la",rue,Carrosserie braytoise,Réparation automobile,77480,77051,Bray-sur-Seine,,
31785,IDF7706252,Zone industrielle,lieu-dit,LARGILLIER,Fabrication d'articles et d'équipements,77173,77114,Chevry-Cossigny,,
31786,IDF7706255,"DARU, rue françois",rue,Maurice BALLET,Serrurerie - Charpente métallique,77124,77335,Chauconin-Neufmontiers,,
31788,IDF7707431,"Foch, 52 avenue",adresse,PRADELS (A.),,77450,77315,Montry,,
31806,IDF7707462,"Village, lieu-dit le",lieu-dit,MATHIEU (R.),Polissage des métaux,77260,77448,Sept-Sorts,,
31812,IDF7707099,"Vignes, lieu-dit les",lieu-dit,MECACEL (SARL),,77320,77032,Beton-Bazoches,,
31813,IDF7707101,"Grabchottes, chemin des  ; ex Jehan de Brie, 32 rue",adresse,BEAURAIN (A.),Atelier du verre,77350,77038,Boissettes,,
31817,IDF7707110,RN 19,rue,Compagnie Française de Raffinage,Station-service Total,77170,77127,Coubert,,
31819,IDF7707119,"Pouillot, 85 rue du Docteur",adresse,BARCHOU,Desserte de carburants,77190,77152,Dammarie-les-Lys,,
31826,IDF7706062,"Abreuvoir, 11 rue de l'",adresse,SIMON,Ebénisterie,77173,77114,Chevry-Cossigny,,
31833,IDF7706073,"Mathis, 19 rue, paris 19",adresse,Matériel Médical & sanitaire,fabrication d'appareils médicaux & sanitaires,77500,77108,Chelles,,
31837,IDF7706087,"Villette, 11 rue G",adresse,"GEFFROY & CIE, Ex. LOUIS Père et Fils",Fonderie,,,,,
31843,IDF7707132,"Grande, rue",rue,LAMOTTE (J.),Station-service,77480,77187,Fontaine-Fourches,,
31852,IDF7707150,"Gonière, lieu-dit la",lieu-dit,TRIPIER,Garage - Station-service,77610,77229,La Houssaye-en-Brie,,
31853,IDF7707154,"Grand Morin, proche de la rivière le",lieu-dit,ARJOMARI (Papeteries),Papeterie,77320,77240,Jouy-sur-Morin,,
31862,IDF7707164,RN 375,rue,ESTRADE (V.),Restaurant - Desserte de carburants,77130,77305,Montereau-Fault-Yonne,,
31864,IDF7706267,"Briqueterie, rue de la",rue,DAILLY,Peinture tous métaux,77220,77254,Liverdy-en-Brie,,
31865,IDF7706269,"Crèvecoeur, lieu-dit usine de",lieu-dit,ARJOMARI PRIOUX,Papeterie,77320,77240,Jouy-sur-Morin,,
31884,IDF7707208,"Vingt-sept août, 6 avenue du",adresse,Garage de la Provence,Garage - Station-service,77450,77315,Montry,,
31905,IDF7706144,RN4,rue,ELF Distribution,Station-service ELF,77167,77348,Ormesson,,
31906,IDF7706328,"Foch, 52 avenue",adresse,Pradels Albert,Dépôt d'hydrocarbures,77450,77315,Montry,,
31910,IDF7706159,"Meaux, route de",rue,JOHANNY (Pierre),Station-service,77950,77410,Saint-Germain-Laxis,,
31917,IDF7706175,"Seine, 23 route de",adresse,"COTTIN, Ex. Ets TEYSSEYRE & FILS",Dépôt d'hydrocarbures,77810,77463,Thomery,,
31918,IDF7706307,station de grand puit de la TRAPIL,lieu-dit,TRAPIL,Source radioactive,77720,77211,Grandpuits-Bailly-Carrois,,
31926,IDF7706323,Aeroport de ROISSY en France,lieu-dit,SMCA (Sté de manutention de carburants aviation),Dépôt de liquide inflammable,95700,95527,Roissy-en-France,,
31927,IDF7706337,"bassin n° 6, 21 route ; gennevilliers 92",lieu-dit,Pétrolière d'Importation (Sté ),Dépôt d'hydrocarbures,77400,77372,Pomponne,,
31940,IDF7706804,"poste, place de la",nulle,TRIBOUT,Dépôt d'hydrocarbures,77173,77114,Chevry-Cossigny,,
31942,IDF7706822,CD de Chevry à LAUNOY,rue,FOREX NEPTUNE,Dépôt d'hydrocarbures,77173,77114,Chevry-Cossigny,,
31959,IDF7704009,"Lemoine, 37 rue Camille",adresse,Dépôt d'hydrocarbures,Dépôt d'hydrocarbures,77100,77284,Meaux,,
31964,IDF7704031,"Rebais, route de",rue,"Esso Etablissement Dernier, Ex. Garage Bellot",Esso service - Station-service,77510,77030,Bellot,,
31966,IDF7706192,"Grande, rue",rue,CAOUTEX,Fabrication des sacs et sachets en matière plastique,77580,77521,Villiers-sur-Morin,,
31971,IDF7706198,"Viscinal ordinaire,  chemin",nulle,"IMBERT, GESLIN & Cie",mécanique générale,77390,77138,Courtomer,,
31984,IDF7706866,"Feuchère, ZAC de la",lieu-dit,Points Carburants,Station-service,77290,77123,Compans,,
31985,IDF7706874,GARNOR Site de PARIS SUD,lieu-dit,KUWAIT PETROLEUM France (KPF) (SA),Station-service,77380,77122,Combs-la-Ville,,
32000,IDF7707016,"Granges, lieu-dit les",lieu-dit,JOUBERT et Cie,,77167,77370,Poligny,,
32002,IDF7707027,"Vieilles Vignes, lieu-dit les",lieu-dit,Ateliers graphiques de Chevry (Ets),Atelier graphique,77173,77114,Chevry-Cossigny,,
32003,IDF7707033,"Clémenceau, 45 rue Georges",adresse,LAUVERJON (Garage),Garage,77590,77096,Chartrettes,,
32014,IDF7707059,"Pucelle, rue Gué",rue,BALDON Plastiques (Société),Atelier de moulage d'objets en matière plastique,77130,77482,Varennes-sur-Seine,,
32020,IDF7707069,"Fontaine Sainte Geneviève, lieu-dit la",lieu-dit,Total,Station-service,77170,77127,Coubert,,
32027,IDF7704064,"Meaux, route de",rue,LAMOTTE (Etablissement),Station-service - Garage automobiles,77390,77107,Chaumes-en-Brie,,
32031,IDF7704074,"Gare, rue de la",rue,CHARIOU-Machines Agricoles,,77940,77531,Voulx,,
32034,IDF7704079,"Meaux, route de",rue,CAVAJANI (Ets),Dépôt de ferrailles,77410,77118,Claye-Souilly,,
32036,IDF7704085,"Brulys, Lieu-dit Les",lieu-dit,ROY (Ets),Station-service,77390,77136,Courquetaine,,
32039,IDF7705009,"Grands Champs, lieu-dit les",lieu-dit,PURFINA-Française,,77940,77172,Esmans,,
32040,IDF7705010,"Marais, lieu-dit les",lieu-dit,PURFINA-Française,,77940,77172,Esmans,,
32042,IDF7705012,"Nangis, route de",rue,Ateliers électriques de Malakoff (Société des),Atelier électrique,77520,77159,Donnemarie-Dontilly,,
32047,IDF7705021,RN 51,rue,Veau (Ets),Station-service,77118,77025,Bazoches-lès-Bray,,
32048,IDF7705022,RN 7,rue,ESSO-STANDARD,Station-service,77630,77022,Barbizon,,
32067,IDF7706691,"Varlin, 41 avenue Eugène",adresse,MILLET Jean,garage - Station-service,77500,77108,Chelles,,
32083,IDF7705056,"Pont d' Argent, lieu-dit le",lieu-dit,Létang et Cie,,77160,77403,Saint-Brice,,
32084,IDF7705065,RN 33,rue,Station service,Station-service,77750,77057,Bussières,,
32085,IDF7705072,"RN 7, Station service",rue,Caltex (SAF),Dépôt d'hydrocarbures,77167,77016,Bagneaux-sur-Loing,,
32086,IDF7705073,RN 387,rue,Station service,Station-service,77630,77006,Arbonne-la-Forêt,,
32087,IDF7705074,RN 371,rue,Bonny (Ets),Station-service,77410,77005,Annet-sur-Marne,,
32088,IDF7705076,"Porte des 26, lieu-dit",lieu-dit,Granchard (Ets),Dépôt d'ordures,77780,77048,Bourron-Marlotte,,
32089,IDF7705077,RN 51,rue,Cuvillier (Ets),Station-service,77760,77041,Boissy-aux-Cailles,,
32095,IDF7706002,"RD 403, ex RN 375",rue,GUILLAUME (R.),Desserte de carburants,77890,77027,Beaumont-du-Gâtinais,,
32096,IDF7706009,RN. 19,rue,POYARD (Ets),RELAIS DES ETARDS,77390,77352,Ozouer-le-Voulgis,,
32097,IDF7706012,RD 236 PROVINS (S & M),rue,Briards (Garage),Dépôt d'hydrocarbures,77160,77379,Provins,,
32104,IDF7707314,"Grande, rue",rue,DECOURCELLE J.F.,Agence Renault,77630,77022,Barbizon,,
32106,IDF7707324,"Thiers, 59 rue de",adresse,MELOT et Cie,Mécanique de précision,77380,77122,Combs-la-Ville,,
32111,IDF7707335,"Pont aux Dames, lieu-dit le",lieu-dit,BLANCHET et Cie,Fabrication de ressorts,77860,77128,Couilly-Pont-aux-Dames,,
32117,IDF7707353,"Rignault, rue Marcel",rue,ZIMMERLIN (G.),Cycles et motos,77650,77260,Longueville,,
32131,IDF7707471,"Gare, 74 avenue de la",adresse,CHEVAUGEON (L.),Revendeur en combustibles,77230,77420,Saint-Mard,,
32148,IDF9201229,Zone industrielle voie D parcelle 3-1,lieu-dit,Chicago Pneus,Réparations pneus et vente,92160,92002,Antony,,
32149,IDF9201221,"Croix-de-Berny, 2 avenue de la",adresse,Bius (Etablissements),Atelier mécanique,92160,92002,Antony,,
32150,IDF7707629,"Forte Maison, lieu-dit la",lieu-dit,CLOUET (Entreprise artisanale),Tôlerie - Peinture,77120,77320,Mouroux,,
32157,IDF7707496,"Bas Huet, lieu-dit Le",lieu-dit,BP (Société française des Pétroles),Station-service BP,77240,77495,Vert-Saint-Denis,,
32164,IDF7707510,"Clairet, 42 rue Victor",adresse,"Février (Garage), Ex. Garage MARTINEZ, Ex. Lefevre (Ets), Ex. Weimann et Spingler (Ets)",Garage - Station-service,77910,77483,Varreddes,,
32168,IDF7707520,"Gare, rue de la",rue,MATHIAS,,77390,77493,Verneuil-l'Étang,,
32187,IDF7707535,"Mousseaux, route de",rue,LEGRAND (Garage),Station-service - Garage,77480,77051,Bray-sur-Seine,,
32188,IDF7707538,"hameau de Beaulieu, lieu-dit",lieu-dit,THERY J. Station service,Station-service,77350,77039,Boissise-la-Bertrand,,
32189,IDF7707539,"Moyer, rue du Général",rue,THIBAUT (Horticulture J.C.),Horticulture,77170,77053,Brie-Comte-Robert,,
32190,IDF7707543,"Leclerc, 57 rue du Général",adresse,Grand Garage Moderne,Garage - Station-service,77580,77142,Crécy-la-Chapelle,,
32191,IDF7707552,"Gouas, 3 place",adresse,COTTIN (Garage),Garage,77860,77128,Couilly-Pont-aux-Dames,,
32207,IDF9305405,PARIS (115 rue de),adresse,ARTISTA,FABRICATION DE COULEURS FINES,93230,93063,Romainville,,
32208,IDF9305121,POMPE (rue de la),rue,LALO-MIGNOLAC (SA anciens Ets),MATERIEL DE CHEMINS DE FER,93230,93063,Romainville,,
32209,IDF9305201,SAINT-GERMAIN (13 rue),adresse,ISOMACO,STOCKAGE D'AMIANTE,93230,93063,Romainville,,
32213,IDF7707348,"Grécy, rue de",rue,BLANCHARD (G.),Polissage sur métaux,77166,77175,Évry-Grégy-sur-Yerre,,
32231,IDF7707598,"Paris, 11 rue de",adresse,"IMS ET BP, Ex. ATECMO",Station-service BP - Garage - Chaudronnerie,77390,77222,Guignes,,
32232,IDF7707600,"Neuve, 2 route",adresse,Renault (Garage),Station-service - Garage,77840,77204,Germigny-sous-Coulombs,,
32233,IDF7707607,"Fuan, 18 rue Paul",adresse,PIERROT (Garage),Garage,77230,77241,Juilly,,
32234,IDF9202463,Tourvoie parc de BP 21,nulle,"CEMAGREF (Centre national du machinisme agricole du génie rural des eaux et des forêts), anc. Centre National d'Etudes et d'Expérimentation du Machinisme Agricole",,92160,92002,Antony,,
32261,IDF7707726,"Bois Fleuri, lieu-dit lotissement du",lieu-dit,SHELL,Station-service,77410,77118,Claye-Souilly,,
32273,IDF7707775,"République, place de la",rue,Garage des Tilleuls,Garage,77760,77477,Ury,,
32296,IDF7707816,"Saints, route de",rue,BRANGEA (Entreprise artisanale A.),Fonderie de métaux blancs,77120,77028,Beautheil,,
32297,IDF7707817,"Saint Martin, rue",rue,SAINT-HILAIRE S. (Etablissement),Station-service - Garage automobiles,77620,77168,Égreville,,
32298,IDF7707824,"Eglise, place de l'",lieu-dit,HEIDERICH (K.),Café - Tabac - Desserte de carburants,77940,77184,Flagy,,
32514,IDF7707788,"Griottes, 40 rue des",adresse,ROUX (Etablissement G.),Revendeur en combustibles,,,,,
32516,IDF7707795,"Grave, 95 avenue Auguste",adresse,LUCHIER (Noël),Garage,77130,77482,Varennes-sur-Seine,,
32530,IDF9501488,RN 309,rue,"Total raffinage distribution SA, Sté",Station service,95100,95018,Argenteuil,,
32535,IDF9500663,?,nulle,Mallet M.,Usine à Gaz,95280,95323,Jouy-le-Moutier,,
32538,IDF9500696,?,nulle,Gras M.,Fabrique d'agglomérés de houille,95300,95500,Pontoise,,
32543,IDF9500756,?,nulle,Legrand Fils,Fabrique de bicyclette,95270,95026,Asnières-sur-Oise,,
32544,IDF9500758,?,nulle,Huller Maison,Fabrication de métronôme,95820,95116,Bruyères-sur-Oise,,
32545,IDF9500759,?,nulle,Fabrique de filtre en porcelaine et en amiante,Fabrique de filtres en porcelaine et en amiante,95290,95313,L'Isle-Adam,,
32546,IDF9500760,?,nulle,Gabichel M.,Fonderie,95630,95392,Mériel,,
32547,IDF9500761,?,nulle,Fabrique de chapeau de feutre,Fabrique de chapeau de feutre,95540,95394,Méry-sur-Oise,,
32548,IDF9500762,?,nulle,Bail et Pozzi MM.,Forges de Persan,95340,95487,Persan,,
32549,IDF9500763,?,nulle,Letterant M.,Fonderie,95340,95487,Persan,,
32550,IDF9500764,?,nulle,Anglaise Société,Fabrique de cables,95340,95487,Persan,,
32551,IDF9500765,?,nulle,Lefebvre Jules,Teinturerie,95340,95487,Persan,,
32552,IDF9500766,?,nulle,Belvalotte M.,Atelier de carrosserie,95340,95487,Persan,,
32553,IDF9500767,?,nulle,Leyge Fils,Atelier de Mécanique,95340,95487,Persan,,
32554,IDF9500769,?,nulle,Atelier de mécanique,Atelier de mécanique,95300,95500,Pontoise,,
32555,IDF9500770,?,nulle,Fabrique de pianos,Fabrique de pianos,95300,95500,Pontoise,,
32583,IDF7800700,?,nulle,PERREUX,,78930,78291,Guerville,,
32588,IDF7800706,rue ?,nulle,FER HARRY,,78440,78296,Guitrancourt,,
32589,IDF7800708,route de Mantes (RN 190),rue,SOC ?,,78440,78296,Guitrancourt,,
32593,IDF7800723,?,nulle,SOC ?,,78250,78299,Hardricourt,,
32599,IDF9500854,"Guichard, 49 avenue Roger",adresse,Chargros radiateurs (SIRC),Equipementiers,95610,95218,Éragny,,
32609,IDF9501229,"AMSTERDAM, 13 Rue d'",adresse,SNCF POSTE ENTRETIEN,,95100,95018,Argenteuil,,
32629,IDF9501308,"Rue, 56 grande",adresse,Bodin,,95240,95176,Cormeilles-en-Parisis,,
32630,IDF9500976,"Saint Appoline, ZAC",lieu-dit,Paris Parc SA,Station-service,95000,95127,Cergy,,
32631,IDF9500979,"Moulin à Vent, Parc d'activités du",lieu-dit,Pressing Bontemps,Blanchisserie,95000,95127,Cergy,,
32638,IDF9500991,"Rigoles, sente des",lieu-dit,Bernal Mr.,Garage automobile,95000,95127,Cergy,,
32639,IDF9500965,?,nulle,Brodschi Jean,Transformation de produits plastiques,95820,95116,Bruyères-sur-Oise,,
32640,IDF9501324,"Conflans, Route de",rue,"Union commerciale, Sté",Station service,95220,95306,Herblay,,
32641,IDF9501332,"Moulin à Vent, ZAC du",lieu-dit,"Pressing Bontemps, Sarl",Pressing,95220,95306,Herblay,,
32646,IDF9501343,"Conflans, Route de",rue,"CEPRIM, Sté",Station service,95220,95306,Herblay,,
32650,IDF9501002,parcelle AB444/AB439,cadastre,Fabrique de cyanures alcalins,Usine de fabrication de cyanures alcalins,95380,95351,Louvres,,
32651,IDF9501006,"Cormeilles, 6 rue de",rue,"Houtin georges, Monsieur",Garage,95100,95018,Argenteuil,,
32652,IDF9501013,"Herblay, 1 rue d'",rue,"Entrepot du Val d'Oise, Sté Fermière d' (SO-FE-VAL)",Dépôt de boisson,95100,95018,Argenteuil,,
32655,IDF7801215,?,nulle,AU PETIT BOUGNAT (SOCIETE),,78310,78383,Maurepas,,
32656,IDF7801216,?,nulle,MECANIQUES ET ELECTRIQUES (S.A. FRANCAISE DE CONTRÔLE ET DE REALISATIONS),,78310,78383,Maurepas,,
32660,IDF7801222,vicinale 4 (route),nulle,PETROLIERE DE TECHNIQUE ET D'INVESTISSEMENT (S.A.),,78670,78384,Médan,,
32668,IDF7800830,CD 147,rue,TRAPIL (SOCIETE DES TRANSPORTS PETROLIERS PAR PIPELINE),,78440,78314,Issou,,
32669,IDF7800831,Limay (route de) (RD 147),rue,SOC ?,,78440,78314,Issou,,
32674,IDF7801252,CD 58 ( de Chevreuse au Mesnil-Saint-Saint-Denis),rue,"AXO, anc. E.R.C.E.L. (S.A.)",,78320,78397,Le Mesnil-Saint-Denis,,
32678,IDF7800842,RN 12,rue,RAFFINERIES DE PETROLE DE LA GIRONDE (S.A.),,78760,78321,Jouars-Pontchartrain,,
32680,IDF7800846,?,nulle,CEA (COMMISSARIAT A L'ENERGIE ATOMIQUE) - LABORATOIRE DE RADIOLOGIE APPLIQUEE (LRA) + CENTRE DE RECHERCHE DE L'INSTITUT NATIONAL DE RECHERCHE AGRONOMIQUE (INRA),,78350,78322,Jouy-en-Josas,,
32681,IDF7800847,?,nulle,SOC ?,,78350,78322,Jouy-en-Josas,,
32682,IDF7801283,?,nulle,FRAZZI (SOCIETE J.),,78840,78410,Moisson,,
32687,IDF7801278,CR 55,rue,"TURBOMECA (S.A.), anc. CREOSOTAGE UNIVERSEL (S.A. DU)",,78970,78402,Mézières-sur-Seine,,
32700,IDF7800848,?,nulle,SOC ?,,78350,78322,Jouy-en-Josas,,
32706,IDF7800746,Orval (chemin d'),rue,SEGUREL (SOCIETE DES ETABLISSEMENTS DENIS),,78550,78310,Houdan,,
32760,IDF7800936,?,nulle,SOC ?,,78270,78337,Limetz-Villez,,
32761,IDF7801107,avenue de Magnanville,rue,BRUANDET FILS ET CIE,,78711,78362,Mantes-la-Ville,,
32762,IDF7801110,rue ?,nulle,LUMIERE  (SOCIETE LA),,78711,78362,Mantes-la-Ville,,
32764,IDF7801113,chemin de halage,rue,SOC ?,,78711,78362,Mantes-la-Ville,,
32765,IDF7801119,boulevard de Magnanville,rue,MATERIEL DE TRANSPORT (COMPAGNIE INDUSTRIELLE DE ),,78711,78362,Mantes-la-Ville,,
32777,IDF7801141,?,nulle,INDUSTRIE (S.A. FINANCIERE POUR L'),,78124,78368,Mareil-sur-Mauldre,,
32783,IDF7800828,?,nulle,UGD (S.A. UNION GENERALE DE DISTRIBUTION DES PRODUITS PETROLIERS),,78440,78314,Issou,,
32793,IDF7802460,CV de Vicq à Sault-le-Marchais,lieu-dit,MONTHEUIL (SOCIETE),,78490,78653,Vicq,,
32794,IDF7802462,?,nulle,USINES DE SULFATE DE CUIVRE (SOCIETE DES),,78270,78668,La Villeneuve-en-Chevrie,,
32797,IDF7801961,Rambouillet (255 à 257 route de),rue,ALIMENT DE SERY ET FINANCIERE ET INDUSTRIE (S.A.R.L),,78125,78557,Saint-Hilarion,,
32809,IDF7802474,Boinvilliers (chemin de),rue,SIMETRA-FLENDER (S.A.R.L.),,78930,78677,Villette,,
32815,IDF7802485,Le Pontel,lieu-dit,SOC ?,,78640,78683,Villiers-Saint-Frédéric,,
32819,IDF7801600,CD 11,rue,ESSO (S.A.),,78370,78490,Plaisir,,
32833,IDF7801984,CR 11,rue,SAINT-REMY-LES-CHEVREUSE (COMMUNE DE),,78470,78575,Saint-Rémy-lès-Chevreuse,,
32835,IDF7802000,rue ?,nulle,GAMO PRESS (S.A.R.L.),,78500,78586,Sartrouville,,
32846,IDF7801643,rue ?,nulle,ILE LABORDE,,78600,78358,Maisons-Laffitte,,
32847,IDF7801645,"Jeanneret (33-35, rue Charles Edouard)",adresse,FLOQUET MONOPOLE (SOCIETE) - PERFECT CIRCLE EUROPE TECHNOPARC,,78300,78498,Poissy,,
32849,IDF7802525,rue ?,nulle,SOCIETE R. K. CHIMIE,,78500,78586,Sartrouville,,
32860,IDF7802530,?,nulle,MATEXON (SOCIETE),,78130,78440,Les Mureaux,,
32861,IDF7802534,RN 10,adresse,SHELL (S.A. DES PETROLES),,78990,78208,Élancourt,,
32862,IDF7802553,?,nulle,Ancienne usine à gaz de Meulan; FUSION DES GAZ (SOCIETE),,78250,78401,Meulan-en-Yvelines,,
32863,IDF7802554,rue ?,nulle,SOC ?,,78110,78650,Le Vésinet,,
32864,IDF7802563,rue ?,nulle,SOVIREL (Verrerie),,78110,78650,Le Vésinet,,
32867,IDF7802079,?,nulle,SOC ?,,78790,78591,Septeuil,,
32871,IDF7802082,Mantes (route de),rue,SOC ?,,78790,78591,Septeuil,,
32879,IDF7802090,Rue (Grande) (RN 10),rue,PETROLES DES YVELINES (SOCIETE DES),,78120,78601,Sonchamp,,
32881,IDF7802096,Route de Meulan (RD 28),rue,SOC ?,,78250,78609,Tessancourt-sur-Aubette,,
32886,IDF7801690,?,nulle,CONVOYEURS - MONTAGE ET MANUTENTION (SOCIETE INDUSTRIELLE DES),,78300,78498,Poissy,,
32887,IDF7801693,"Jeanneret (19 bis, rue Charles Edouard)",adresse,POISSY (COMMUNE DE) (DIRECTION GENERALE DES SERVICES TECHNIQUES,,78300,78498,Poissy,,
32890,IDF7802576,Parc (ZI du petit),lieu-dit,ECOPUR (SOCIETE),,78920,78206,Ecquevilly,,
32891,IDF7802577,rue?,nulle,FER HARRY (SOCIETE ),,78440,78296,Guitrancourt,,
32892,IDF7802565,Ménainville (chemin de),rue,ALDIMARCHE (SOCIETE),,78660,78003,Ablis,,
32901,IDF7802118,RD 23 (de Trappes à Elancourt) (ou CGC),rue,SOFTRANET (STE),,78190,78621,Trappes,,
32902,IDF7801341,?,nulle,YPREMA,,78180,78423,Montigny-le-Bretonneux,,
32903,IDF7801336,?,nulle,SOC ?,,78490,78420,Montfort-l'Amaury,,
32904,IDF7801350,RN 10,rue,TOUT POUR LA ROUTE (SOCIETE),,78180,78423,Montigny-le-Bretonneux,,
32915,IDF7802199,?,nulle,CHEVERCHEMONT-TRIEL (SCI),,78510,78624,Triel-sur-Seine,,
32932,IDF7801393,CD 43,rue,GARAGE DE LA POSTE (S.A.R.L. ),,78130,78440,Les Mureaux,,
32934,IDF7801418,"Nieuport (8, rue)",adresse,SOC ?,,78130,78440,Les Mureaux,,
32942,IDF7801726,?,nulle,IMP,,78440,78501,Porcheville,,
32944,IDF7801729,?,nulle,RAZEL FRERES (SOCIETE ENTREPRISE ),,78440,78501,Porcheville,,
32945,IDF7801730,?,nulle,ZUBLIN - PERRIERE (SOCIETE ENTREPRISE),,78440,78501,Porcheville,,
32946,IDF7801734,"Mantes (144, route de) (CD 147)",adresse,SOC ?,,78440,78501,Porcheville,,
32958,IDF7801449,RD 307,rue,SOCIETE SECMA,,78590,78455,Noisy-le-Roi,,
32959,IDF7801456,rue ?,nulle,SOC ?,,78590,78455,Noisy-le-Roi,,
32962,IDF7801461,?,nulle,"PETROLIERE D'IMPORTATION (SOCIETE ), anc.  PETROLIERE DE TECHNIQUE ET D'INVESTISSEMENT (S.A.)",,78250,78460,Oinville-sur-Montcient,,
32965,IDF7801464,?,nulle,SOC ?,,78250,78460,Oinville-sur-Montcient,,
32971,IDF7801470,CD 45,rue,PERINET AUTOS (SOCIETE),,78630,78466,Orgeval,,
32974,IDF7801479,RN 13,rue,UNIROYAL (S.A.) - ENGLEBERT FRANCE,,78630,78466,Orgeval,,
32975,IDF7801480,RN 13,rue,DESCLOUDS (SOCIETE TRANSPORTS),,78630,78466,Orgeval,,
32978,IDF7801760,RN 10,rue,TOTAL RAFFINAGE DISTRIBUTION (S.A.),Relais de Prunay,78660,78506,Prunay-en-Yvelines,,
32981,IDF7801758,route vers Ablis et Auneau,lieu-dit,SOC ?,,78660,78506,Prunay-en-Yvelines,,
32999,IDF7801510,?,nulle,PYROTECHNIE DU PECQ (SOCIETE),,78230,78481,Le Pecq,,
33000,IDF7801512,?,nulle,R. SOC ?,,78230,78481,Le Pecq,,
33001,IDF7801518,"Carnot (27, rue)",adresse,GALLOIS (SOCIETE DES ETABLISSEMENTS L.),,78230,78481,Le Pecq,,
33002,IDF7801519,"Champs (8, quai des)",adresse,R. SOC ?,,78230,78481,Le Pecq,,
33005,IDF7801828,chemin des Marceaux,rue,Roux et Bernard,Terres de Rosny,78710,78531,Rosny-sur-Seine,,
33006,IDF7801832,Vollier (route de),rue,DAN AUTO RECUP,,78710,78531,Rosny-sur-Seine,,
33007,IDF7801837,RN 13 (17 bis),rue,D.A.N AUTO,,78710,78531,Rosny-sur-Seine,,
33008,IDF7801839,RN 13 (51),rue,"GARAGE DES ALIZEES, RENAULT",,78710,78531,Rosny-sur-Seine,,
33009,IDF7801843,?,nulle,SOC ?,,78730,78537,Saint-Arnoult-en-Yvelines,,
33010,IDF7802277,"Chamoiserie (1,2,3 rue de la)",adresse,CGEA (SOCIETE),,78920,78206,Ecquevilly,,
33011,IDF7802279,RD 191,adresse,ASCA (SOCIETE),,78680,78217,Épône,,
33021,IDF7801541,Pecq  (CVO 4 du) à Carrières-sous-Bois,lieu-dit,R. SOC ?,,78230,78481,Le Pecq,,
33026,IDF7801856,rue ?,nulle,COMPAGNIE GENERALE DE CHAFFE,,78210,78545,Saint-Cyr-l'École,,
33034,IDF7802304,CGC 2,nulle,GRAUX (S.A.R.L.),,78540,78643,Vernouillet,,
33040,IDF7802383,"Marais (6, rue des)",adresse,SOC ?,,78000,78646,Versailles,,
33048,IDF7801547,"Versailles (8, route de)",adresse,MAJESTIC AUTOMOBILE (SOCIETE),,78230,78481,Le Pecq,,
33049,IDF7801555,?,nulle,PEHAU (SOCIETE),,78200,78484,Perdreauville,,
33050,IDF7801573,RN 10,rue,SOC ?,,78610,78486,Le Perray-en-Yvelines,,
33054,IDF7802617,"Jeanneret (37, rue Edouard)",adresse,EGEA,,78300,78498,Poissy,,
33055,IDF7802623,"JEANNERET (1, rue C.H)",adresse,ARIES INDUSTRIE,,78300,78498,Poissy,,
33056,IDF7802626,"A 13, autoroute de Normandie",nulle,STATION SERVICE ELF-ANTAR,STATION SERVICE ELF-ANTAR,78710,78531,Rosny-sur-Seine,,
33057,IDF7802627,RN 10- L'Abbé,lieu-dit,CDP AUTO,,78120,78601,Sonchamp,,
33058,IDF7802642,"Grignon (427, rue de)",adresse,IMPRIMERIE DE CHANENAY,,78450,78152,Chavenay,,
33059,IDF7802643,"Mézu (114, rue de)",adresse,GARAGE GODISSART,,78450,78152,Chavenay,,
33060,IDF7802644,"Grignon (434, route de)",adresse,SICRE- LEMAIRE,,78450,78152,Chavenay,,
33061,IDF7802645,Brossette (rue de la),rue,SOC ?,,78111,78192,Dammartin-en-Serve,,
33062,IDF7802649,Boissy (route de),rue,CASSECO 78,,78490,78262,Galluis,,
33073,IDF7802651,Boinvilliers (toute de),rue,SOC ?,,78790,78417,Montchauvet,,
33074,IDF7802666,RN 10,rue,ADEL EMBALLAGES (SOCIETE),,78320,78644,La Verrière,,
33075,IDF7802667,RN 10,rue,SOC ?,,78320,78644,La Verrière,,
33076,IDF7802671,RN 10,rue,COLOR CAR,PEINTURE AUTO CONSEIL,78320,78644,La Verrière,,
33087,IDF7802704,Petit Orme (2 rue du),adresse,HUREL ARC,,78660,78478,Paray-Douaville,,
33088,IDF7802709,"Beaux Champs (5, rue des)",adresse,STOGAZ (société pour le stockage et la manutention des gaz liquéfiés),,78700,78172,Conflans-Sainte-Honorine,,
33089,IDF7802710,"CR 21 dit ""des Beurrons""",lieu-dit,SOC ?,,78680,78217,Épône,,
33090,IDF7802711,"Versailles (14, rue de)",adresse,"STATION SERVICE, GARAGE LAUREN",,78980,78346,Longnes,,
33091,IDF7802715,"Rambouillet (280, route de)",adresse,ASTON (S.A.R.L),,78125,78557,Saint-Hilarion,,
33102,IDF9502068,"Sannois, 6 esplanade de la gare",adresse,CTL FRANCE,?,95110,95582,Sannois,,
33108,IDF9502115,?,nulle,3R ENVIRONNEMENT,?,95680,95426,Montlignon,,
33112,IDF9501872,"Sembat, 19 rue Marcel",adresse,Meharon,,95500,95088,Bonneuil-en-France,,
33113,IDF9501878,"Broglie, 11 av de",adresse,Transmec europe international,Entrepôt,95500,95088,Bonneuil-en-France,,
33116,IDF9501890,Autoroute A1 Rive Ouest,nulle,"Total, Cie Française de raffinage",Station service -  Relais du Parisis,95500,95612,Le Thillay,,
33117,IDF9501894,"Rouge Fosse, ZAC de la",lieu-dit,"Van Hool France, Sté",Garage,95470,95641,Vémars,,
33119,IDF9501898,"Briqueterie, Chemin de la",rue,"Press'ing, SARL (Castellano, M.)",Pressing,95470,95641,Vémars,,
33120,IDF9501900,Chemin départemental 184,rue,"Diruy, M.",,95380,95351,Louvres,,
33132,IDF9501935,"Etoile, Rue de la Belle",rue,"DHL, ex Sphinx, SARL",Entrepôt,95700,95527,Roissy-en-France,,
33133,IDF9501936,"Etoile, Rue de la Belle",rue,"Salamandre, SA",,95700,95527,Roissy-en-France,,
33149,IDF9501943,"Cheneau Roissy en France, Zone Industrielle du",lieu-dit,"Cosson, ex Routière de l'Est Parisien, La Sté (R.E.P.)",,95700,95527,Roissy-en-France,,
33150,IDF9501944,"Etoile, 167 rue de la belle",adresse,"SEE VIA MEDIA, ex Integra France, Sté",Plateforme de télécommunication informatisée,95700,95527,Roissy-en-France,,
33151,IDF9501953,"Roissy Charles de Gaulle, Zone aéroportuaire",lieu-dit,"National Citer, Garage",Garage,95700,95527,Roissy-en-France,,
33160,IDF9501959,"Chardonnerets, Av des",rue,"Parinord Logistic Distribution, Sté",,95700,95527,Roissy-en-France,,
33169,IDF9502049,"Chaise au Renard, La",lieu-dit,"FAYOLLE J. & FILS, Société Entreprise",Traitement des ordures ménagères (usine de),95550,95060,Bessancourt,,
33172,IDF9501844,?,nulle,"Exploitation et de Constructions Aéronautiques, Sté (S.E.C.A.)","SECA, Sté",95500,95088,Bonneuil-en-France,,
33173,IDF9501855,"Aéroport du Bouget, Bâtiment 126",lieu-dit,"Peinture Aéronautique, Sté la",Hangar pour formation aéronautique,95500,95088,Bonneuil-en-France,,
33175,IDF9501857,"Aéroport du Bourge, Bâtiment 106 - Atelier 9",lieu-dit,"Aircraft Interior Products, Sté","Aménagement, Décoration intérieur d'Avion et Hélicoptères",95500,95088,Bonneuil-en-France,,
33176,IDF9501860,"Aéroport du Bourget, Zone aviation d'affaire",lieu-dit,Helipart Kersène SA,,95500,95088,Bonneuil-en-France,,
33178,IDF9502265,RN 14,rue,ELYO COFRETH,Chaufferie,95370,95424,Montigny-lès-Cormeilles,,
33181,IDF9502183,RD 14,rue,"TECI ET CIE, S.N.C.",Entrepôt,95480,95488,Pierrelaye,,
33185,IDF9502312,"Pontoise, 138 rue de",adresse,CREUZY-VERON M.,?,95120,95219,Ermont,,
33190,IDF9502168,RD 14,rue,"ESSO STANDARD, Société",Station service,95480,95488,Pierrelaye,,
33191,IDF9502169,RD 14,rue,"FINA FRANCE, Société ; ex PUR FINA FRANCAISE, Société",Station service,95480,95488,Pierrelaye,,
33192,IDF9502324,8ème Boulevard,nulle,"ESSO FRANCAISE, Société",Station service et garage,95130,95252,Franconville,,
33194,IDF9502325,Quartier n°6,nulle,"MOULE PLASTIQUE, Société",?,95130,95252,Franconville,,
33195,IDF9502336,"Moulin, Centre Commercial",lieu-dit,BERNIER Jean-Pierre,Pressing,95130,95252,Franconville,,
33196,IDF9502346,"Carreaux, Chaufferie n°3 dite des",lieu-dit,"GENERALE DE CHAUFFAGE, Compagnie",Chaufferie,95130,95252,Franconville,,
33200,IDF9502128,"Cléry, 7 rue de",adresse,"HOLIMCO, Société",?,95740,95256,Frépillon,,
33205,IDF9502811,?,nulle,L.T. PIVER,?,95670,95371,Marly-la-Ville,,
33208,IDF9502827,Grande Rue,rue,CALTOT Maurice,Station service et garage,95720,95682,Villiers-le-Sec,,
33209,IDF9502828,R.D. 9,rue,"MOBIL OIL FRANCAISE, Société",Station service,95570,95028,Attainville,,
33210,IDF9502829,R.N. 1,rue,LORENZON Guy,Garage automobile,95570,95028,Attainville,,
33211,IDF9502833,"Sablons, Les",lieu-dit,"FAYOLLE J. & FILS, S.A. Entreprise",Décharge,95570,95028,Attainville,,
33212,IDF9502835,"Prachay, 144 rue Alexandre",adresse,"LEMAITRE-GAUDRIOT, Société",?,95590,95504,Presles,,
33213,IDF9502839,"Prachay, 45 rue Alexandre",adresse,"FOURCROY, Société Garage",Garage automobile,95590,95504,Presles,,
33214,IDF9502841,"Brossolette, 100 rue Pierre",adresse,CORNU Michel,Station service,95590,95504,Presles,,
33215,IDF9502842,"Casanova, 4 rue Danielle",adresse,SOARES J.,"Combustibles, commerce de",95590,95504,Presles,,
33216,IDF9502849,"Fourcade, 20 avenue F.",adresse,"BOISSONNADE, Société d'Exploitation des Etablissements  (ex FOURCADE F.)","Combustibles, commerce de",95560,95430,Montsoult,,
33217,IDF9502498,?,nulle,"TRANSPORTS AUTOMOBILES, Société de",?,95500,95277,Gonesse,,
33222,IDF9502536,"Livry, Chemin de",rue,"MANUTENTION DE CARBURANTS AVIATION, Société de",?,95380,95154,Chennevières-lès-Louvres,,
33223,IDF9502537,"Medard, Chemin St",rue,"TRAPIL, Société",?,95380,95154,Chennevières-lès-Louvres,,
33224,IDF9502485,"Langevin, 6 avenue Paul",adresse,"AKEBONO EUROPE, S.A.R.L.",Laboratoire de recherche,95500,95277,Gonesse,,
33225,IDF9502542,?,nulle,RIEUTORT,?,95400,95019,Arnouville,,
33229,IDF9502852,"Bord'Haut, Z.I. du",lieu-dit,PICARD AUGA (Ex TURNER),,95450,95658,Vigny,,
33235,IDF9502877,"4 Vents, 21 zone des",lieu-dit,"SILIX, Société","Cables électriques, usine de fabrication de",95650,95078,Boissy-l'Aillerie,,
33236,IDF9502894,"Antoine, Z.A.E. Chapelle Saint",lieu-dit,"H.P.S., Société","Vérins, usine de fabrication de",95300,95211,Ennery,,
33242,IDF9502580,"Ladre, 10 rue de la Ferme Saint",adresse,"FORMES NOUVELLES, Société",?,95470,95604,Survilliers,,
33244,IDF9502899,"Bas Fonds de Ronquerolles, Les",adresse,"OISE COMBUSTIBLES, Société   60 PRECY SUR OISE - 28 rue des Briqueteries",COMBUSTIBLES,95340,95529,Ronquerolles,,
33245,IDF9502923,?,nulle,"TRIDIEL, Ets.",?,95640,95370,Marines,,
33246,IDF9502925,?,nulle,S.I.R.O.M. (Syndicat Intercommunal de Ramassage des Ordures Ménagères),Déchetterie,95640,95370,Marines,,
33247,IDF9502926,?,nulle,SUCRERIE D'US ET DE MAGNY-EN-VEXIN,Sucrerie,95450,95625,Us,,
33248,IDF9502927,"Asseville, Clos",lieu-dit,"HUCK FRANCE, S.A.",?,95450,95625,Us,,
33255,IDF9502612,"Stalingrad, 38 avenue de",adresse,RUAT Pierre,"Combustibles, commerce de",95190,95280,Goussainville,,
33258,IDF9502648,?,lieu-dit,"RAMASSAGE DES ORDURES MENAGERES, Syndicat Intercommunal",Déchetterie,95420,95355,Magny-en-Vexin,,
33265,IDF9502661,C.D. 174,rue,"LEDAN ET CIE, Ets","Combustibles, commerce de",95420,95355,Magny-en-Vexin,,
33271,IDF9503046,?,nulle,Direction Télécommunication de l'Ile de france,Télécommunication,95290,95313,L'Isle-Adam,,
33272,IDF9502623,"Gare, Place de la",lieu-dit,"INTERFUEL, Société",?,95190,95280,Goussainville,,
33277,IDF9502676,"Chapelle, 8 rue de la",adresse,"TRAITEMENT DES EAUX, Société Nationale",?,95350,95539,Saint-Brice-sous-Forêt,,
33284,IDF9503074,?,nulle,Direction Télécommunication de l'Ile de france,Télécommunication,95540,95394,Méry-sur-Oise,,
33287,IDF9503081,Chantier de construction de l' A16,nulle,Deschiron Société,Construction de l' A16,95260,95436,Mours,,
33295,IDF9502731,R.N. 909,rue,"BASTIAN, Etablissements S.A.",?,95330,95199,Domont,,
33296,IDF9502732,"Vaux de Poncelles, Le Rû de",nulle,"PLAINE DE DOMONT, S.C.I. de la",?,95330,95199,Domont,,
33299,IDF9502357,"Moulin, 15 rue du",adresse,CORRE,Peintures et vernis (usine de fabrication de),95880,95210,Enghien-les-Bains,,
33300,IDF9502360,"Pontoise, 40 rue de",adresse,"SOLVOL, Produits",Station service et fabrication de lubrifiants,95120,95219,Ermont,,
33301,IDF9502361,?,nulle,"ESSENCES DE PETROLE, S.A. Française de Fabrication des",Raffinage de 1ère distillation et cracking (site de),95370,95424,Montigny-lès-Cormeilles,,
33322,IDF9502761,"Luzarches, chemin de",rue,"LENOIR FRERES, Société","Combustibles, commerce de",95460,95229,Ézanville,,
33323,IDF9502797,"Moanda, 22 rue",adresse,"CHAMPION, Société Supermarché",Supermarché,95810,95213,Épiais-Rhus,,
33324,IDF9502800,"Moimont, Z.I.",lieu-dit,"MORY, S.A.",?,95670,95371,Marly-la-Ville,,
33330,IDF9502465,Tulipe Sud,lieu-dit,"ACTILOGIS, SNC Gonesse","Logistique, usine",95500,95277,Gonesse,,
33331,IDF9504251,?,nulle,"ILE DE FRANCE COMBUSTIBLES, Société",?,95160,95428,Montmorency,,
33332,IDF9504252,?,nulle,"LITERIE DE SEINE ET OISE, Société La",?,95160,95428,Montmorency,,
33333,IDF9504253,?,nulle,"APPAREILS CENTRIFUGES, Société Technique des",?,95160,95428,Montmorency,,
33334,IDF9504254,?,nulle,"USINES ET INSTALLATIONS MECANIQUES, Société Matériel d'",?,95160,95428,Montmorency,,
33335,IDF9504255,?,nulle,"CHAUDRONNERIE ET ATELIER DE CONSTRUCTION D'ERMONT, Société",Chaudronnerie,95560,95430,Montsoult,,
33336,IDF9504256,?,nulle,"PETROLES, Compagnie Industrielle de ; ex BARATTE André",?,95560,95430,Montsoult,,
33337,IDF9504257,?,nulle,"SERVICES SPECIALISES DU BATIMENT, Société Managers Associés pour",?,95480,95488,Pierrelaye,,
33338,IDF9504258,?,nulle,"FRANCAISE DE RAFFINAGE, Compagnie",?,95200,95585,Sarcelles,,
33339,IDF9504259,?,nulle,"GENERALE DE BLANCHISSERIE, Compagnie",?,95200,95585,Sarcelles,,
33340,IDF9504260,?,nulle,"ESSO-STANDARD, Société",Station service,95270,95352,Luzarches,,
33341,IDF9504261,?,nulle,"CHIMIQUES DE MONTSOULT, Société",Station service,95560,95430,Montsoult,,
33342,IDF9504262,?,nulle,"BRICE, Société Garage de Saint-",Garage automobile,95350,95539,Saint-Brice-sous-Forêt,,
33343,IDF9504263,?,nulle,"UTILISATION DES DECHARGES CONTROLEES DANS LA REGION DE MONTMORENCY, Syndicat International pour l'",?,95350,95539,Saint-Brice-sous-Forêt,,
33344,IDF9504264,?,nulle,"CONSTRUCTIONS DE GOUSSAINVILLE, Société Ateliers de",?,95190,95280,Goussainville,,
33345,IDF9504250,?,nulle,"ATELIERS DE CONSTRUCTIONS ET FORGES DE MONTMORENCY, Société des",?,95160,95428,Montmorency,,
33346,IDF9504265,?,nulle,"MAZOUT 95 - CONSTRUCTIONS ET COMBUSTIBLES DU VAL D'OISE, Société",?,95190,95280,Goussainville,,
33347,IDF9504266,?,nulle,"MOBIL OIL FRANCAISE, Société",Station service,95190,95280,Goussainville,,
33348,IDF9504267,?,nulle,"PROTECTION DES METAUX, Société Française de",?,95500,95612,Le Thillay,,
33349,IDF9504268,?,nulle,"LAURIER-PLASTIC, Société",?,95500,95612,Le Thillay,,
33350,IDF9504269,?,nulle,"ECLAIRAGE ET DE CHAUFFAGE, Société Quentinoise d'",?,95270,95652,Viarmes,,
33351,IDF9504271,?,nulle,"ECLAIRAGE ET CHAUFFAGE, Société Quintinoise d'",?,95470,95604,Survilliers,,
33352,IDF9504273,?,nulle,"PLASTIDISC, Société",?,95170,95197,Deuil-la-Barre,,
33353,IDF9504274,?,nulle,"CHAUDRONNERIE ET ATELIERS DE CONSTRUCTION D'ERMONT, Société",Chaudronnerie,95120,95219,Ermont,,
33354,IDF9504275,?,nulle,"CHAUDRONNERIE ET ATELIERS DE CONSTRUCTION D'ERMONT, Société",Chaudronnerie,95600,95203,Eaubonne,,
33357,IDF9504270,?,nulle,"TUBES DE L'ILE DE FRANCE, Société",?,95230,95598,Soisy-sous-Montmorency,,
33358,IDF9504241,?,nulle,"FRANCAISE DE RAFFINAGE, Société Compagnie",?,95500,95088,Bonneuil-en-France,,
33359,IDF9504240,?,nulle,"CHIMIE DE FONDERIE ET AFFINAGE, Société Etudes de",?,95250,95051,Beauchamp,,
33360,IDF9504242,?,nulle,"CARBURANTS FRANCAIS, Société Nationale des",?,95270,95149,Chaumontel,,
33362,IDF9504245,?,nulle,"MECA-PLASTIC, Société",?,95440,95205,Écouen,,
33363,IDF9504246,?,nulle,"STOCK-MESER ET FILS, Société Machines",?,95130,95252,Franconville,,
33364,IDF9504247,?,nulle,"COMMERCE ET L'INDUSTRIE DU CAOUTCHOUC, Société Française pour le",?,95500,95277,Gonesse,,
33365,IDF9504248,?,nulle,"ALCOOLS PURS, Société des",?,95360,95427,Montmagny,,
33366,IDF9504249,?,nulle,"TRAITEMENT INDUSTRIEL DES RESIDUS URBAINS, Société",?,95360,95427,Montmagny,,
33370,IDF9503376,"Bourgogne, 29 rue Marcel",adresse,"MORNET et Cie, Sté",,95200,95585,Sarcelles,,
33371,IDF9503378,"Morillons, 25 rue des",adresse,"Edisom, Sté",,95200,95585,Sarcelles,,
33372,IDF9503379,"Morillons, 23 rue des",adresse,"Lecoeur Magasin, Sté",,95200,95585,Sarcelles,,
33373,IDF9503380,"Morillons, Av des",rue,P.M.R. Sarl,,95200,95585,Sarcelles,,
33376,IDF9503382,"Muette, 29-31 Bd de la",adresse,"Trailigaz, Sté",,95200,95585,Sarcelles,,
33379,IDF9503501,?,nulle,DELPONT Jean,?,95450,95169,Commeny,,
33380,IDF9503381,"Morillons, Av des",rue,"Transvendeems, Sté Transports",,95200,95585,Sarcelles,,
33387,IDF9503276,?,nulle,"Dior, Société des Usines",Fabrication d'engrais,95340,95487,Persan,,
33388,IDF9503278,?,nulle,Malherbe Gustin et Cie,Fonderie,95340,95487,Persan,,
33389,IDF9503279,?,nulle,Papeterie de Frace,Papeterie,95340,95487,Persan,,
33396,IDF9503304,"Pourri, Lieudit : Le Champ",lieu-dit,"Mobil oil Française, S.A.",Station service,95520,95476,Osny,,
33397,IDF9503317,"Escouvrier, 29-31 rue de l'",adresse,"France Télécom SA, Sté",,95520,95476,Osny,,
33398,IDF9503447,"Domont, Route de",rue,Office public d'HLM,,95360,95427,Montmagny,,
33399,IDF9503451,"Paris, 24 ter du Clos de",adresse,"Bouhelier, M.",Ebénisterie - décoration,95160,95428,Montmorency,,
33401,IDF9503465,"Cachot, Rue",rue,"PIRES, M. Alfred",,95160,95428,Montmorency,,
33402,IDF9503466,"Vallé des Roy, 53 route de la",adresse,"GUILLOU, M. Germain Le","Madeleur, sculteur et maquettiste",95510,95656,Vienne-en-Arthies,,
33403,IDF9503467,"Vallée du Roy, 32 route de la",adresse,"SHELL direct, S.A.S.",Station service,95510,95656,Vienne-en-Arthies,,
33406,IDF9503502,"Rouen, Route de",rue,"Clery Automobiles (Bourdonnais, M.)",Garage,95420,95166,Cléry-en-Vexin,,
33407,IDF9503503,"Grande rue, 20",adresse,"Acomevex, Sté",,95420,95166,Cléry-en-Vexin,,
33409,IDF9503475,"Vallé, 67 rue de la",adresse,"Microlist, Sté",,95450,95535,Sagy,,
33410,IDF9503478,"Perrissin, 26 rue Raymond",adresse,"TORRES, M.",?,95800,95183,Courdimanche,,
33411,IDF9503479,?,nulle,"Champ, SCI Le petit (Thomasin, M.)",?,95800,95183,Courdimanche,,
33412,IDF9503481,"Bois, Lieudit : Sur les",lieu-dit,"Fayolle et Fils, Sté Entreprise",,95650,95422,Montgeroult,,
33413,IDF9503482,"Ravine, 5 ruelle",adresse,FEY BESSE,,95650,95181,Courcelles-sur-Viosne,,
33414,IDF9503486,"Carrières, Lieudit : Les",lieu-dit,"THOMAS, Entreprise d'aménagements",,95270,95331,Lassy,,
33415,IDF9503491,"Hospice, 1 rue de",adresse,"Vincent de Paul, Groupe hospitalier Saint",Hôpital,95780,95523,La Roche-Guyon,,
33416,IDF9503505,"Vernon, 9 route de",adresse,"Matthews France, Sté",,95420,95309,Hodent,,
33417,IDF9503526,"Paris, Rue de",rue,"MAYER, M.",,95470,95580,Saint-Witz,,
33418,IDF9503508,?,nulle,"Dockc Remois Familistère, Sté",,95420,95139,La Chapelle-en-Vexin,,
33419,IDF9503509,"Louvière, Lieudit : La",lieu-dit,"ERNOTTE, Transports",,95420,95462,Omerville,,
33424,IDF9503323,"Blanche, Av Marie",rue,"IDEX, Sté",Chaufferie,95200,95585,Sarcelles,,
33430,IDF9503542,?,nulle,Centre de secours,Centre de secours,95690,95446,Nesles-la-Vallée,,
33438,IDF9503534,?,nulle,"Phytograin, Sté",,95810,95627,Vallangoujard,,
33439,IDF9503539,?,nulle,"Routière de l'Est Parisien, Sté (R.E.P.)",REP,95720,95492,Le Plessis-Gassot,,
33441,IDF9503541,"Picot, 2 rue Georges Martin",adresse,"BOGERS, François, M.",,95690,95446,Nesles-la-Vallée,,
33446,IDF9503550,"Voirins, Rue du Clos",rue,"BARSZCZEWSKI Marc, M.",,95830,95177,Cormeilles-en-Vexin,,
33447,IDF9503553,"Péri, 27 rue Gabriel",adresse,"Minisini, Garage",Garage,95270,95566,Saint-Martin-du-Tertre,,
33448,IDF9503558,rue Flaubert,rue,SOUTHON Georges,?,95270,95056,Belloy-en-France,,
33449,IDF9503572,"RN 16 (Génestraye, Lieudit : La)",lieu-dit,"TOTAL, Sté Cie Française de raffinage",Station service,95270,95149,Chaumontel,,
33450,IDF9503574,RN 16  - Relais du Bois Bonnet,lieu-dit,"TOTAL, Sté Cie Française de raffinage",Station service (Relais du Bois Bonnet),95270,95149,Chaumontel,,
33451,IDF9503575,?,nulle,"Jumentier, Sté des anciens Ets",,95270,95149,Chaumontel,,
33468,IDF9503589,"Rue, 2 Grande",adresse,"UMICORE ex, UNION MINIERE FRANCE SA",,95710,95101,Bray-et-Lû,,
33469,IDF9503590,?,nulle,F M P C M,,95300,95211,Ennery,,
33478,IDF9503602,?,nulle,"IMPAR, Sté",,95560,95430,Montsoult,,
33479,IDF9503577,?,nulle,Syndicat intercommunal pour la collecte et le traitement des ordures ménagères de la région de l'Isle-Adam,Déchetterie,95270,95652,Viarmes,,
33480,IDF9503579,RN 309 (Route de Paris),rue,"Plastiques industriels de Viarmes, Les",,95270,95652,Viarmes,,
33481,IDF9503582,"Martin, rue Saint",rue,"Combustible, Sté Oise",,95270,95652,Viarmes,,
33482,IDF9503585,RN 370,rue,Auto 2001,Garage,95500,95277,Gonesse,,
33483,IDF9503609,Aéroport Charles de Gaulle,lieu-dit,TRANS WORLD AIRLINES INC,,95700,95527,Roissy-en-France,,
33484,IDF9503610,CENTRE INDUSTRIEL (SCE BASES),lieu-dit,"TRANSPORTS AERIENS, UNION DES",,95700,95527,Roissy-en-France,,
33485,IDF9503625,?,nulle,SEDA,,95450,95002,Ableiges,,
33486,IDF9503627,?,nulle,SECA,,95500,95088,Bonneuil-en-France,,
33487,IDF9503632,?,nulle,CPC France,,95140,95268,Garges-lès-Gonesse,,
33488,IDF9503635,?,nulle,SEPRIC MANAGEMENT,Chaufferies urbaines,95140,95268,Garges-lès-Gonesse,,
33489,IDF9503638,?,nulle,"Groupe PSV, ex. MOTEURS PERKINS",,95420,95270,Genainville,,
33491,IDF9503642,?,nulle,"TTM et Aliplast TTM Distrib et Batistore TTM Distrib et Monty TTM Distrib et Trocal TTM Distrib et  Wayne Dalton TTM Distrib, anc. FOURNY (Société)",,95500,95277,Gonesse,,
33492,IDF9503643,"Tulipes Sud, ZAC des",lieu-dit,MANUTAN,,95500,95277,Gonesse,,
33501,IDF9503673,?,nulle,"GARES FRIGO, CIE ENTREPOTS (C.E.G.F.)",CEGF,95560,95430,Montsoult,,
33503,IDF9503648,?,nulle,REDLAND GRANULATS,Carrière,95190,95280,Goussainville,,
33504,IDF9503649,"VANNET, CHAMPS DE",lieu-dit,SPAT ET SERATER,Carrière,95190,95280,Goussainville,,
33506,IDF9503657,?,nulle,"SCAMME, COOPERATIVES AGRICOLE",Stockage de céréales,95420,95355,Magny-en-Vexin,,
33510,IDF9503661,CHEMIN COMMUNAL N°1,nulle,APPIA PARIS NORD,,95640,95370,Marines,,
33512,IDF9503667,?,nulle,SEPP,,95670,95371,Marly-la-Ville,,
33520,IDF9503696,?,nulle,"Caoutchouc Auto Gaz, Sté",?,95400,95019,Arnouville,,
33521,IDF9503697,?,nulle,"Caravanes Paris-Nord, Sté des",?,95380,95351,Louvres,,
33522,IDF9503698,?,nulle,"Robinetterie, Comptoir de",?,95380,95351,Louvres,,
33523,IDF9503699,?,nulle,"Bouellat, Sté Chaudières",?,95380,95351,Louvres,,
33524,IDF9503700,?,nulle,"Enduction et de Gommage, Sté Française d'",?,95380,95351,Louvres,,
33525,IDF9503701,?,nulle,"Jupiter, Sté Pétroles",?,95380,95351,Louvres,,
33526,IDF9503702,?,nulle,"Application Mécanisation, Sté d'",?,95230,95598,Soisy-sous-Montmorency,,
33527,IDF9503703,?,nulle,"Application Industrielle des Bois, Sté d'",?,95230,95598,Soisy-sous-Montmorency,,
33528,IDF9503704,?,nulle,"Produit Chimiques de Soisy, Sté",?,95230,95598,Soisy-sous-Montmorency,,
33529,IDF9503705,?,nulle,"Carrières des Frepillon, Sté des",?,95740,95256,Frépillon,,
33530,IDF9503706,?,nulle,"Produits d'Entretien, Sté Manufacture Française de",?,95140,95268,Garges-lès-Gonesse,,
33531,IDF9503707,?,nulle,"Consommateurs de Pétroles, Sté les",?,95500,95277,Gonesse,,
33532,IDF9503708,?,nulle,"Réalisations Electriques, Sté d'Entreprises et de (S.E.R.E.C.)",SEREC,95500,95277,Gonesse,,
33533,IDF9503709,?,nulle,"Usines Métallurgiques, Sté des",?,95450,95592,Seraincourt,,
33534,IDF9504001,?,nulle,Frisse,,95400,95019,Arnouville,,
33535,IDF9504002,"Réal, Usine de",lieu-dit,"REAL, Usine de","Filature et de tissage de coton, ateliers",95650,95078,Boissy-l'Aillerie,,
33536,IDF9504003,?,nulle,"BITULAC (Lia, Ed. Petit)","Bitumineux, usine de fabrication de",95650,95078,Boissy-l'Aillerie,,
33538,IDF9504010,"Gare, rue de l'ancienne",lieu-dit,"Dubrulle, Vve L.",Fonderies de métaux non ferreux,95690,95328,Labbeville,,
33539,IDF9504012,"Vaud'Harland, côte de",lieu-dit,VILLEMER,,95500,95612,Le Thillay,,
33540,IDF9504013,?,nulle,Boudy Roger,,95380,95351,Louvres,,
33541,IDF9504014,?,nulle,"Industrielle de Louvres, Sté",,95380,95351,Louvres,,
33542,IDF9504015,"Dauphine, 29 rue",adresse,Guilbaud,Station-service,95640,95370,Marines,,
33560,IDF9504199,"Nationale, 117 route",adresse,MILLER,Boyauderie,95480,95488,Pierrelaye,,
33574,IDF9504178,?,nulle,GERMAIN,"Canots, fabrique de",95430,95039,Auvers-sur-Oise,,
33575,IDF9504186,?,nulle,ANSART,Savonnerie,95550,95060,Bessancourt,,
33576,IDF9504189,?,nulle,"S.I.R.C., Ets","Radiateurs automobiles, atelier de fabrication de",95610,95218,Éragny,,
33577,IDF9504190,"Grande-Rue, 35",adresse,BRUNNET,"Perles, usine de fabrication de",95220,95306,Herblay,,
33578,IDF9504194,R.N. 14,rue,COURTY Léon,Transport,95480,95488,Pierrelaye,,
33579,IDF9504195,R.N. 14,rue,MILLOT,Station service et garage,95480,95488,Pierrelaye,,
33580,IDF9504196,"R.N. 14, 150",rue,"BARATTE, Cie Industrielle des Pétroles",Garage automobile,95480,95488,Pierrelaye,,
33581,IDF9504197,"R.N. 14, 71",rue,RODES Antoine,Garage automobile,95480,95488,Pierrelaye,,
33582,IDF9504198,?,nulle,CHERON ET DUPERRIER,"Couverts et orfèvrerie, atelier de confection de",95540,95394,Méry-sur-Oise,,
33583,IDF9504201,"Rouen, Route de",adresse,EDON,"Acétylène, usine de fabrication d'",95370,95424,Montigny-lès-Cormeilles,,
33584,IDF9504202,?,nulle,DECKERS,"Chaudronnerie et serrurerie, atelier de",95370,95424,Montigny-lès-Cormeilles,,
33595,IDF9504224,?,nulle,"IMPRESSIONS ET D'EDITIONS, Sté Générale d' (S.G.I.E.)",Imprimerie,95300,95500,Pontoise,,
33596,IDF9504225,?,nulle,Fabrique de minium,"Minium, usine de fabrication de",95300,95500,Pontoise,,
33627,IDF9302293,BLANC-MESNIL (7 rue du),adresse,Sté FRANÇAISE des ENGRAIS PHOSPHATES,,93000,93008,Bobigny,,
33628,IDF9302294,Route impériale n°3,nulle,UHLEMANN,,93000,93008,Bobigny,,
33644,IDF9305112,SAINT-DENIS (route de) actuelle rue de STALINGRAD,adresse,REPIQUET (Ets),CONSTRUCTIONS MECANIQUES,93000,93008,Bobigny,,
33759,IDF7707911,"Pont de Bourgogne, lieu-dit le",lieu-dit,BROQUET (Entreprise),Décapage - Estampage - Emboutissage de métaux,,,,,
33760,IDF7707915,"Gare, rue de la",lieu-dit,DEBUT (Entreprise artisanale J.),Argenture sur métaux,77169,77436,Saint-Siméon,,
33761,IDF7707919,RN 4,rue,TOTAL Compagnie,Station-service,77860,77413,Saint-Germain-sur-Morin,,
33764,IDF7707937,"Pétain, 28 rue du Maréchal",adresse,FOUCAULT (Fonderie),Fonderie,77370,77327,Nangis,,
33782,IDF7708003,"Pouillot, 85 rue du Docteur",adresse,BARCHOU (Maison),,,,,,
33796,IDF7708041,Sainte Colombe,lieu-dit,Isolants Réunis,,77650,77404,Sainte-Colombe,,
33808,IDF7708214,"Pré Hersin, lieu-dit le",lieu-dit,TOTAL EXPLORATION,Plateforme de production de pétrole CER X20,77320,77097,Chartronges,,
33814,IDF7708250,"Moulin à Vent, lieu-dit le",lieu-dit,SOCONY VACU FRANCAISE,Dépôt d'hydrocarbures,77930,77069,Chailly-en-Bière,,
33815,IDF7708252,"Moulin à Vent, lieu-dit le",lieu-dit,VILLECOURT Entreprise artisanale,Ferronnerie d'art,77930,77069,Chailly-en-Bière,,
33816,IDF7708255,"Alisier, lieudit L'",lieu-dit,FORASOL,Forage Boulay 1,77460,77071,Chaintreaux,,
33828,IDF7708146,"Village, rue du",rue,LANDRE (Entreprise artisanale F.),Atelier de métaux,77560,77080,Champcenest,,
33830,IDF7708177,"Prieuré, 2 le",lieu-dit,COINTE (Imprimerie Daniel),Imprimerie,77760,77088,La Chapelle-la-Reine,,
33846,IDF7708209,"Clémenceau, 44 rue Georges",adresse,Garage du Centre,Garage - Station-service,77590,77096,Chartrettes,,
33850,IDF7708285,"Fosse Rouge, chemin de la",rue,LE DAIN (J.M.),Serrurerie,77390,77107,Chaumes-en-Brie,,
33858,IDF7708312,"Grande Ronde, lieu-dit la",lieu-dit,Société Routière de l'Est Parisien,Décharge de Fouju-Moisenay,77390,77195,Fouju,,
33869,IDF7708347,"Fosse au coq, lieu-dit la",lieu-dit,ELF,Station-service ELF,77115,77453,Sivry-Courtry,,
33924,IDF7708458,"Bois de l'etang, chemin rural",lieu-dit,MEDJAHED EDDINE,Casse automobile,77181,77363,Le Pin,,
33940,IDF7708508,Aerodrome de Melun-Villaroche,lieu-dit,CENTRE DE VILLAROCHE (CEV),Aérodrome de Melun-Villaroche,77550,77296,Moissy-Cramayel,,
33986,IDF7708578,Aerodrome de Melun-Villaroche,lieu-dit,PROPULSION (Société Européenne de) (SEP),,77550,77384,Réau,,
33988,IDF7708586,"Gare, 16 rue de la",adresse,SKW BIOSYSTEMS,,77260,77448,Sept-Sorts,,
33992,IDF7708593,"Halage, chemin de",rue,Unibéton,Entreprise de béton,77460,77458,Souppes-sur-Loing,,
34646,IDF7708403,"National, 5 route",adresse,LOUREIRO (MANUEL),,,,,,
34647,IDF7708428,"Provins, route de",rue,DELISLE (SA),Transports,77320,77182,La Ferté-Gaucher,,
34649,IDF7708452,"Freyssinet, 1 avenue Eugene",adresse,BOUYGUES TRAVAUX PUBLICS,Travaux publics,77990,77291,Le Mesnil-Amelot,,
34651,IDF7708456,"Canotiers, 39 quai des",adresse,Vermeulen Matériaux,Matériaux de construction,77990,77291,Le Mesnil-Amelot,,
34735,IDF7710469,"Paris, 86 rue de",adresse,FERIAUD (Ets),Entreprise de charpente,77220,77470,Tournan-en-Brie,,
34737,IDF7710473,"RODIER, 20 rue L",adresse,PERTHAL (Sté),Atelier de travail des métaux,77930,77359,Perthes,,
34749,IDF9400208,"Constantin, 13 rue Constantin",adresse,"RECUPERATION INDUSTRIELLE, SOCIETE DE",Dépôt de déchets,94200,94041,Ivry-sur-Seine,,
34763,IDF9400590,"Canal, 2 quai du Canal",adresse,Fonderie,Fonderie,94340,94042,Joinville-le-Pont,,
34764,IDF9400597,"Bobillot, 16 rue Bobillot",adresse,Corroierie,Corroierie,94270,94043,Le Kremlin-Bicêtre,,
34765,IDF9400604,"Bobillot, 27 rue Bobillot ; Collineau, 11 Impasse Collineau",adresse,Brigault-Grossmann-Rigollet,Atelier de matières plastiques,94270,94043,Le Kremlin-Bicêtre,,
34766,IDF9400605,"Rosny, 83 route de Rosny",adresse,Teinturerie,Teinturerie,94170,94058,Le Perreux-sur-Marne,,
34767,IDF9400607,"Villeneuve, route de Villeneuve",rue,Atelier de peinture,Atelier d'application de peinture et vernis,94700,94046,Maisons-Alfort,,
34771,IDF9400454,"Rigny, 33 rue des Batailles Rigny",adresse,Blanchisserie,Blanchisserie,94500,94017,Champigny-sur-Marne,,
34772,IDF9400458,"Grande rue , 49 Grande rue",adresse,Atelier de peinture,Atelier d'application de peinture et vernis,94500,94017,Champigny-sur-Marne,,
34773,IDF9400459,"Joinville, 134 route de Joinville",adresse,Atelier de peinture,Atelier d'application de peinture et vernis,94500,94017,Champigny-sur-Marne,,
34774,IDF9400620,"Villeneuve, 146 route de Villeneuve",adresse,Atelier de peinture,Atelier d'application de peinture et vernis,94700,94046,Maisons-Alfort,,
34775,IDF9400628,"Alsace Lorraine, 6 rue d'Alsace Lorraine",adresse,Serrurerie,Serrurerie,94160,94067,Saint-Mandé,,
34776,IDF9400629,"Alsace Lorraine, 17 rue d'Alsace Lorraine",adresse,Serrurerie,Serrurerie,94160,94067,Saint-Mandé,,
34779,IDF9400650,"Grande rue, 100 Grande rue",adresse,"Maire-Paton, Ets le",Atelier de cuirs,94800,94076,Villejuif,,
34780,IDF9400466,"Pavillons, 26 rue des Pavillons",adresse,Dépôt de liquides inflammables,Dépôt de liquides inflammables,94220,94018,Charenton-le-Pont,,
34781,IDF9400654,"Monsivry, 13 rue de Monsivry",adresse,Dépôt d'engrais,Dépôt d'engrais,94800,94076,Villejuif,,
34782,IDF9400661,"Bois, 39 rue du Bois",adresse,Atelier de caoutchouc,Atelier de caoutchouc,94300,94080,Vincennes,,
34783,IDF9400663,"Bois, 13 rue du Bois",adresse,Atelier de matières plastiques,Atelier de matières plastiques,94300,94080,Vincennes,,
34784,IDF9400667,"Fleuristes, impasse des Fleuristes",lieu-dit,Atelier de travail des métaux,Atelier de travail des métaux,94300,94080,Vincennes,,
34785,IDF9400670,"Bagnolet, 22 rue de Bagnolet",adresse,Teinturerie,Teinturerie,94300,94080,Vincennes,,
34786,IDF9400671,"Plateau, 29 bis rue du Plateau",adresse,Forge,Forge,94300,94080,Vincennes,,
34787,IDF9400434,"Villejuif, 61 route de Villejuif",adresse,"TANNERIE CORROIRIE, Ets",Atelier de cuirs,94110,94003,Arcueil,,
34788,IDF9400486,"Halle, 5 rue de la Halle",adresse,Serrurerie,Serrurerie,94600,94022,Choisy-le-Roi,,
34791,IDF9400758,non précisée,nulle,Fabrique d'engrais,Fabrique d'engrais,94110,94003,Arcueil,,
34792,IDF9400759,non précisée,nulle,Industrie pharmaceutiques,Industrie pharmaceutique,94110,94003,Arcueil,,
34800,IDF9400786,"Recette, rue de la Recette",rue,LACROIX,Blanchisserie,94000,94028,Créteil,,
34810,IDF9400910,Quartier bas,lieu-dit,Atelier de caoutchouc,Atelier de caoutchouc,94800,94076,Villejuif,,
34811,IDF9400891,"Montsivry, rue du Montsivry",rue,Fabrique d'engrais,Fabrique d'engrais,94200,94041,Ivry-sur-Seine,,
34815,IDF9400909,Quartier bas,lieu-dit,Tannerie,Tannerie,94800,94076,Villejuif,,
34817,IDF9400878,Ivry Centre,lieu-dit,LESQUENDIEU,Laboratoire pharmaceutique,94200,94041,Ivry-sur-Seine,,
34818,IDF9400889,"Grand Gord, rue du Grand Gord",rue,"Art de plomberie et de fumisterie, Manufacture d'",Atelier de plomberie,94200,94041,Ivry-sur-Seine,,
34819,IDF9400890,"Ivry, 11 rue d'Ivry",adresse,Blanchisserie,Blanchisserie,94270,94043,Le Kremlin-Bicêtre,,
34827,IDF9400537,"Constant, 9 rue Constant",adresse,Atelier de travail des métaux,Atelier de travail des métaux,94200,94041,Ivry-sur-Seine,,
34828,IDF9400540,"Constant, 8 rue Constant",adresse,Atelier de travail des métaux,Atelier de travail des métaux,94200,94041,Ivry-sur-Seine,,
34829,IDF9400541,"Constant, 10-12 rue Constant",adresse,Atelier de travail des métaux,Atelier de travail des métaux,94200,94041,Ivry-sur-Seine,,
34831,IDF9400686,"Epinette, voie de l'Epinette",rue,Industrie de textile,Industrie de textile,94400,94081,Vitry-sur-Seine,,
34832,IDF9400709,Ferme de la Tour,lieu-dit,"TOURNIER et Cie, Ets Général ; ENTREPRISE GENERAL DE VIDANGE A VAPEUR, BERGERON Ets",Décharge,94190,94078,Villeneuve-Saint-Georges,,
34836,IDF9400418,"Halage, chemin de Halage",rue,Fabrique de produits chimiques,Fabrique de produits chimiques,94140,94002,Alfortville,,
34844,IDF9403902,"Choisy, 46 avenue de Choisy",adresse,GAUDIN,Serrurerie,94310,94054,Orly,,
34870,IDF9305381,MICHELET (27 - 31 rue),adresse,PEINTOLIN (Sté) - VIMO,"FABRICATION ET GROS PEINTURES, VERNIS",93500,93055,Pantin,,
34881,IDF9305398,BATIGNOLLES (107 avenue des),adresse,LEFEBURE - JUSPOM,CIDRERIE,93400,93070,Saint-Ouen,,
34882,IDF9305403,CLICHY (rue de),rue,CITROEN (Sté André),CONSTRUCTION AUTOMOBILE,93400,93070,Saint-Ouen,,
34883,IDF9401770,"Versailles, 63-65 avenue de Versailles",adresse,SOURD,Dépôt de liquides inflammables,94100,94068,Saint-Maur-des-Fossés,,
34885,IDF9401811,"Réservoirs, 11 rue des Réservoirs",adresse,BREA,Fonderie,94440,94075,Villecresnes,,
34888,IDF9401817,"Limeil, Route de Limeil",rue,DURCHOS,Décharge,94190,94078,Villeneuve-Saint-Georges,,
34889,IDF9401825,"Bagnolet, 37 rue de Bagnolet",adresse,DECRET,Garage,94300,94080,Vincennes,,
34890,IDF9401826,"National, 36 boulevard National",adresse,LORONDON,Fonderie,94300,94080,Vincennes,,
34894,IDF9401935,"Toulouse, rue de Toulouse",rue,RABERY,Atelier de céramique,94450,94044,Limeil-Brévannes,,
34896,IDF9401937,"Brunof, rue de Brunof",rue,GERARD,Blanchisserie,94450,94044,Limeil-Brévannes,,
34901,IDF9401902,"Raspail, 23 rue Raspail",adresse,REDRAM DENTAL MANUFACTURE,Fonderie,94400,94081,Vitry-sur-Seine,,
34902,IDF9401924,"Stadelaïde, 14 rue Stadelaïde",adresse,BOSSUS,Dépôt de liquides inflammables,94430,94019,Chennevières-sur-Marne,,
34906,IDF9400922,"Epinette, à l'Epinette",lieu-dit,"SOULAGE, Ets",Industrie de textile,94400,94081,Vitry-sur-Seine,,
34907,IDF9400936,"Ecoles, rue des Ecoles",rue,Centrale à béton,Centrale à béton,94400,94081,Vitry-sur-Seine,,
34908,IDF9400939,"Mazagran, rue Mazagran",rue,"Huiles de Pétrole, Société générale des (filiale BP)",Dépôt de liquides inflammables,94400,94081,Vitry-sur-Seine,,
34909,IDF9400940,"Mazagran, rue Mazagran",rue,"Loreid, Sté: Entreprise Chimique pour textile",Industrie de textile,94400,94081,Vitry-sur-Seine,,
34912,IDF9400946,Quartier bas,lieu-dit,Fabrique de produits chimiques,Fabrique de produits chimiques,94800,94076,Villejuif,,
34916,IDF9402007,"Près de Brétigny (les), lieu dit",lieu-dit,LAVIRON GABRIEL,Dépôt de liquides inflammables,94370,94071,Sucy-en-Brie,,
34917,IDF9402013,"Villeneuve Saint Georges, Chemin de grande communication n°32 de Villeneuve Saint Georges",lieu-dit,BREQUIN,Fabrique de produits chimiques,94290,94077,Villeneuve-le-Roi,,
34918,IDF9402014,"Villeneuve Saint Georges, Chemin de grande communication n°32 de Villeneuve Saint Georges",lieu-dit,DEMONFAUCON,Fabrique de produits chimiques,94290,94077,Villeneuve-le-Roi,,
34925,IDF9402024,"Béatrice, avenue Béatrice",rue,MOREAU EUGENE,Garage,94290,94077,Villeneuve-le-Roi,,
34927,IDF9402026,Route nationale n°5,rue,PAGEOT,Fabrique de produits chimiques,94190,94078,Villeneuve-Saint-Georges,,
34928,IDF9402037,"Plessis, 5 rue de Plessis",rue,RICHARD,Garage,94350,94079,Villiers-sur-Marne,,
34929,IDF9402038,"Plessis, route de Plessis",rue,"LAITERIES MODERNES LES, Sté",Garage,94350,94079,Villiers-sur-Marne,,
34932,IDF9403202,"Rond, rue Rond, ex rue Marie Louise",rue,Savonnerie,Savonnerie,94600,94022,Choisy-le-Roi,,
34933,IDF9403225,"Ivry, 11-13 rue d'Ivry",rue,"Usines Géo Foucault, Sté des",Atelier de fabrication d'hydrogène,94270,94043,Le Kremlin-Bicêtre,,
34951,IDF9403875,rue ?,nulle,VANDAMME,Dépôt de liquides inflammables,94600,94022,Choisy-le-Roi,,
34957,IDF9401224,GARE SNCF,lieu-dit,RAOUX (Ets),Atelier de récupération des métaux,94700,94046,Maisons-Alfort,,
34963,IDF9402327,"Station, 25 rue de la Station",adresse,PLATEAU RAYMOND,Dépôt de liquides inflammables,94140,94002,Alfortville,,
34967,IDF9401671,"Bocage, 9 rue du Bocage",adresse,SAVALLE,Atelier de travail des métaux,94200,94041,Ivry-sur-Seine,,
34968,IDF9401662,"Sentiers, 41 rue des Sentiers",adresse,ROUMIGUIERES,Garage,94240,94038,L'Haÿ-les-Roses,,
34978,IDF9401424,"Pont de Chennevières, 147 rue du pont de Chennevières, ex 124 rue du Château",lieu-dit,Folmer et Schutz,Fabrique de machines électriques,94300,94080,Vincennes,,
34979,IDF9401331,"Canal, 18 bis rue du Canal",adresse,Mialovitch,Dépôt de liquides inflammables,94340,94042,Joinville-le-Pont,,
34980,IDF9401332,"Canal, 5 rue du Canal",adresse,Comptoirs français,Dépôt de liquides inflammables,94340,94042,Joinville-le-Pont,,
34981,IDF9401336,"Jamin, 42 avenue Jamin",adresse,Fontaine,Dépôt de liquides inflammables,94340,94042,Joinville-le-Pont,,
34982,IDF9401340,"Pont, 1 rue du Pont",adresse,Fricot,Dépôt de liquides inflammables,94340,94042,Joinville-le-Pont,,
34983,IDF9401341,"Pont, 28-30 rue du Pont",adresse,Henri Bret,Dépôt de liquides inflammables,94340,94042,Joinville-le-Pont,,
34984,IDF9401356,"National, 35 boulevard National",adresse,Lourdon,Fonderie,94400,94081,Vitry-sur-Seine,,
34985,IDF9401357,"Dalayrac, 34 rue Dalayrac",adresse,"Million, Laurent et Quétin",Fonderie,94400,94081,Vitry-sur-Seine,,
34987,IDF9401408,"Lescot, 21 rue Pierre Lescot",adresse,FOURNIER FILS,"Tannerie, mégisserie, corroierie",94200,94041,Ivry-sur-Seine,,
34990,IDF9401419,"Alsace Lorraine, 78 rue Alsace Lorraine",adresse,Véka,Fabrique de machines électriques,94300,94080,Vincennes,,
34991,IDF9401427,"Gérard, 6 rue Gérard",adresse,Fonderies de Choisy-le-Roi,Fonderie,94600,94022,Choisy-le-Roi,,
35011,IDF9102289,"Latéral, chemin",nulle,LANGRAND,Décharge de pneumatiques,91300,91377,Massy,,
35012,IDF9102290,"Latéral, chemin",nulle,"RIONDET Marcel, ex MASSELOT",Ferrailleur,91300,91377,Massy,,
35040,IDF9102659,CVO 2 (qui relie ONCY à la route MILLY-NEMOURS),nulle,"ONCY-SUR-ECOLE, Commune de",,91490,91463,Oncy-sur-École,,
35057,IDF9102222,"Pierre Grise, la",lieu-dit,ALBARIC,Station service,91630,91376,Marolles-en-Hurepoix,,
35061,IDF9100968,"Libéral - Bruant, rue",rue,BLANZY - OUEST (Sté UNION INDUSTRIELLE BLANZY - OUEST - SERG),,91210,91201,Draveil,,
35065,IDF9100979,"Mousseaux, Château de",lieu-dit,DECHARGES DES BRUYERES,,91210,91201,Draveil,,
35067,IDF9100982,"Port aux Malades, rue du",rue,CEOM (Collecte et Evacuation des OM),,91210,91201,Draveil,,
35068,IDF9100983,"Vercors, 5 allée du",adresse,MONTENAY Agence PEC,,91210,91201,Draveil,,
35069,IDF9100984,"Vercors, 5 allée du",adresse,MONTENAY Agence PEC,,91210,91201,Draveil,,
35077,IDF9102360,"Basse, rue",lieu-dit,LEBLANCE,Fabrique de matières plastiques,91660,91390,Méréville,,
35088,IDF9102383,"Gare, place de l'ancienne",lieu-dit,WINCHE René,Atelier de traitement des métaux,91490,91405,Milly-la-Forêt,,
35089,IDF9102404,CV de Boutigny à Moigny,rue,COMMUNE DE MOIGNY-SUR-ECOLE,,91490,91408,Moigny-sur-École,,
35090,IDF9102406,CV 3,rue,COMMUNE DE MOIGNY-SUR-ECOLE,,91490,91408,Moigny-sur-École,,
35100,IDF9102663,D 137,rue,"ORMOY, COMMUNE D'",,91540,91468,Ormoy,,
35113,IDF9101002,inconnue,nulle,SORALU: Sté FRANCAISE D'ALUMINIUM,Fabrique d'éléments métalliques,91860,91215,Épinay-sous-Sénart,,
35114,IDF9101003,D 94,rue,ANTAR,Station service,91860,91215,Épinay-sous-Sénart,,
35117,IDF9101034,"Abreuvoir, rue de l'",rue,"LORY Ferdinand, ex LORY Jean - Pierre",Fonderie,91150,91223,Étampes,,
35173,IDF9101064,D 146,rue,DERIAUX G.,Fonderie,91150,91223,Étampes,,
35193,IDF9100461,"Nationale, 6  route",rue,"ANDRIEUX, ex BARE et HERVIOU",Garage,91800,91114,Brunoy,,
35194,IDF9100467,"Nationale 6, 64 et 66 route",adresse,"MIDAS, ex MOTTE",Garage,91800,91114,Brunoy,,
35198,IDF9101093,RN 20; route de Paris à Orléans,rue,BORDERIEUX Robert,Carrière,91150,91223,Étampes,,
35199,IDF9101094,RN 20,rue,AOURA Jean - Baptiste,Station service,91150,91223,Étampes,,
35204,IDF9102553,"Savigny, route de",rue,STATION RICHARD + CENTRE AUTO MORANGIS,"Station service, garage",91420,91432,Morangis,,
35210,IDF9102473,Camp militaire,lieu-dit,ELYO COFRETH,Compagnie de chauffage,91310,91425,Montlhéry,,
35231,IDF9100012,RN 20,rue,"ESSO-STANDARD, ex COURET",Station service,91670,91016,Angerville,,
35256,IDF9101171,Ne sait pas,nulle,MONIN HARLE,Fabrique de roulements à billes,91580,91226,Étréchy,,
35269,IDF9101277,Autoroute A 10 (l'Aquitaine),nulle,SHELL FRANCAISE,,91470,91249,Forges-les-Bains,,
35295,IDF9100517,"Orgemont, rue d'",rue,FIDELE (Fabrique - Installation des Enseignes Lumineuses de l'Essonne),Fabrique d'appareils d'éclairage,91590,91129,Cerny,,
35306,IDF9100751,RN 7,rue,"TOSOLINI, station service ESSO",Station service,91100,91174,Corbeil-Essonnes,,
35307,IDF9100752,RN 7,rue,"MAZERAT Georges, ex GIZARD",Station service,91100,91174,Corbeil-Essonnes,,
35318,IDF9102690,"Ferme des Ulis et de Marcoussis, avenue de la",lieu-dit,FRANCAISE DES PETROLES BP,,91400,91471,Orsay,,
35323,IDF9102560,CD 17 d'Etampes à Fontenay-le-Vicomte,rue,CAMPOS,Casse automobile,91150,91433,Morigny-Champigny,,
35324,IDF9102562,chemin latéral,nulle,HEBERT Mme,Casse automobile,91150,91433,Morigny-Champigny,,
35327,IDF9102615,"Guérinière, 1-3 rue de la + 14 rue Félix Perrin",adresse,HLM DE L'ESSONNE + SAC (Sté AUXILIAIRE DE CHAUFFAGE),,91250,91435,Morsang-sur-Seine,,
35328,IDF9102616,CR n°6,rue,"MORSANG-SUR-SEINE, Commune de",,91250,91435,Morsang-sur-Seine,,
35350,IDF9100571,"Savigny, ancienne rue de",rue,"CHILLY MAZARIN, DOM de la commune de",Décharge d'ordures ménagères,91380,91161,Chilly-Mazarin,,
35360,IDF9101250,"Vieille Montagne, rue de la",rue,JEANTHON,Fonderie,91590,91232,La Ferté-Alais,,
35376,IDF9101278,Autoroute A 10 (l'Aquitaine). Aire de Folie Bessin PK 12.,nulle,"TOTAL, Cie FRANCAISE DE RAFFINAGE",Station service,91470,91249,Forges-les-Bains,,
35379,IDF9102632,RD 35,rue,NOZAY AUTO,,91620,91458,Nozay,,
35387,IDF9100081,CG 118,rue,COGETRAVOC,,91200,91027,Athis-Mons,,
35388,IDF9100089,D25,rue,VERDIER Georges,,91200,91027,Athis-Mons,,
35399,IDF9100621,"Orléans, route d'",rue,"ROBERT, ex CHRYSO - ROBERT",,91380,91161,Chilly-Mazarin,,
35406,IDF9100630,"Quatre fourchettes, quartier des",lieu-dit,TIBILETTI,,91380,91161,Chilly-Mazarin,,
35407,IDF9101282,CD 97,rue,BISCHOFF,Casse automobile,91470,91249,Forges-les-Bains,,
35408,IDF9101310,La Gruerie,lieu-dit,"SO + RAMEX, ex JOURDAIN",Enlèvement et traitement des ordures ménagères,91400,91274,Gometz-la-Ville,,
35416,IDF9101326,CD 29,rue,INNO - FRANCE,Station service,91350,91286,Grigny,,
35418,IDF9102699,"Rostand, 1 rue Jean",adresse,EUROLYSINE,,91400,91471,Orsay,,
35419,IDF9102700,"Rostand, 2 rue Jean",adresse,"AETHRA, ex DOSITEK",,91400,91471,Orsay,,
35420,IDF9102701,"Rostand, 27 rue Jean",adresse,OXFORD INSTRUMENTS,,91400,91471,Orsay,,
35428,IDF9102709,ZI,lieu-dit,SOMACOR,,91120,91477,Palaiseau,,
35436,IDF9100191,?,nulle,"BALLANCOURT-SUR-ESSONNE, commune de",Station d'épuration,91610,91045,Ballancourt-sur-Essonne,,
35437,IDF9100634,Ne sait pas.,nulle,RENAUDET Louis,Imprimerie,91100,91174,Corbeil-Essonnes,,
35457,IDF9101373,CR N° 4,rue,TELLIER - GAUTHIER,,91430,91312,Igny,,
35466,IDF9100161,"Eglise, place de l'",lieu-dit,TRANSPORT SOLER ET FILS,Transports urbains,91630,91041,Avrainville,,
35471,IDF9100695,"Fourches, ruelle des",rue,CORBEIL - ESSONNES; Commune de (DECHARGE de matières imputrescibles),Décharge d'ordures ménagères,91100,91174,Corbeil-Essonnes,,
35475,IDF9101384,Ne sait pas,nulle,RAOULT Irène,Fonderie d'aluminium,91760,91315,Itteville,,
35479,IDF9101389,"Leclerc, 31 rue du général",adresse,MARCARIAN François,Fabrique de matières plastiques,91760,91315,Itteville,,
35480,IDF9101390,"Marais d'Itteville, lieu-dit le",lieu-dit,"SIRCOM, ex commune d'ITTEVILLE",Décharge d'ordures ménagères,91760,91315,Itteville,,
35484,IDF9101394,CGC 17,rue,MAILLET Marcel,Gazomètre,91510,91318,Janville-sur-Juine,,
35491,IDF9101417,"Orge, avenue de l'",rue,EGGER et Cie,,91260,91326,Juvisy-sur-Orge,,
35518,IDF9102007,CR 45,rue,PROFAC,Fabrique de matières plastiques,91510,91330,Lardy,,
35533,IDF9100230,N 444,rue,,,91570,91064,Bièvres,,
35535,IDF9100244,"Boigneville, commune de",nulle,"BOIGNEVILLE, commune de",Décharge d'ordures ménagères,91720,91069,Boigneville,,
35538,IDF9100247,"Fontaine, chemin dit de la route de la",lieu-dit,"BOISSY-LA-RIVIERE, commune de",Décharge d'ordures ménagères,91690,91079,Boissy-la-Rivière,,
35573,IDF9100306,"Vert-Le-Grand, route de",rue,CRUCIANI,,91070,91086,Bondoufle,,
35574,IDF9100314,Lesigny,nulle,SAC (Sté AUXILIAIRE CHAUFFAGE),Compagnie de chauffage,91800,91097,Boussy-Saint-Antoine,,
35575,IDF9100788,inconnue,nulle,DAUDIER ou DAUTIER Robert,,91830,91179,Le Coudray-Montceaux,,
35610,IDF9100861,"Ferté Alais, 19 route de la",adresse,APPAREILS CONTROLEURS,Fabrique de produits d'étanchéité,91590,91198,D'Huison-Longueville,,
35623,IDF9102189,"Gaulle, 54 bis avenue du général de",adresse,VANDENBROUCK Zenob,Ferrailleur,91720,91359,Maisse,,
35670,IDF9403477,"Kremlin, 6 rue Kremlin",adresse,Lequime,Importateur et distributeur de lubrifiants,94270,94043,Le Kremlin-Bicêtre,,
35704,IDF9403575,"Grande rue, 1 Grande rue",adresse,Girard,Fabrique d'amidon,94500,94017,Champigny-sur-Marne,,
35710,IDF9403598,cours vincennes,rue,Fontaine,Corroierie,94160,94067,Saint-Mandé,,
35712,IDF9403604,"Versailles, avenue de Versailles",rue,PERIMANT,Fabrique de colle,94260,94034,Fresnes,,
35714,IDF9403609,"Chevaleret, chemin du Chevaleret",rue,GOUYERE,Fabrique de produits chimiques,94200,94041,Ivry-sur-Seine,,
35716,IDF9403614,"Rosiers, 8 rue des Rosiers",adresse,Burcq,Fabrique de peinture et vernis,94700,94046,Maisons-Alfort,,
35717,IDF9403616,"Charonne, 19 rue de Charonne",adresse,Leprince,Fabrique d'eau de javel,94160,94067,Saint-Mandé,,
35718,IDF9403617,Route départementale n°3,rue,LADONNE,Fabrique de peinture,94160,94067,Saint-Mandé,,
35737,IDF9103041,"Vieux Marché, 6 route du",lieu-dit,WUILLAUME-EGRET IMPRIMERIE,Imprimerie,91250,91553,Saint-Germain-lès-Corbeil,,
35756,IDF9403626,"Tilleuls, allée des Tilleuls",rue,LEBEL M.,Fabrique de peintures et vernis,94600,94022,Choisy-le-Roi,,
35757,IDF9403628,"Chevreul, 7 rue Chevreul",adresse,VIBOR Laboratoires,Fabrique de peintures et vernis,94200,94041,Ivry-sur-Seine,,
35758,IDF9403641,"Nouvelle, 7 rue Nouvelle",adresse,MAXIME Ets,Droguerie,94220,94018,Charenton-le-Pont,,
35834,IDF9103287,CD 31,rue,PERREAU M.,Exploitation agricole,91810,91648,Vert-le-Grand,,
35849,IDF9103320,"Corbeil, 218 route de",adresse,PLASTIQUES SYNTHETIQUES,Fabrique de matières plastiques,91270,91657,Vigneux-sur-Seine,,
35851,IDF9403897,"Versailles, 27 avenue de Versailles",adresse,TESSIER,Dépôt de liquides inflammables,94260,94034,Fresnes,,
35898,IDF9103354,"Bout-d'en-Haut, rue du",rue,"VILLABE, COMMUNE DE",Décharge d'ordures ménagères,91100,91659,Villabé,,
35914,IDF9403101,"Grande rue, 99 Grande rue",rue,Garage d'automobiles,Garage,94800,94076,Villejuif,,
35951,IDF9103392,CR 12,rue,BIOULAC,,91140,91661,Villebon-sur-Yvette,,
35968,IDF9403011,"Choisy, 38-40 avenue de Choisy",adresse,"Meubles Oscar, ex SEPR",Menuiserie,94310,94054,Orly,,
35969,IDF9403029,"Canal, 2 quai du Canal",adresse,"BI-METAL, Compagnie",Garage,94340,94042,Joinville-le-Pont,,
35970,IDF9403050,"Choisy, 38 avenue de Choisy",adresse,"PAVIA, Ets",Atelier d'application de peinture et vernis,94310,94054,Orly,,
35991,IDF9403105,"Bagnolet, 31 rue de Bagnolet",adresse,Garage d'automobiles,Garage,94300,94080,Vincennes,,
35992,IDF9403065,Sentier du contre haloge APPT B- A,lieu-dit,"Noirot, Ets",Dépôt de liquides inflammables,94600,94022,Choisy-le-Roi,,
35994,IDF9403079,"Nationale, 5 route Nationale",adresse,Economie (SARL),Dépôt de liquides inflammables,94000,94028,Créteil,,
35995,IDF9403097,"Départ., 25 RD. de Villeneuve",rue,Compagnie de gaz,Garage,94310,94054,Orly,,
35996,IDF9403123,"Joinville, 8 bis route de Joinville",adresse,Dépôt de liquides inflammables,Dépôt de liquides inflammables,94500,94017,Champigny-sur-Marne,,
35997,IDF9403124,"Villiers, 36 route de Villiers",adresse,Garage d'automobiles,Garage,94500,94017,Champigny-sur-Marne,,
36024,IDF9103262,"Chère, rue",lieu-dit,"FECIC (Fabrication, Etudes, Conseils pour l'Industrie Chimique)",Industrie chimique,91820,91639,Vayres-sur-Essonne,,
36057,IDF9103609,"Mairie, Place de la",lieu-dit,"AU PIED DE VIGNE, ex GATEAU",,91330,91691,Yerres,,
36069,IDF9103624,"Millet, 8 rue Eugène",adresse,"MINET, ex ROBERT, ex GIBERT",Station service,91590,91232,La Ferté-Alais,,
36119,IDF9105016,"Paron, passage du",lieu-dit,,Pressing,91370,91645,Verrières-le-Buisson,,
36159,IDF9103589,"Saule Trapu, rue du",adresse,DODECA,Casse automobile,91320,91689,Wissous,,
36162,IDF9103628,"Tuilerie, hameau de la",lieu-dit,GARAGE SRAMA,Garage,91650,91105,Breuillet,,
36163,IDF9103636,"Sainte-Barbe, 12 rue",adresse,VALLANTIN André,Forge,91590,91232,La Ferté-Alais,,
36164,IDF9103637,"Boileau, rue - ZI de la Rachée",lieu-dit,VERNIS JACQUELIN,Fabrique de peintures et solvants,91530,91540,Saint-Chéron,,
36166,IDF9103639,"Adeline, place",rue,BOIZOT Etienne,Station service,91750,91135,Champcueil,,
36176,IDF9403172,"Villejuif, 29 route de Villejuif",adresse,"Lafont, Ets",Dépôt de liquides inflammables,94240,94038,L'Haÿ-les-Roses,,
36177,IDF9403173,"Laterne, 6 rue Laterne",adresse,Garage d'automobiles,Garage,94700,94046,Maisons-Alfort,,
36217,IDF9103656,"Boileau, rue",rue,"VERNIS JACQUELIN + LAPORTE ELECTRONICS, ex DEBONO",Fabrique de vernis,91530,91540,Saint-Chéron,,
36223,IDF9104009,"National 7, n°4 route",adresse,SHELL station service,Station service,91350,91286,Grigny,,
36224,IDF9104010,"Lavoisier, 32 rue",adresse,ISOCHEM VERT LE PETIT(ex-IRCHA),Industrie chimique,91710,91649,Vert-le-Petit,,
36226,IDF9104012,"Tremblay, 2 route de",adresse,SIVOM de la vallée de l'Yerres,Déchetterie,91480,91631,Varennes-Jarcy,,
36235,IDF9402379,"Vitry, 30 rue de Vitry",adresse,LAINE,Dépôt de liquides inflammables,94140,94002,Alfortville,,
36270,IDF9102922,RN 306,rue,BP,,91400,91534,Saclay,,
36274,IDF9403290,Marché d¿Intérêt National,lieu-dit,"EUROPEEN D'ENTREPRISE, Sté",Dépôt de liquides inflammables,94150,94065,Rungis,,
36281,IDF9403309,"Choisy, 103 avenue de Choisy",adresse,"LOREAU, Ets",Garage,94310,94054,Orly,,
36282,IDF9403317,"Mairie, 26 Avenue de la Mairie",adresse,"ROUX, Ets",Station-service,94550,94021,Chevilly-Larue,,
36283,IDF9403322,"Choisy, 33 Avenue de Choisy",adresse,"MORICEAU, Ets",Station-service,94310,94054,Orly,,
36301,IDF9402498,"Versailles, route de Versailles",rue,QUERET,Dépôt de liquides inflammables,94260,94034,Fresnes,,
36302,IDF9402499,"Nationale, 186 route Nationale",adresse,MOUREAU,Dépôt de liquides inflammables,94260,94034,Fresnes,,
36305,IDF9403348,"Fau, 50/70 Voie des Fau",lieu-dit,"SOGEV , Sté ( Sté Générale du vide )",Dépôt de liquides inflammables,94600,94022,Choisy-le-Roi,,
36307,IDF9403361,"Choisy, 83-85-87 Avenue de Choisy",adresse,Desmarais Frères,Dépôt de liquides inflammables,94310,94054,Orly,,
36308,IDF9403368,"Chemin Vicinal, N°7 Ordinaire",lieu-dit,Pompes Funèbres Générales,Dépôt de liquides inflammables,94150,94065,Rungis,,
36319,IDF9402571,"Francklin, 67 rue Francklin",adresse,LABORATOIRE DE SYNTHESE ATOMIQUE,Dépôt de liquides inflammables,94200,94041,Ivry-sur-Seine,,
36657,IDF9101212,"Parc Elisabeth, Résidence du",lieu-dit,"SOCHAN, ex CHALVENT, ex PARITHERM",Travaux de bâtiments,91000,91228,Évry,,
36659,IDF9101214,"Foch, 11 Bd du Maréchal",adresse,DESRUES Ferdinand,Station service,91000,91228,Évry,,
36667,IDF9101199,RN 7,rue,CENTRE DE MATERIAUX DE L'ECOLE DES MINES DE PARIS,Enseignement,91000,91228,Évry,,
36680,IDF7800376,"37, rue de Saint Germain",adresse,SOC ?,,,78146,Chatou,,
36683,IDF7801770,rue ?,nulle,GIT PROCESS,,78120,78517,Rambouillet,,
36685,IDF7801773,rue ?,nulle,STANEXEL,,78120,78517,Rambouillet,,
36687,IDF7801783,CD 936,rue,SAVOURE (S.A.R.L.),,78120,78517,Rambouillet,,
36696,IDF7801803,rue de la Fosse Jean (route du Moulinet),rue,SOC ?,,78120,78517,Rambouillet,,
